PracNo,PartnershipNo,practiceName,Address1,Address2,Address3,Postcode,TelNo,Lat,Long,Easting,Northing
1,PE0297,Dr. IRWIN,HOLYWOOD ARCHES HEALTH CENTRE,WESTMINSTER AVENUE,BELFAST,BT4 1NS,(028) 90563360,54.601701,-5.884719,149197,529885
3,PE0168,Dr. MCCUTCHEON & PARTNERS,HOLYWOOD ARCHES HEALTH CENTRE,WESTMINSTER AVE,BELFAST,BT4 1NS,(028) 9056 3350,54.601701,-5.884719,149197,529885
5,PE1451,Dr. MCBRIEN,CASTLE MEDICAL CENTRE,35-45 CASTLEREAGH ROAD,BELFAST,BT5 5FB,(028) 9045 7109,54.591825,-5.897981,148280,528834
6,PE0672,Dr. SHARKEY & PARTNERS,CARRYDUFF SURGERY,HILLSBOROUGH ROAD,CARRYDUFF  BELFAST,BT8 8HR,(028) 9081 2211,54.513338,-5.892255,148166,520087
9,PE0211,Dr. RAINEY & PARTNERS,372 CREGAGH ROAD,BELFAST,,BT6 9EY,(028) 9079 2214,54.570797,-5.89304,148470,526479
10,PE0018,Dr. WILSON,TEMPLEMORE MEDICAL CENTRE,225 ALBERTBRIDGE ROAD,BELFAST,BT5 4PX,(028) 90467630,54.596303,-5.899388,148217,529337
13,PE1124,Dr. COOGAN,TEMPLEMORE MEDICAL CENTRE,225 ALBERTBRIDGE ROAD,BELFAST,BT5 4PX,(028) 90467630,54.596303,-5.899388,148217,529337
14,PE0117,Dr. MAXWELL & PARTNERS,KERRSLAND SURGERY,169 UPPER NEWTOWNARDS ROAD,BELFAST,BT4 3HZ,(028) 90296600,54.5961,-5.874757,149806,529227
15,PE0271,Dr. MCGARRITY & PARTNERS,54 HOLYWOOD ROAD,BELFAST,,BT4 1NT,(028) 9065 4668,54.598021,-5.886981,149029,529484
16,PE0025,Dr. ROSS & PARTNERS,KNOCK MEDICAL CENTRE,423B UPPER NEWTOWNARDS ROAD,BELFAST,BT4 3LH,(028) 90654018,54.594363,-5.857847,150887,528973
17,PE0205,Dr. SCOTT & PARTNERS,HOLYWOOD ARCHES HEALTH CENTRE,WESTMINSTER AVENUE,BELFAST,BT4 1NS,(028) 9056 3394,54.601701,-5.884719,149197,529885
18,PE0030,Dr. CLEMENTS & PARTNERS,"BRYSON STREET SURGERY, CITY EAST",68-72  NEWTOWNARDS ROAD,BELFAST,BT4 1GW,(028) 9045 8722,54.600093,-5.906034,147812,529783
19,PE0155,Dr. BURKE & PARTNERS,LINEN COURT SURGERY,336 BEERSBRIDGE ROAD,BELFAST,BT5 5DY,(028) 9045 7677,54.59347,-5.888114,148928,528982
20,PE0822,Dr. KYLE & PARTNERS,HOLYWOOD ARCHES HEALTH CENTRE,WESTMINSTER AVENUE,BELFAST,BT4 1NS,(028) 9056 3362,54.601701,-5.884719,149197,529885
23,PE1430,Dr. HOEY & PARTNERS,HARLAND MEDICAL PRACTICE,WESTMINSTER AVENUE,BELFAST,BT4 1NS,(028) 9056 3397,54.601701,-5.884719,149197,529885
24,PE0321,Dr. MCKEE & PARTNER,THE MOUNT PRACTICE,50 CASTLEREAGH STREET,BELFAST,BT5 4NH,(028) 90458314,54.594483,-5.903202,147960,529149
28,PE0212,Dr. GILMER & PARTNERS,HOLYWOOD ARCHES HEALTH CENTRE,WESTMINSTER AVENUE,BELFAST,BT4 1NS,(028) 9056 3358,54.601701,-5.884719,149197,529885
29,PE0996,Dr. SAVAGE & PARTNERS,CASTLEREAGH MEDICAL CENTRE,21 BALLYGOWAN  ROAD,BELFAST,BT5 7LH,(028) 9079 8308,54.578066,-5.871304,149918,527209
30,PE1026,Dr. STEVENS & PARTNER,EASTSIDE SURGERY,56 TEMPLEMORE AVENUE,BELFAST,BT5 4FT,(028) 9045 1000,54.597748,-5.901603,148083,529506
31,PE0260,Dr. CALLAGHAN & PARTNERS,DUNDONALD MEDICAL CENTRE,16 CHURCH ROAD,"DUNDONALD, BELFAST",BT16 2LN,(028) 90483100,54.592863,-5.80303,154418,528613
32,PE0536,Dr. WILSON & PARTNERS,WILLOWFIELD SURGERY,50/52 CASTLEREAGH ROAD,BELFAST,BT5 5FP,(028) 9045 7862,54.590707,-5.896948,148340,528706
33,PE1087,Dr. RODGERS & PARTNERS,222 WOODSTOCK ROAD,BELFAST,,BT6 9DL,(028) 9045 8103,54.591951,-5.902705,147976,528865
36,PE1098,Dr. MCCOMB & PARTNER,HOLYWOOD ARCHES HEALTH CENTRE,WESTMINSTER AVENUE,BELFAST,BT4 1NS,(028) 9056 3336,54.601701,-5.884719,149197,529885
37,PE1117,Dr. MONCRIEFF & PARTNERS,CHERRYVALLEY HEALTH CENTRE,KINGS SQUARE,BELFAST,BT5 7BP,(028) 90 401844,54.588793,-5.844281,151729,528306
38,PE1119,Dr. MORRISON & PARTNER,CHERRYVALLEY HEALTH CENTRE,KINGS SQUARE,BELFAST,BT5 7BP,(028) 9070 9248,54.588793,-5.844281,151729,528306
51,PE0220,Dr. ROSS & PARTNERS,CORNERSTONE MEDICAL CENTRE,69 SHANKILL ROAD,BELFAST,BT13 1FD,(028) 90316700,54.604038,-5.946025,145255,530366
52,PE1180,Dr. SAVAGE & PARTNER,16 MCCANDLESS STREET,CRUMLIN ROAD,BELFAST,BT13 1RU,(028) 9074 6308,54.609011,-5.951098,144958,530937
53,PE1075,Dr. COLGAN,463 FALLS ROAD,BELFAST,,BT12 6DD,(028) 9024 3593,54.589254,-5.968385,143718,528803
55,PE1051,Dr. O'KANE,THE HEALTH CENTRE,94-100 CRUMLIN ROAD,BELFAST,BT14 6AR,(028) 9074 3836,54.608269,-5.938132,145790,530807
57,PE0787,Dr. CAMPBELL & PARTNER,THE CARRICKHILL MEDICAL CENTRE,1 CARRICK HILL,BELFAST,BT1 2JR,(028) 9033 0058,54.603021,-5.934333,146003,530210
58,PE0022,Dr. FARNAN & PARTNERS,THE GROUP SURGERY,257 NORTH QUEEN STREET,BELFAST,BT15 1HS,(028) 9074 8317,54.612645,-5.926422,146573,531252
60,PE0790,Dr. BURNS & PARTNER,165 DUNCAIRN GARDENS,BELFAST,CO ANTRIM,BT15 2GE,(028) 9074 3416,54.613612,-5.934243,146075,531388
61,PE0253,Dr. CROSSIN & PARTNERS,THE CARRICK HILL MEDICAL CENTRE,1 CARRICK HILL,BELFAST,BT1 2JR,02890268080,54.603021,-5.934333,146003,530210
62,PE0313,Dr. CORRIE,THE HEALTH CENTRE,94-100 CRUMLIN ROAD,BELFAST,BT14 6AR,(028) 9074 1188,54.608269,-5.938132,145790,530807
63,PE1013,Dr. O'DONNELL & PARTNER,THE SURGERY,KENNEDY CENTRE,BELFAST,BT11 9AE,(028) 9061 1411,54.580537,-5.977915,143048,527869
64,PE0007,Dr. DONAGHY & PARTNERS,DUNVILLE HEALTH CENTRE,309 GROSVENOR ROAD,BELFAST,BT12 4LP,(028) 9032 5185,54.595481,-5.952515,144782,529438
66,PE0186,Dr. MCAUGHEY & PARTNERS,"GROVE WELLBEING CENTRE, PARKSIDE SURGERY",120 YORK ROAD,BELFAST,BT15 3HF,(028) 90164600,54.61732,-5.924656,146717,531765
68,PE0075,Dr. CRAWFORD & PARTNERS,136/138 SHANKILL ROAD,BELFAST,,BT13 2BD,(028) 9031 6960,54.603257,-5.94658,145214,530281
69,PE0042,Dr. TAN & PARTNER,FLAX CENTRE,ARDOYNE AVENUE,BELFAST,BT14 7DA,(084) 4477 3459,54.614744,-5.953126,144863,531582
70,PE1021,Dr. SMYTH & PARTNERS,321 BALLYSILLAN ROAD,BELFAST,,BT14 6RD,(028) 9071 3689,54.627539,-5.964688,144198,533047
71,PE0035,Dr. LEAVY & PARTNERS,463 SPRINGFIELD ROAD,BELFAST,,BT12 7DP,(028) 9032 7126,54.598666,-5.971212,143595,529860
72,PE1369,Dr. AGAHI,MOUNTAINVIEW SURGERY,585 CRUMLIN ROAD,BELFAST,BT14 7GB,(028) 9039 2392,54.615266,-5.96527,144083,531684
73,PE0166,Dr. KNOX & PARTNER,THE HEALTH CENTRE,94-100 CRUMLIN ROAD,BELFAST,BT14 6AR,(028) 9074 1188,54.608269,-5.938132,145790,530807
74,PE0251,Dr. SIMPSON & PARTNER,DR SIMPSON & DR BEATTIE,NORTHGATE FAMILY PRACTICE,"36 DUNCAIRN GARDENS, BELFAST",BT15 2GH,(028) 9074 3184,54.612253,-5.931351,146253,531226
75,PE0069,Dr. MCCLOSKEY & PARTNERS,GROSVENOR ROAD SURGERY,216 GROSVENOR ROAD,BELFAST,BT12 5LT,(028) 9032 0777,54.594188,-5.949653,144959,529284
79,PE1131,Dr. BREADY & PARTNERS,70 SPRINGFIELD ROAD,BELFAST,CO ANTRIM,BT12 7AH,(028) 90323571,54.596014,-5.958473,144401,529519
80,PE0105,Dr. SWEENEY & PARTNERS,460 OLDPARK ROAD,BELFAST,,BT14 6QG,(028) 9074 6535,54.620349,-5.955577,144740,532214
81,PE0050,Dr. MCHUGH & PARTNERS,46 SPRINGFIELD ROAD,BELFAST,,BT12 7AH,(028) 9032 1454,54.596014,-5.958473,144401,529519
83,PE1232,Dr. CARROLL & PARTNERS,"GROVE WELLBEING CENTRE, GROVE MEDICAL PRACTICE",120 YORK ROAD,BELFAST,BT15 3HF,(028) 90164800,54.61732,-5.924656,146717,531765
84,PE0510,Dr. SALTERS & PARTNER,186 FALLS ROAD,BELFAST,,BT12 6AG,(028) 9032 3062,54.592643,-5.959195,144333,529147
85,PE0346,Dr. MACSORLEY & PARTNERS,515 ANTRIM ROAD,BELFAST,,BT15 3BS,(028) 9077 6600,54.623312,-5.938458,145863,532481
86,PE0193,Dr. LOUGHREY & PARTNERS,SALISBURY MEDICAL CENTRE,474 ANTRIM ROAD,BELFAST,BT15 5GF,(028) 9077 7905,54.640074,-5.949647,145246,534386
92,PE0112,Dr. MCFERRAN & PARTNERS,BALLYOWEN HEALTH CENTRE,179 ANDERSONSTOWN ROAD,BELFAST,BT11 9EA,(028) 9061 0611,54.572494,-5.997081,141759,527045
93,PE1061,Dr. WELLS & PARTNER,61 CLIFTONVILLE ROAD,BELFAST,,BT14 6JN,(028) 9074 7361,54.616073,-5.943144,145516,531693
94,PE1088,Dr. CUMMINGS & PARTNER,115 FALLS ROAD,BELFAST,,BT12 6AA,(028) 9032 1009,54.59415,-5.955387,144588,529300
95,PE0218,Dr. MCHUGH,BALLYOWEN HEALTH CENTRE,179 ANDERSONSTOWN ROAD,BELFAST,BT11 9EA,(028) 90610611,54.572494,-5.997081,141759,527045
96,PE0150,Dr. BROWN & PARTNERS,MALVERN FAMILY PRACTICE,69 SHANKILL ROAD,BELFAST,BT13 1FD,(028) 90267120,54.604038,-5.946025,145255,530366
98,PE0086,Dr. MCCLURE & PARTNERS,THE LIGONIEL HEALTH CENTRE,74A LIGONIEL ROAD,BELFAST,BT14 8BY,(028) 9039 1690,54.624868,-5.980868,143137,532809
101,PE0230,Dr. TOAL & PARTNERS,132-136 SANDY ROW,BELFAST,CO ANTRIM,BT12 5EY,(028) 9032 3973,54.590009,-5.936724,145767,528772
103,PE0120,Dr. DONNELLY & PARTNERS,15/17 CLIFTON STREET,BELFAST,,BT13 1AD,(028) 9032 2330,54.606644,-5.936518,145884,530621
104,PE0189,Dr. WRIGHT & PARTNERS,17 BALLYGOMARTIN ROAD,BELFAST,,BT13 3BW,(028) 9071 6333,54.608159,-5.965977,143993,530897
105,PE0015,Dr. COLLINS & PARTNERS,CORNERSTONE MEDICAL CENTRE,69 SHANKILL ROAD,BELFAST,BT13 1FD,(028) 90279880,54.604038,-5.946025,145255,530366
111,PE1166,Dr. MCKENNA,2 THAMES STREET,BELFAST,CO ANTRIM,BT12 6AP,(028) 90320547,54.592253,-5.960252,144262,529107
113,PE1150,Dr. DUGAN,173 ANDERSONSTOWN ROAD,BELFAST,,BT11 9EA,(028) 90623111,54.572494,-5.997081,141759,527045
114,PE1151,Dr. MACAULEY & PARTNERS,33 STEWARTSTOWN ROAD,BELFAST,,BT11 9FZ,(028) 9028 6800,54.570835,-6.004289,141283,526887
116,PE1156,Dr. DORAN & PARTNERS,CROCUS STREET SURGERY,1 CROCUS STREET,BELFAST,BT12 7AP,(028) 9059 3337,54.595487,-5.958231,144413,529459
132,PE0654,Dr. MCGLADE & PARTNERS,THE KELLY PRACTICE,1 DUNLUCE AVENUE,BELFAST,BT9 7HR,(028) 90204218,54.585442,-5.943131,145325,528288
136,PE1142,Dr. HAIGNEY & PARTNERS,2 MOUNT ORIEL,BELFAST,,BT8 7HR,(028) 9070 1653,54.559741,-5.912057,147173,525318
140,PE0038,Dr. CLEMENTS & PARTNERS,THE HEALTH CENTRE,1 DUNLUCE AVENUE,BELFAST,BT9 7HR,(028) 90204248,54.585442,-5.943131,145325,528288
143,PE0258,Dr. STEELE & PARTNERS,THE ROWAN TREE FAMILY PRACTICE,1 DUNLUCE AVENUE,BELFAST,BT9 7HR,(028) 9020 4216,54.585442,-5.943131,145325,528288
144,PE1054,Dr. DAWSON & PARTNERS,RAVENBANK SURGERY,113 RAVENHILL ROAD,BELFAST,BT6 8DR,(028) 9045 7132,54.591251,-5.91042,147474,528815
145,PE0064,Dr. ADAIR & PARTNERS,15A DONEGALL ROAD,BELFAST,,BT12 5JJ,(028) 90325679,54.589354,-5.937117,145738,528701
146,PE0266,Dr. BOYD & PARTNER,BALMORAL SURGERY,436 LISBURN ROAD,BELFAST,BT9 6GR,(028) 90667595,54.570105,-5.962786,143960,526654
147,PE0125,Dr. ROWAN & PARTNERS,281 ORMEAU ROAD,BELFAST,,BT7 3GG,(028) 9064 2914,54.581228,-5.921496,146696,527741
148,PE0020,Dr. RUTHERFORD,THE SURGERY,1B DRUMART SQUARE,BELVOIR ESTATE,BELFAST  BT8 7EY,(028) 9064 5746,54.548872,-5.929495,145978,524172
151,PE0114,Dr. IRWIN & PARTNERS,THE HEALTH CENTRE,13/25 FINAGHY ROAD SOUTH,BELFAST,BT10 0BX,(028) 9020 4444,54.557306,-5.983898,142515,525308
153,PE0082,Dr. O'HARE & PARTNERS,ORMEAU ROAD HEALTH CENTRE,120 ORMEAU ROAD,BELFAST,BT7 2EB,(028) 9032 6030,54.58481,-5.922017,146685,528141
154,PE1084,Dr. MCCAULEY & PARTNER,142 - 144 UNIVERSITY STREET,BELFAST,,BT7 1HH,(028) 9031 1118,54.585616,-5.926055,146429,528245
156,PE0148,Dr. CHAKRAVARTY & PARTNERS,BALLYOWEN HEALTH CENTRE,179 ANDERSONSTOWN ROAD,BELFAST,BT11 9EA,(028) 9061 0611,54.572494,-5.997081,141759,527045
157,PE1036,Dr. FAIR & PARTNERS,UNIVERSITY HEALTH CENTRE,5 LENNOXVALE,MALONE ROAD,BELFAST  BT9 5BY,(028) 9097 5551,54.578315,-5.93884,145558,527480
159,PE0505,Dr. BELL & PARTNERS,485 ORMEAU ROAD,BELFAST,,BT7 3GR,(028) 9064 1506,54.574053,-5.917754,146893,526929
162,PE0895,Dr. THOMPSON,10/12 LISBURN ROAD,BELFAST,CO ANTRIM,BT9 6AA,(028) 90325820,54.586581,-5.938343,145642,528397
164,PE1072,Dr. MURDOCK & PARTNER,CREGAGH SURGERY,36 MONTGOMERY ROAD,BELFAST,BT6 9HL,(028) 90709079,54.578829,-5.88456,149067,527341
165,PE0197,Dr. KEANE & PARTNERS,6 NORTH PARADE,BELFAST,,BT7 2GG,(028) 9064 7158,54.580454,-5.919174,146841,527646
166,PE1045,Dr. CULLEN,BOTANIC MEDICAL CENTRE,51 BOTANIC AVENUE,BELFAST,BT7 1JL,(028) 9032 0919,54.586858,-5.933648,145946,528411
191,PE0682,Dr. HARRISON & PARTNERS,THE MONTALTO MEDICAL CENTRE,2 DROMORE ROAD,BALLYNAHINCH,BT24 8AY,(028) 9756 2929,54.399548,-5.901697,146853,507469
192,PE0043,Dr. MCGILL & PARTNERS,KILLYLEAGH SURGERY,14 DOWNPATRICK ROAD,"KILLYLEAGH, DOWNPATRICK",BT30 9RG,(028) 44822811,54.397494,-5.654937,162850,506381
193,PE0620,Dr. GREER & PARTNERS,14 CHURCH VIEW,DUNDRUM,NEWCASTLE,BT33 0NA,08444773832,54.256922,-5.847382,149511,491416
194,PE1078,Dr. HYLAND & PARTNER,THE SURGERY,CAUSEWAY PLACE,NEWCASTLE,BT33 0DN,(028) 4372 2252,54.20902,-5.894052,146178,486257
195,PE1300,Dr. GILPIN,THE SURGERY,CAUSEWAY PLACE,NEWCASTLE,BT33 0DN,(028) 4372 3438,54.20902,-5.894052,146178,486257
196,PE0652,Dr. MURPHY,THE HEALTH CENTRE,DOWNPATRICK ROAD,ARDGLASS,BT30 7SF,(028) 4484 1442,54.262622,-5.6173,164522,491257
198,PE0727,Dr. ROSS & PARTNERS,THE HEALTH CENTRE,FAIRVIEW,"SAINTFIELD, BALLYNAHINCH",BT24 7AD,(028) 9751 0575,54.459178,-5.836508,151444,513866
201,PE0039,Dr. O'CONNOR & PARTNERS,56 MAIN STREET,NEWCASTLE,CO DOWN,BT33 0AE,08444773143,54.211214,-5.88924,146505,486483
202,PE0284,Dr. MOORE & PARTNER,GP & PRIMARY CARE CENTRE,"FIRST FLOOR, DOWN HOSPITAL","STRUELL WELLS ROAD, DOWNPATRICK",BT30 6RL,(028) 4461 3016,54.323767,-5.6845,160503,498282
204,PE0320,Dr. MULHALL & PARTNER,THE SURGERY,12 THE GREEN,"IRISH STREET, DOWNPATRICK",BT30 6BE,08448151085,54.325878,-5.71348,158632,498616
205,PE1257,Dr. BELL & PARTNERS,THE SURGERY,JAMES STREET,"CROSSGAR, DOWNPATRICK",BT30 9JU,(028) 4483 0230,54.396644,-5.757248,156207,506636
206,PE0178,Dr. MCGOLDRICK & PARTNER,GP & PRIMARY CARE CENTRE,"FIRST FLOOR, DOWN HOSPITAL","STRUELL WELLS ROAD, DOWNPATRICK",BT30 6RL,(028) 4461 2962,54.323767,-5.6845,160503,498282
207,PE0242,Dr. HARNEY & PARTNER,STREAM STREET SURGERY,40 STREAM STREET,DOWNPATRICK,BT30 6DE,08448151050,54.324518,-5.710486,158819,498455
221,PE0204,Dr. FLEMING & PARTNERS,HEALTH CENTRE,BALLYNAHINCH ST,HILLSBOROUGH,BT26 6AW,028 92682216,54.46241,-6.080375,135668,515115
222,PE0391,Dr. CUPPLES & PARTNERS,WOODBROOK MEDICAL PRACTICE,STEWARTSTOWN ROAD,DUNMURRY  BELFAST,BT17 0FB,(028) 9060 2931,54.558567,-6.021986,140062,525588
223,PE0094,Dr. CARSON & PARTNERS,THE HEALTH CENTRE,LINENHALL STREET,LISBURN,BT28 1LU,(028) 9260 3333,54.50938,-6.042741,138406,520197
224,PE0456,Dr. TRIMBLE & PARTNERS,THE HEALTH CENTRE,LINENHALL STREET,LISBURN,BT28 1LU,(028) 9260 3203,54.50938,-6.042741,138406,520197
226,PE0709,Dr. SMITH & PARTNERS,THE SURGERY,BEGNEY HILL ROAD,DROMARA,BT25 2AT,(028) 9753 2217,54.379762,-6.005057,140023,505646
227,PE0103,Dr. WALES & PARTNERS,THE HEALTH CENTRE,LINENHALL STREET,LISBURN,BT28 1LU,(028) 9266 6266,54.50938,-6.042741,138406,520197
228,PE0301,Dr. FORDE & PARTNER,THE HEALTH CENTRE,LINENHALL STREET,LISBURN,BT28 1LU,(028) 9260 3133,54.50938,-6.042741,138406,520197
229,PE0198,Dr. SHORTEN & PARTNERS,THE HEALTH CENTRE,LINENHALL STREET,LISBURN,BT28 1LU,(028) 9260 3090,54.50938,-6.042741,138406,520197
230,PE1376,Dr. RYAN & PARTNERS,THE HEALTH CENTRE,LINENHALL STREET,LISBURN,BT28 1LU,(028) 9260 3111,54.50938,-6.042741,138406,520197
231,PE0394,Dr. IRWIN & PARTNERS,THE HEALTH CENTRE,LINENHALL STREET,LISBURN,BT28 1LU,(028) 9260 3088,54.50938,-6.042741,138406,520197
232,PE1063,Dr. DICK & PARTNERS,192 KINGSWAY,DUNMURRY,BELFAST,BT17 9AL,(028) 9061 8211,54.546263,-6.006016,141016,524161
233,PE0190,Dr. GALLAGHER & PARTNER,GLENAVY FAMILY PRACTICE,47 MAIN STREET,"GLENAVY, CRUMLIN",BT29 4LN,(028) 9442 2287,54.591728,-6.214645,127834,530005
234,PE1128,Dr. PATTERSON,THE HEALTH CENTRE,LINENHALL STREET,LISBURN,BT28 1LU,(028) 9260 3177,54.50938,-6.042741,138406,520197
252,PE0194,Dr. LAWSON & PARTNERS,PRIORY SURGERY,26 HIGH STREET,HOLYWOOD,BT18 9AD,084 44773396,54.641459,-5.834015,152712,534126
253,PE0268,Dr. GILMORE & PARTNERS,THE HEALTH CENTRE,NEWTOWNARDS ROAD,BANGOR,BT20 4LD,(028) 9151 5200,54.660282,-5.66543,163694,535638
254,PE0213,Dr. MOLES & PARTNER,24 LISBARNETT ROAD,LISBANE,NEWTOWNARDS,BT23 6AW,(028) 9754 1466,54.50022,-5.719764,159249,518024
255,PE1040,Dr. MILLIKEN & PARTNERS,THE HEALTH CENTRE,NEWTOWNARDS ROAD,BANGOR,BT20 4LD,(028) 9151 5250,54.660282,-5.66543,163694,535638
256,PE0059,Dr. CRAIG & PARTNERS,140 GROOMSPORT ROAD,BANGOR,CO DOWN,BT20 5PE,08444996601,54.665543,-5.638891,165435,536134
257,PE0181,Dr. MCCREERY & PARTNERS,THE SURGERY,BROOK STREET,HOLYWOOD,BT18 9DA,08444773350,54.640606,-5.830928,152906,534020
258,PE0603,Dr. DREW & PARTNER,THE HEALTH CENTRE,NEWTOWNARDS ROAD,BANGOR,BT20 4LD,(028) 9151 5222,54.660282,-5.66543,163694,535638
259,PE1011,Dr. DOYLE & PARTNERS,CUAN FAMILY PRACTICE,44 HIGH STREET,"PORTAFERRY, NEWTOWNARDS",BT22 1QT,(028) 42728854,54.382091,-5.545065,169893,504303
260,PE0684,Dr. CRAWFORD & PARTNERS,THE HEALTH CENTRE,NEWTOWNARDS ROAD,BANGOR,BT20 4LD,(028) 9151 5215,54.660282,-5.66543,163694,535638
261,PE1322,Dr. NEOH & PARTNERS,KILLYNETHER PRACTICE,2A FREDERICK STREET,NEWTOWNARDS,BT23 4LR,08445769306,54.593191,-5.703509,160846,528306
263,PE1008,Dr. BISSETT,DR ROBERT HENRY SURGERY,7A NEWTOWNARDS ROAD,"COMBER, NEWTOWNARDS",BT23 5AU,(028) 9187 0447,54.551439,-5.741256,158161,523793
264,PE0295,Dr. MAJURY,SILVERBIRCH MEDICAL PRACTICE,39A SILVERBIRCH ROAD,BANGOR,BT19 6EU,(028) 9145 5000,54.652258,-5.632631,165762,534636
265,PE0622,Dr. MCGAUGHEY & PARTNERS,THE SURGERY,1 CHURCH STREET,NEWTOWNARDS,BT23 4FH,(028) 9181 6333,54.594179,-5.70482,160767,528421
267,PE1025,Dr. SEMPLE & PARTNER,THE HEALTH CENTRE,5 NEWTOWNARDS ROAD,"COMBER, NEWTOWNARDS",BT23 5BA,(028) 9187 8391,54.550607,-5.740985,158174,523700
271,PE1126,Dr. WINTER & PARTNERS,OLD MILL SURGERY,CHURCH STREET,NEWTOWNARDS,BT23 4AS,08444994474,54.593456,-5.705768,160701,528344
272,PE0671,Dr. MCKEOWN & PARTNERS,16 A THE SQUARE,COMBER,NEWTOWNARDS,BT23 5DT,(028) 9187 8159,54.55093,-5.745357,157893,523750
273,PE0632,Dr. MCMILLAN & PARTNER,THE HEALTH CENTRE,5 NEWTOWNARDS ROAD,"COMBER, NEWTOWNARDS",BT23 5BA,(028) 9187 8391,54.550607,-5.740985,158174,523700
274,PE0081,Dr. MEGARITY & PARTNERS,BLOOMFIELD SURGERY,95 BLOOMFIELD ROAD,BANGOR,BT20 4XA,0844 477 3281,54.64977,-5.662818,163802,534460
275,PE1081,Dr. WEBB & PARTNER,REGENCY MEDICAL CENTRE,2A FREDERICK STREET,NEWTOWNARDS,BT23 4LR,08445769306,54.593191,-5.703509,160846,528306
276,PE0134,Dr. BECKETT & PARTNERS,DONAGHADEE HEALTH CENTRE,3 KILLAUGHEY ROAD,DONAGHADEE,BT21 0BU,(028) 9188 2176,54.640163,-5.536083,171920,532972
278,PE0738,Dr. KENNEDY & PARTNERS,THE SURGERY,1 CHURCH STREET,NEWTOWNARDS,BT23 4FH,(028) 9181 6333,54.594179,-5.70482,160767,528421
279,PE1357,Dr. O'NEILL & PARTNER,WINDMILL SURGERY,44 HIGH STREET,PORTAFERRY,NEWTOWNARDS  BT22 1QT,(028) 4272 8420,54.382091,-5.545065,169893,504303
280,PE0053,Dr. MCMINN & PARTNERS,THE HEALTH CENTRE,NEWTOWNARDS ROAD,BANGOR,BT20 4LD,(028) 9151 5300,54.660282,-5.66543,163694,535638
281,PE0690,Dr. ABRAHAM & PARTNERS,CLELAND PARK SURGERY,2 CLELAND PARK,BANGOR,BT20 3EB,(028) 9145 2410,54.646364,-5.676998,162867,534129
282,PE1079,Dr. STEELE & PARTNERS,THE HEALTH CENTRE,FOWLER WAY,"BALLYWALTER, NEWTOWNARDS",BT22 2PY,(028) 4275 8292,54.54586,-5.485058,174691,522321
283,PE0739,Dr. MAGEEAN & PARTNERS,LOUGH VIEW SURGERY,2 MAIN STREET,"KIRCUBBIN, NEWTOWNARDS",BT22 2SP,(028) 4273 8532,54.489653,-5.532927,171282,516225
284,PE0852,Dr. ARMSTRONG & PARTNERS,THE SURGERY,1 CHURCH STREET,NEWTOWNARDS,BT23 4FH,(028) 9181 6333,54.594179,-5.70482,160767,528421
285,PE1191,Dr. JACKSON,GREEN ROAD MEDICAL CENTRE,5 GREEN ROAD,"CONLIG, NEWTOWNARDS",BT23 7PZ,(028) 91474900,54.632267,-5.670005,163236,532538
302,PN0273,Dr. CAMERON & PARTNERS,THE SURGERY,80 CASTLETON,TEMPLEPATRICK,BALLYCLARE  BT39 0AZ,(028) 9443 2202,54.699628,-6.102835,135755,541574
303,PN0370,Dr. THOMPSON & PARTNERS,1 GLENAVY ROAD,CRUMLIN,CO ANTRIM,BT29 4LA,(028) 9442 2209,54.611721,-6.217551,127780,532239
304,PN4155,Dr. BUTLER & PARTNERS,"MAINE MEDICAL, THE HEALTH CENTRE",PORTGLENONE ROAD,"AHOGHILL, BALLYMENA",BT42 1LE,028 25871200,54.849412,-6.368204,119707,559258
305,PN0925,Dr. HARPER & PARTNERS,THE HEALTH CENTRE,CUSHENDALL ROAD,BALLYMENA,BT43 6HQ,(028) 25313030,54.874035,-6.27273,125999,561617
307,PN4078,Dr. FIELD,THE HEALTH CENTRE,STATION ROAD,ANTRIM,BT41 4BS,(028) 94413910,54.716598,-6.212032,128837,543878
308,PN0465,Dr. HUNTER & PARTNERS,ORIEL SURGERY,31 ORIEL ROAD,ANTRIM,BT41 4HR,(028) 94464936,54.719072,-6.213288,128773,544158
310,PN0221,Dr. MCKELVEY & PARTNERS,CULLYBACKEY HEALTH CENTRE,TOBER PARK,"CULLYBACKEY, BALLYMENA",BT42 1NW,(028) 2588 0505,54.889591,-6.350306,121133,563653
311,PN0335,Dr. MAGOWAN & PARTNER,THE SURGERY,77 GALGORM ROAD,BALLYMENA,BT42 1AA,(028) 25639399,54.86258,-6.283769,125213,560387
312,PN0441,Dr. PURCE & PARTNER,THE HEALTH CENTRE,CUSHENDALL ROAD,BALLYMENA,BT43 6HQ,(028) 25313070,54.874035,-6.27273,125999,561617
313,PN0378,Dr. RUSSELL & PARTNER,THE GABLES,45 WAVENEY ROAD,BALLYMENA,BT43 5BA,(028) 2565 3237,54.862114,-6.27983,125463,560320
314,PN0401,Dr. MCFARLAND & PARTNERS,THE HEALTH CENTRE,CUSHENDALL ROAD,BALLYMENA,BT43 6HQ,(028) 25313050,54.874035,-6.27273,125999,561617
315,PN0490,Dr. O'HARA & PARTNER,CUSHENDALL ROAD,BALLYMENA,CO ANTRIM,BT43 6HQ,(028) 2531 3110,54.874035,-6.27273,125999,561617
317,PN4027,Dr. REDMOND & PARTNERS,THE HEALTH CENTRE,76 MAIN STREET,BROUGHSHANE BALLYMENA,BT42 4JA,(028) 2586 1214,54.894427,-6.205117,130470,563622
319,PN0359,Dr. WILSON & PARTNERS,PORTGLENONE HEALTH CENTRE,17 TOWNHILL ROAD,"PORTGLENONE, BALLYMENA",BT44 8AD,(028) 25821551,54.875483,-6.476438,112950,562595
321,PN0354,Dr. MCQUILLAN & PARTNER,THE HEALTH CENTRE,CUSHENDALL ROAD,BALLYMENA,BT43 6HQ,(028) 25313090,54.874035,-6.27273,125999,561617
323,PN0495,Dr. SIMPSON & PARTNER,SMITHFIELD MEDICAL CENTRE,7 SMITHFIELD PLACE,"GALGORM ROAD, BALLYMENA",BT43 5HB,(028) 2565 2301,54.865458,-6.282474,125316,560702
325,PN4100,Dr. BILL,KELLS & CONNOR MEDICAL CENTRE,36 CHURCH ROAD,"KELLS, BALLYMENA",BT42 3JU,(028) 2589 1420,54.807701,-6.21557,129219,554020
326,PN0475,Dr. MCCUSKER & PARTNERS,THE FAMILY PRACTICE,THE HEALTH CENTRE,"STATION ROAD, ANTRIM",BT41 4BS,(028) 94413930,54.716598,-6.212032,128837,543878
327,PN4101,Dr. KIDD & PARTNER,THE HEALTH CENTRE,STATION ROAD,ANTRIM,BT41 4BS,(028) 94413950,54.716598,-6.212032,128837,543878
328,PN0917,Dr. JOHNSTON & PARTNERS,MAINE MEDICAL PRACTICE,"OLD MILL PARK, MAIN STREET","CULLYBACKEY, BALLYMENA",BT42 1GP,(028) 25882222,54.888267,-6.355905,120765,563529
329,PN0206,Dr. MOSS & PARTNERS,THE HEALTH CENTRE,STATION ROAD,ANTRIM,BT41 4BS,(028) 94413920,54.716598,-6.212032,128837,543878
330,PN4039,Dr. TURK & PARTNER,THE HEALTH CENTRE,STATION ROAD, ANTRIM,BT41 4BS,(028) 94413940,54.716598,-6.212032,128837,543878
331,PN4060,Dr. HUEY & PARTNER,THE HEALTH CENTRE,CUSHENDALL ROAD,BALLYMENA,BT43 6HQ,(028) 25313010,54.874035,-6.27273,125999,561617
333,PN4184,Dr. JOHNSTON & PARTNER,THE SURGERY,"TOOME HOUSE, 55 MAIN STREET","TOOMEBRIDGE, ANTRIM",BT41 3TF,(028) 79651250,54.753399,-6.463176,112934,548970
334,PN4084,Dr. MCCAUGHEY & PARTNERS,THE HEALTH CENTRE,5 NEILLSBROOK ROAD,"RANDALSTOWN, ANTRIM",BT41 3AE,(028) 9447 2575,54.751022,-6.320359,122101,548129
336,PN4117,Dr. HEGAN & PARTNERS,2 MALLUSK ROAD,NEWTOWNABBEY,,BT36 4PP,(028) 90832188,54.673303,-5.986706,143066,538215
337,PN4120,Dr. KYLE & PARTNERS,GLENGORMLEY PRACTICE,324 ANTRIM ROAD,NEWTOWNABBEY,BT36 5EQ,(028) 90848420,54.672475,-5.960503,144750,538028
341,PN0529,Dr. MOLES & PARTNERS,THE HEALTH CENTRE,CASTLEROCK ROAD,COLERAINE,BT51 3HP,(028) 7034 4833,55.133811,-6.681517,101731,592171
344,PN0843,Dr. QUIERY & PARTNERS,KILLOWEN MEDICAL CENTRE,CASTLEROCK ROAD,COLERAINE,BT51 3HP,(028) 7034 4834,55.133811,-6.681517,101731,592171
345,PN0084,Dr. MURDOCK & PARTNERS,BALLYMONEY FAMILY PRACTICE,BALLYMONEY HEALTH CENTRE,"21B NEWAL ROAD, BALLYMONEY",BT53 6HB,(028) 2766 0300,55.072224,-6.506707,112422,584591
346,PN0855,Dr. BURNS & PARTNERS,LODGE HEALTH,20 LODGE MANOR,COLERAINE,BT52 1JX,(028) 7034 4494,55.126379,-6.663566,102819,591268
349,PN0411,Dr. LYNCH & PARTNERS,THE COUNTRY MEDICAL PRACTICE,122 BALLINLEA ROAD,"ARMOY, BALLYMONEY",BT53 8TY,(028) 2075 1266,55.161651,-6.378358,121233,594011
350,PN4026,Dr. BROWN & PARTNER,6 PRIESTLAND ROAD,BUSHMILLS,,BT57 8QP,(028) 20731233,55.203435,-6.528816,111959,599268
351,PN0405,Dr. BAILIE & PARTNERS,PORTRUSH MEDICAL CENTRE,17 DUNLUCE AVENUE,PORTRUSH,BT56 8DW,08448151028,55.202112,-6.653168,104044,599642
352,PN0724,Dr. ORR & PARTNERS,GARVAGH HEALTH CENTRE,110 MAIN STREET,"GARVAGH, COLERAINE",BT51 5AE,(028) 2955 8210,54.982021,-6.688743,100137,575330
354,PN0871,Dr. HARLEY & PARTNER,THE FAMILY PRACTICE,6 LEVER ROAD,PORTSTEWART,BT55 7EF,(028) 7083 2149,55.182755,-6.715399,99942,597757
355,PN0192,Dr. MCCORMACK & PARTNERS,THE HEALTH CENTRE,36 GARVAGH ROAD,"KILREA, COLERAINE",BT51 5QP,08445769226,54.952116,-6.566415,107739,571487
356,PN0101,Dr. BROWN & PARTNERS,4 MOUNTSANDEL ROAD,COLERAINE,CO LONDONDERRY,BT52 1JB,(028) 7034 2650,55.126893,-6.669894,102420,591352
357,PN0464,Dr. GRANT & PARTNERS,GLENS OF ANTRIM MEDICAL CENTRE,2 GORTACLEE ROAD,"CUSHENDALL, BALLYMENA",BT44 0TE,(028) 2177 1411,55.075503,-6.057977,141069,583198
358,PN0851,Dr. SIBERRY & PARTNER,"""LIFFOCK""",69 SEA ROAD,"CASTLEROCK, COLERAINE",BT51 4TW,(028) 7084 8206,55.161317,-6.788217,95146,595690
360,PN0448,Dr. YOUNG & PARTNERS,THE HEALTH CENTRE,10 MONEYLECK ROAD,"RASHARKIN, BALLYMENA",BT44 8QB,(028) 2957 1203,54.958826,-6.485494,112964,571897
361,PN0384,Dr. FANNIN & PARTNERS,THE HEALTH CENTRE,ROBINSON MEMORIAL HOSPITAL,BALLYMONEY,BT53 6HH,0844 4773835,55.070862,-6.506306,112437,584438
366,PN0175,Dr. MCLISTER & PARTNERS,THE HEALTH CENTRE,DALRIADA HOSPITAL,BALLYCASTLE,BT54 6BA,(028) 20768663,55.200249,-6.25901,129092,597831
367,PN4056,Dr. MCCURDY & PARTNERS,THE FROCESS MEDICAL CENTRE,56 MAIN STREET,"CLOUGHMILLS, BALLYMENA",BT44 9LF,(028) 2763 8383,54.997187,-6.331027,123110,575538
368,PN0561,Dr. HEGARTY & PARTNERS,THE HEALTH CENTRE,DALRIADA HOSPITAL,BALLYCASTLE,BT54 6BA,(028) 2076 2684,55.200249,-6.25901,129092,597831
369,PN0460,Dr. O'LOAN & PARTNERS,PORTSTEWART MEDICAL CENTRE,MILL ROAD,PORTSTEWART,BT55 7SW,(028) 7083 2600,55.178641,-6.708095,100375,597268
382,PN0091,Dr. STONE & PARTNERS,MEADOWBRIDGE SURGERY,SLAUGHTERFORD ROAD,"WHITEHEAD, CARRICKFERGUS",BT38 9TG,(028) 9335 3454,54.762118,-5.724097,160514,547161
384,PN4265,Dr. MCILROY & PARTNERS,"BLACKARCH SURGERY, LARNE HEALTH CENTRE",GLOUCESTER AVENUE,LARNE,BT40 1PB,(028) 2826 1925,54.853406,-5.819508,154933,557642
385,PN0470,Dr. CROTHERS & PARTNERS,OLD SCHOOL SURGERY,54 STATION ROAD,GREENISLAND,CARRICKFERGUS  BT38 8TP,(028) 9086 4455,54.694259,-5.86459,151064,540105
386,PN0352,Dr. GLOVER,CLONEY,GLENARM,BALLYMENA CO ANTRIM,BT44 0AB,(028) 2884 1214,54.968973,-5.95684,146850,570982
387,PN0527,Dr. BUCKLEY & PARTNERS,THE HEALTH CENTRE,TAYLORS AVENUE,CARRICKFERGUS,BT38 7HT,(028) 93315955,54.720072,-5.799447,155415,542746
388,PN0518,Dr. SHEPHERD & PARTNERS,INVER SURGERY,MOYLE MEDICAL CENTRE,OLD GLENARM ROAD,LARNE  BT40 1XH,(028) 2826 1611,54.849791,-5.819451,154914,557240
389,PN0351,Dr. MCILROY & PARTNERS,CORRAN SURGERY,MOYLE MEDICAL CENTRE,OLD GLENARM ROAD,LARNE  BT40 1XH,(028) 2826 1600,54.849791,-5.819451,154914,557240
390,PN0288,Dr. BOLTON & PARTNERS,THE HEALTH CENTRE,TAYLORS AVENUE,CARRICKFERGUS,BT38 7HT,(028) 9331 5805,54.720072,-5.799447,155415,542746
391,PN0324,Dr. WILSON & PARTNERS,VICTORIA SURGERY,MOYLE MEDICAL CENTRE,OLD GLENARM ROAD,LARNE  BT40 1XH,(028) 2826 1620,54.849791,-5.819451,154914,557240
393,PN4080,Dr. BLACK & PARTNER,THE HEALTH CENTRE,GLOUCESTER AVENUE,LARNE,BT40 1PB,(028) 2826 1919,54.853406,-5.819508,154933,557642
394,PN4069,Dr. HOWIE & PARTNERS,THE HEALTH CENTRE,GLOUCESTER AVENUE,LARNE,BT40 1PB,(028) 2826 1910,54.853406,-5.819508,154933,557642
395,PN4139,Dr. WILSON,ROCKFIELD MEDICAL CENTRE,BALLYMENA,,BT43 6JD,028 25638800,54.875959,-6.279087,125604,561856
396,PN4140,Dr. VERCOE-ROGERS & PARTNER,OLD BANK SURGERY,97 MILL STREET,BALLYMENA,BT43 5AF,028 25643111,54.864197,-6.277681,125615,560543
401,PN0959,Dr. WRAY & PARTNERS,THE HEALTH CENTRE,52 ORRITOR ROAD,COOKSTOWN,BT80 8BN,(028) 8676 2995,54.648405,-6.759929,93062,538556
402,PN0880,Dr. WHITE & PARTNERS,DRAPERSTOWN SURGERY,6 TOBERMORE ROAD,"DRAPERSTOWN, MAGHERAFELT",BT45 7AG,(028) 7962 8201,54.794752,-6.780597,92841,554913
404,PN0396,Dr. DALZELL & PARTNERS,67 URBAL ROAD,COAGH,COOKSTOWN,BT80 0DP,(028) 8673 7243,54.643901,-6.62023,102034,537453
405,PN0452,Dr. FLANIGAN & PARTNER,LOY MEDICAL CENTRE,8 LOY STREET,COOKSTOWN,BT80 8PE,(028) 8676 3030,54.643321,-6.743345,94093,537919
406,PN0817,Dr. GLANCY & PARTNERS,29 GARDEN STREET,MAGHERAFELT,CO LONDONDERRY,BT45 5DD,(028) 7963 1277,54.75669,-6.611421,103427,549953
407,PN0901,Dr. O'KANE & PARTNERS,OAKS FAMILY PRACTICE CENTRE,48 ORRITOR ROAD,COOKSTOWN,BT80 8BH,(028) 8676 2249,54.648117,-6.755398,93352,538505
409,PN0972,Dr. MCCOY & PARTNERS,THE HEALTH CENTRE,50 HILLHEAD,"STEWARTSTOWN, DUNGANNON",BT71 5HY,(028) 8773 8648,54.574489,-6.6791,97724,529990
410,PN0875,Dr. COLLINS & PARTNERS,MAGHERA MEDICAL CENTRE,25 CHURCH STREET,MAGHERA,BT46 5EA,(028) 7964 2579,54.842894,-6.667866,100438,559776
412,PN0184,Dr. NOBLE & PARTNERS,THE DIAMOND MEDICAL CENTRE,MARKET SQUARE,MAGHERAFELT,BT45 6ED,(028) 79361001,54.754889,-6.606697,103718,549733
413,PN4144,Dr. GRAHAM,LOY BUILDINGS,18 LOY STREET,COOKSTOWN,BT80 8PE,(028) 8676 2207,54.643321,-6.743345,94093,537919
417,PN4036,Dr. HINDS & PARTNERS,BELLAGHY HEALTH CENTRE,WILLIAM STREET,"BELLAGHY, MAGHERAFELT",BT45 8HZ,(028) 79468294,54.810628,-6.516713,109903,555552
418,PN4261,Dr. STEVENSON,THE DIAMOND MEDICAL CENTRE,MARKET SQUARE,MAGHERAFELT,BT45 6ED,(028) 7936 1000,54.754889,-6.606697,103718,549733
419,PN4046,Dr. CHARLTON,FAIR HILL HEALTH CENTRE,MAGHERAFELT,CO LONDONDERRY,BT45 6BL,(028) 7930 2904,54.753932,-6.604374,103860,549617
420,PN4057,Dr. KURIACOSE & PARTNERS,MONEYMORE  MEDICAL PRACTICE,3 FAIRHILL,MONEYMORE,BT45 7LJ,(028) 8674 8350,54.809306,-6.777519,93149,556517
431,PN0414,Dr. MEENAN & PARTNERS,WHITEHOUSE MEDICAL GROUP PRACTICE,"UNIT 29A, FIRST FLOOR, ABBEYCENTRE","LONGWOOD ROAD, NEWTOWNABBEY",BT37 9UH,(028) 90360525,54.654949,-5.917833,147391,535925
433,PN0111,Dr. LOGAN & PARTNERS,THE HEALTH CENTRE,GEORGE AVENUE,BALLYCLARE,BT39 9HL,(028) 9332 2575,54.753369,-6.006313,142312,547190
434,PN4000,Dr. HENDRON & PARTNERS,ABBOTS CROSS MEDICAL PRACTICE,92 DOAGH ROAD,NEWTOWNABBEY,BT37 9QW,(028) 9036 4048,54.6686,-5.913987,147723,537429
438,PN0226,Dr. BEIRNE & PARTNERS,TRAMWAYS MEDICAL CENTRE,FARMLEY ROAD,NEWTOWNABBEY,BT36 7XX,(028) 9034 2131,54.664336,-5.975435,143736,537177
440,PN0227,Dr. SMALL & PARTNERS,NOTTING HILL MEDICAL PRACTICE,DOAGH ROAD,NEWTOWNABBEY,BT37 9QN,(028) 9080 8220,54.669689,-5.913402,147768,537547
451,PS6018,Dr. CLARKE & PARTNERS,BROWNLOW HEALTH CENTRE,1 LEGAHORY CENTRE,LEGAHORY,CRAIGAVON  BT65 5BE,(028) 3834 1431,54.447833,-6.371161,116734,514627
453,PS6073,Dr. MCCLOSKEY & PARTNERS,BANBRIDGE GROUP SURGERY,1 OLD HOSPITAL ROAD,BANBRIDGE,BT32 3GN,(028) 4062 3303,54.352095,-6.275219,122303,503602
454,PS0497,Dr. HUEY & PARTNERS,THE SURGERY,11 MAIN STREET,LOUGHBRICKLAND,BANBRIDGE  BT32 3NQ,(028) 4066 2692,54.314883,-6.303592,120207,499577
455,PS0538,Dr. LOGAN & PARTNERS,THE HEALTH CENTRE,CASTLEVIEW,"GILFORD, CRAIGAVON",BT63 6JS,(028) 3883 1225,54.373253,-6.357717,117091,506282
457,PS0593,Dr. MCDONALD & PARTNERS,WYNNE HILL SURGERY,51 HILL STREET,"LURGAN, CRAIGAVON",BT66 6BW,(028) 3832 6333,54.461191,-6.340759,118795,515990
458,PS6010,Dr. TROUGHTON & PARTNER,THE HEALTH CENTRE,TAVANAGH AVENUE,PORTADOWN,BT62 3BU,(028) 3835 1228,54.418713,-6.440632,112029,511672
460,PS0557,Dr. LENNON & PARTNER,60A MAIN STREET,DONAGHCLONEY,CRAIGAVON,BT66 7LR,(028) 3888 1225,54.419129,-6.259749,123759,510993
461,PS6123,Dr. CLARKE & PARTNER,THE HEALTH CENTRE,TAVANAGH AVENUE,"PORTADOWN, CRAIGAVON",BT62 3BU,(028) 3835 9909,54.418713,-6.440632,112029,511672
462,PS0550,Dr. EAKIN & PARTNERS,60 HIGH STREET,LURGAN,CRAIGAVON,BT66 8BA,(028) 3832 4591,54.459615,-6.328168,119600,515765
463,PS0410,Dr. DOYLE & PARTNER,THE SURGERY,7 MOORES LANE,"LURGAN, CRAIGAVON",BT66 8DW,(028) 3832 7626,54.460444,-6.33184,119368,515871
464,PS0576,Dr. MCANALLEN & PARTNERS,THE HEALTH CENTRE,TAVANAGH AVENUE,"PORTADOWN, CRAIGAVON",BT62 3BU,(028) 3835 1347,54.418713,-6.440632,112029,511672
465,PS0533,Dr. WILSON & PARTNERS,28 CHURCH WALK,LURGAN,CRAIGAVON,BT67 9AA,(028) 3832 7834,54.464744,-6.332296,119368,516351
466,PS0814,Dr. HUNTER & PARTNER,THE HUNTER FAMILY PRACTICE,BROWNLOW HEALTH CENTRE,"1 LEGAHORY CENTRE, LEGAHORY",CRAIGAVON  BT65 5BE,(028) 3834 1431,54.447833,-6.371161,116734,514627
467,PS0512,Dr. SOUTHWELL & PARTNERS,87/89 WILLIAM STREET,LURGAN,CRAIGAVON,BT66 6JB,(028) 3832 2509,54.465548,-6.337641,119027,516462
469,PS0696,Dr. MALLON & PARTNERS,BANBRIDGE GROUP SURGERY,1 OLD HOSPITAL ROAD,BANBRIDGE,BT32 3GN,(028) 4062 3303,54.352095,-6.275219,122303,503602
470,PS0526,Dr. MORTON & PARTNERS,THE HEALTH CENTRE,TAVANAGH AVENUE,"PORTADOWN, CRAIGAVON",BT62 3BU,(028) 3835 1393,54.418713,-6.440632,112029,511672
471,PS0726,Dr. MCNIFF & PARTNERS,BANBRIDGE GROUP SURGERY,1 OLD HOSPITAL ROAD,BANBRIDGE,BT32 3GN,(028) 4062 3303,54.352095,-6.275219,122303,503602
472,PS6063,Dr. MULLAN & PARTNER,SCARVA STREET SURGERY,60 SCARVA STREET,LOUGHBRICKLAND,BANBRIDGE  BT32 3NH,(028) 4062 2278,54.315947,-6.305669,120080,499703
473,PS0643,Dr. DAVIS & PARTNERS,52 MAIN STREET,MOIRA,CRAIGAVON,BT67 0LQ,(028) 9261 1278,54.479743,-6.227728,126240,517606
474,PS0639,Dr. ATCHISON & PARTNERS,50 GALLOWS STREET,DROMORE,CO DOWN,BT25 1BD,(028) 9269 2758,54.416477,-6.147269,131034,510262
475,PS0442,Dr. BELL & PARTNER,8a LURGAN ROAD,AGHALEE,CRAIGAVON,BT67 0DD,08444773852,54.5197,-6.269114,123831,522210
476,PS0721,Dr. CHESTNUTT,THE SURGERY,32 STATION ROAD,"BALLYWARD, CASTLEWELLAN",BT31 9TU,(028) 4065 0217,54.279607,-6.040443,137087,494641
477,PS0599,Dr. MATHEWS & PARTNERS,THE HEALTH CENTRE,TAVANAGH AVENUE,"PORTADOWN, CRAIGAVON",BT62 3BU,(028) 38351145,54.418713,-6.440632,112029,511672
478,PS6097,Dr. CONNERY & PARTNERS,THE HEALTH CENTRE,TAVANAGH AVENUE,"PORTADOWN, CRAIGAVON",BT62 3BU,(028) 38351497,54.418713,-6.440632,112029,511672
479,PS6028,Dr. BURNETT & PARTNER,THE HEALTH CENTRE,TAVANAGH AVENUE,"PORTADOWN, CRAIGAVON",BT62 3BU,(028) 3835 0269,54.418713,-6.440632,112029,511672
481,PS6116,Dr. MACDONALD,THE HEALTH CENTRE,TAVANAGH AVENUE,"PORTADOWN, CRAIGAVON",BT62 3BU,(028) 3835 9922,54.418713,-6.440632,112029,511672
482,PS6025,Dr. GORMLEY & PARTNER,THE OLD SCHOOL HOUSE MEDICAL CENTRE,1 ANTRIM ROAD,LURGAN,CRAIGAVON  BT67 9BW,(028) 38311900,54.4699,-6.325547,119840,516897
491,PS0500,Dr. BECKETT & PARTNERS,ABBEY COURT SURGERY,DOBBIN LANE,ARMAGH,BT61 7QG,(028) 3752 1450,54.344954,-6.653682,97675,504367
493,PS0960,Dr. CHURCH & PARTNERS,NORTHLAND SURGERY,79 CUNNINGHAMS LANE,DUNGANNON,BT71 6BX,(028) 8772 2137,54.497125,-6.75381,92317,521715
494,PS0191,Dr. BOYD & PARTNER,THE VALLEY MEDICAL PRACTICE,20 COONEEN ROAD,FIVEMILETOWN,BT75 0ND,(028) 8952 1326,54.376008,-7.317414,54841,510872
495,PS6035,Dr. SABHERWAL & PARTNERS,CAMPBELL SURGERY,10 QUARRY LANE,DUNGANNON,BT70 1HX,(028) 8772 2751,54.510234,-6.776283,90962,523271
497,PS0233,Dr. MCCOLLUM & PARTNERS,WILLOWBANK,KEADY,CO ARMAGH,BT60 3RL,(028) 3753 1248,54.252473,-6.702619,93811,494299
498,PS0735,Dr. MCSHANE & PARTNER,MCSHANE AND CAMPBELL PRACTICE,"MOY HEALTH CENTRE, CHARLEMONT STREET",MOY,BT71 7SL,08444773838,54.445862,-6.690154,96055,515740
499,PS0950,Dr. NUGENT & PARTNER,ERRIGAL MEDICAL CENTRE,OLD DUNGANNON ROAD,"BALLYGAWLEY,DUNGANNON",BT70 2EY,(028) 8556 8212,54.464564,-7.018329,74947,519287
500,PS6104,Dr. HERRON & PARTNER,22 BARRACK STREET,COALISLAND,DUNGANNON,BT71 4LS,(028) 87740049,54.541014,-6.704521,95833,526379
501,PS6049,Dr. MCCONVILLE,MOY MEDICAL PRACTICE,CHARLEMONT STREET,MOY,BT71 7SL,(028) 8778 4551,54.445862,-6.690154,96055,515740
502,PS6007,Dr. CARLILE & PARTNERS,15 DARTAN REE,TYNAN,ARMAGH,BT60 4QT,(028) 37568214,54.330292,-6.823265,86551,503479
503,PS0498,Dr. WRIGHT & PARTNERS,THE HEALTH CENTRE,NEWRY STREET,"MARKETHILL, ARMAGH",BT60 1TA,(028) 3755 1306,54.296144,-6.519281,106055,498372
504,PS0440,Dr. MILLAR & PARTNER,MOY MEDICAL CENTRE,CHARLEMONT STREET,"MOY, DUNGANNON",BT71 7SL,08444773838,54.445862,-6.690154,96055,515740
505,PS0115,Dr. GARLAND & PARTNERS,PARKVIEW SURGERY,"SOUTH TYRONE HOSPITAL SITE, CARLAND ROAD,",DUNGANNON,BT71 4AU,(028) 8772 2019,54.510677,-6.769883,91380,523292
506,PS0931,Dr. MCCORD & PARTNER,2 SYDNEY LANE,AUGHNACLOY,CO TYRONE,BT69 6AF,(028) 8555 7234,54.414163,-6.972899,77491,513477
507,PS6041,Dr. WATTERS,THE HEALTH CENTRE,24A TASSAGH ROAD,KEADY,BT60 3TU,(028) 3753 1215,54.251162,-6.700308,93951,494143
508,PS6152,Dr. PICKERING & PARTNER,TANDRAGEE MEDICAL CENTRE,3 MONTAGUE STREET,"TANDRAGEE, CRAIGAVON",BT62 2AN,(028) 3884 0223,54.355137,-6.415412,113220,504502
509,PS0509,Dr. MCLOUGHLIN & PARTNER,57 THOMAS STREET,DUNGANNON,CO TYRONE,BT70 1HW,(028) 8772 2621,54.506401,-6.770647,91298,522820
512,PS6102,Dr. O'DONNELL & PARTNER,THE MEDICAL CENTRE,15 BARRACK STREET,"COALISLAND, DUNGANNON",BT71 4LS,(028) 8774 7447,54.541014,-6.704521,95833,526379
514,PS0079,Dr. MCELNAY & PARTNERS,THE ARCHWAY SURGERY,DOBBIN LANE,ARMAGH,BT61 7QG,(028) 37521400,54.344954,-6.653682,97675,504367
515,PS0528,Dr. LEETCH & PARTNER,THE HEALTH CENTRE,"6 GREENVIEW, MAYNOOTH ROAD","RICHHILL,  ARMAGH",BT61 9PD,(028) 3887 1701,54.370596,-6.553529,104364,506792
516,PS0663,Dr. REILLY & PARTNERS,THE FRIARY SURGERY,DOBBIN LANE,ARMAGH,BT61 7QG,(028) 37521500,54.344954,-6.653682,97675,504367
517,PS0902,Dr. MURTY,39 THOMAS STREET,DUNGANNON,CO TYRONE,BT70 1HN,(028) 8772 7235,54.505014,-6.769758,91345,522662
519,PS0987,Dr. MCKENNA & PARTNER,THE SURGERY,10A LINESIDE,"COALISLAND, DUNGANNON",BT71 4LP,(028) 8774 8555,54.539648,-6.700831,96061,526211
526,PS0742,Dr. HENRY & PARTNERS,CORNMARKET SURGERY,NEWRY HEALTH VILLAGE,MONAGHAN STREET,NEWRY  BT35 6BW,(028) 3026 1221,54.175468,-6.344066,116621,484240
528,PS0521,Dr. GRIBBEN,THE HEALTH CENTRE,MCCORMICK PLACE,"CROSSMAGLEN, NEWRY",BT35 9HD,(028) 3086 1226,54.077926,-6.607017,98766,474486
529,PS0716,Dr. MULVANEY & PARTNER,CORNMARKET SURGERY,NEWRY HEALTH VILLAGE,MONAGHAN STREET,NEWRY  BT35 6BW,(028) 3026 5838,54.175468,-6.344066,116621,484240
530,PS0311,Dr. O'SHAUGHNESSY,THE HEALTH CENTRE,JOHN STREET,"RATHFRILAND, NEWRY",BT34 5QH,(028) 4063 2301,54.235408,-6.162519,128855,490190
531,PS0511,Dr. ALLEN & PARTNERS,14 KILKEEL ROAD,ANNALONG,NEWRY,BT34 4TH,(028) 4376 8218,54.105984,-5.902768,144976,474832
532,PS6015,Dr. CHAMBERS & PARTNER,KILKEEL PRIMARY CARE CENTRE,GREENCASTLE STREET,"KILKEEL, NEWRY",BT34 4BH,(028) 4176 0950,54.061213,-6.010416,137661,470249
533,PS6053,Dr. VETTIANKAL,6 DRUMINTEE ROAD,MEIGH,NEWRY,BT35 8SJ,(028) 3084 8510,54.117734,-6.395314,112879,478029
534,PS0017,Dr. FEARON & PARTNERS,CLANRYE SURGERY,NEWRY HEALTH VILLAGE,MONAGHAN STREET,NEWRY  BT35 6BW,(028) 3026 7639,54.175468,-6.344066,116621,484240
535,PS0132,Dr. MCCANN & PARTNER,THE HEALTH CENTRE,JOHN STREET,"RATHFRILAND, NEWRY",BT34 5QH,(028) 4063 2300,54.235408,-6.162519,128855,490190
536,PS0621,Dr. GAW & PARTNERS,SUMMER HILL SURGERY,50 GREAT GEORGES STREET,"WARRENPOINT, NEWRY",BT34 3HS,(028) 4175 4455,54.100545,-6.249422,122292,475535
537,PS0143,Dr. MCEVOY & PARTNERS,MCVERRY/MCEVOY MEDICAL CENTRE,NEWRY HEALTH VILLAGE,"MONAGHAN STREET, NEWRY",BT35 6BW,(028) 30265853,54.175468,-6.344066,116621,484240
539,PS0674,Dr. MCDOWELL & PARTNERS,CLANRYE SURGERY,NEWRY HEALTH VILLAGE,MONAGHAN STREET,NEWRY  BT35 6BW,(028) 3026 0949,54.175468,-6.344066,116621,484240
540,PS0606,Dr. O'NEILL & PARTNERS,MEADOWLANDS SURGERY,MONAGHAN STREET,NEWRY,BT35 6BW,(028) 3026 7534,54.175468,-6.344066,116621,484240
541,PS6089,Dr. SLOAN & PARTNER,RATHFRILAND SURGERY,9 CASTLEWELLAN ROAD,"RATHFRILAND, NEWRY",BT34 5LY,(028) 4063 0034,54.233849,-6.151911,129536,489976
542,PS0553,Dr. O'LEARY & PARTNERS,53 DUNDALK STREET,NEWTOWNHAMILTON,NEWRY,BT35 0PB,(028) 3087 8204,54.188359,-6.575189,101642,486626
543,PS0728,Dr. MURPHY & PARTNER,THE HEALTH CENTRE,SUMMERHILL,"WARRENPOINT, NEWRY",BT34 3JD,(028) 4175 4100,54.101585,-6.249992,122262,475653
544,PS0541,Dr. REYNOLDS & PARTNERS,CORNMARKET SURGERY,NEWRY HEALTH VILLAGE,MONAGHAN STREET,NEWRY  BT35 6BW,(028) 3026 1236,54.175468,-6.344066,116621,484240
545,PS6001,Dr. MAGUIRE & PARTNER,MAPHONER SURGERY,2A FORKHILL ROAD,"MULLAGHBAWN, NEWRY",BT35 9RA,(028) 3088 9307,54.104935,-6.481941,107132,476962
546,PS0149,Dr. MCKNIGHT,CLANRYE SURGERY,NEWRY HEALTH VILLAGE,MONAGHAN STREET,NEWRY  BT35 6BW,(028) 3026 0949,54.175468,-6.344066,116621,484240
547,PS0740,Dr. SHANNON & PARTNER,THE HEALTH CENTRE,JOHN STREET,"RATHFRILAND, NEWRY",BT34 5QH,(028) 4063 2302,54.235408,-6.162519,128855,490190
549,PS0537,Dr. MULHOLLAND & PARTNERS,THE HEALTH CENTRE,2A MARKETHILL ROAD,"NEWTOWNHAMILTON, NEWRY",BT35 0BE,(028) 3087 8223,54.202483,-6.567686,102233,488164
551,PS0317,Dr. FEE,RATHKEELAND HOUSE,1 BLANEY ROAD,"CROSSMAGLEN, NEWRY",BT35 9JJ,(028) 3086 8189,54.078139,-6.612753,98392,474535
552,PS6062,Dr. SWEENEY & PARTNER,THE HEALTH CENTRE,MCCORMICK PLACE,"CROSSMAGLEN, NEWRY",BT35 9HD,(028) 3086 1226,54.077926,-6.607017,98766,474486
553,PS6030,Dr. BONNER & PARTNER,MARINA SURGERY,15 HAVELOCK PLACE,"WARRENPOINT, NEWRY",BT34 3NE,(028) 4175 3933,54.09897,-6.254291,121963,475379
554,PS6042,Dr. POOTS & PARTNERS,MOURNE FAMILY SURGERY,"MOURNE HOSPITAL, NEWRY STREET","KILKEEL,NEWRY",BT34 4DN,(028) 4176 5422,54.063017,-6.009085,137759,470444
555,PS6108,Dr. MERCER & PARTNER,KILKEEL PRIMARY CARE CENTRE,GREENCASTLE STREET,"KILKEEL, NEWRY",BT34 4BH,028 41760990,54.061213,-6.010416,137661,470249
556,PS6109,Dr. DILLON & PARTNER,SHANLIEVE SURGERY,"KILKEEL PRIMARY CARE CENTRE, GREENCASTLE STREET","KILKEEL, NEWRY",BT34 4BH,(028) 41760980,54.061213,-6.010416,137661,470249
561,PW0771,Dr. LEARY,THE HEALTH CENTRE,DRUMHAW,"LISNASKEA, ENNISKILLEN",BT92 0FP,(028) 6772 2913,54.258591,-7.450317,45209,498487
562,PW0754,Dr. ARMSTRONG & PARTNERS,THE HEALTH CENTRE,ERNE ROAD,ENNISKILLEN,BT74 6NN,(028) 6632 7190,54.348367,-7.634184,34048,509403
563,PW8031,Dr. MULLIGAN & PARTNERS,"DEVENISH PRACTICE, THE HEALTH CENTRE",ERNE ROAD,ENNISKILLEN,BT74 6NN,(028) 6632 5638,54.348367,-7.634184,34048,509403
564,PW0106,Dr. WHITE & PARTNERS,LAKESIDE MEDICAL PRACTICE,ERNE ROAD,ENNISKILLEN,BT74 6NN,(028) 6632 7192,54.348367,-7.634184,34048,509403
566,PW8011,Dr. MCCAW & PARTNERS,IRVINESTOWN HEALTH CENTRE,CHURCH STREET,IRVINESTOWN,BT94 1EH,(028) 6862 1212,54.470872,-7.634723,35105,523015
568,PW0294,Dr. MALLON & PARTNER,THE HEALTH CENTRE,ERNE ROAD,ENNISKILLEN,BT74 6NN,(028) 6632 5613,54.348367,-7.634184,34048,509403
569,PW0763,Dr. DEVLIN,LURGANBOY PARK,CLONES ROAD,"NEWTOWNBUTLER, ENNISKILLEN",BT92 6JT,(028) 6773 8203,54.179361,-7.35603,50673,489212
571,PW0088,Dr. CATHCART & PARTNERS,THE HEALTH CENTRE,ERNE ROAD,ENNISKILLEN,BT74 6NN,(028) 6632 2707,54.348367,-7.634184,34048,509403
574,PW0764,Dr. PORTEOUS & PARTNERS,MAPLE GROUP PRACTICE,DRUMHAW,"LISNASKEA, ENNISKILLEN",BT92 0FP,(028) 6772 1566,54.258591,-7.450317,45209,498487
576,PW0770,Dr. KIERNAN & PARTNER,RATHMORE CLINIC,BELLEEK,ENNISKILLEN,BT93 3FY,(028) 6865 8382,54.480077,-8.094814,5427,526526
578,PW8173,Dr. HARTE,THE SURGERY,EDERNEY,ENNISKILLEN,BT93 0AR,(028) 6863 1234,54.532067,-7.661155,33943,529951
579,PW8096,Dr. COLLINS,20 UPPER MAIN ST,ROSLEA,ENNISKILLEN,BT927LT,(028) 6775 1496,54.239417,-7.174434,63000,495002
581,PW0033,Dr. KIRBY & PARTNER,75 MAIN STREET,DERRYLIN,ENNISKILLEN,BT92 9LB,(028) 6774 8250,54.1952,-7.575681,36496,492083
582,PW0780,Dr. SMYTH,THE SURGERY,DRUMGOON,"MAGUIRESBRIDGE, ENNISKILLEN",BT94 4PB,(028) 6772 1273,54.292045,-7.47472,43911,502327
583,PW8060,Dr. KHEW,32 MAIN STREET,DERRYGONNELLY,ENNISKILLEN,BT93 6HW,(028) 6864 1379,54.417486,-7.819492,22658,518061
584,PW0165,Dr. CROMIE & PARTNER,BROOKEBOROUGH SURGERY,TANYARD LANE,"BROOKEBOROUGH, ENNISKILLEN",BT94 4AB,(028) 8953 1225,54.30834,-7.433473,46731,503930
585,PW8038,Dr. CUNNINGHAM & PARTNER,BENAUGHLIN HEALTH CENTRE,DRUMLAGHY,"FLORENCECOURT, ENNISKILLEN",BT92 1BZ,(028) 66348080,54.266597,-7.712208,28246,500727
586,PW8131,Dr. O'KANE,TEMPO MEDICAL CENTRE,EDENMORE,"TEMPO, ENNISKILLEN",BT94 3LU,(028) 8954 1216,54.376372,-7.462131,45457,511633
596,PW0417,Dr. MCCALLION & PARTNERS,"CITYVIEW MEDICAL, WATERSIDE HEALTH CENTRE",SPENCER ROAD,LONDONDERRY,BT47 6AH,(028) 71314930,54.992844,-7.310734,60473,579381
597,PW0837,Dr. MCQUILLAN & PARTNERS,BOVALLY MEDICAL CENTRE,2 ROSSAIR ROAD,LIMAVADY,BT49 0TE,(028) 7776 6352,55.044181,-6.932172,85065,583311
598,PW0563,Dr. WARNOCK & PARTNERS,QUAYSIDE MEDICAL PRACTICE,80 - 84 STRAND ROAD,LONDONDERRY,BT48 7NN,(028) 7126 2790,55.004093,-7.32101,59912,580681
599,PW0750,Dr. MORRISON & PARTNERS,"PARK MEDICAL, THE HEALTH CENTRE",GREAT JAMES STREET,LONDONDERRY,BT48 7DH,(028) 7137 8500,54.999554,-7.326478,59524,580203
600,PW0052,Dr. TEDDERS & PARTNER,THE HEALTH CENTRE,IRWIN CRESCENT,"CLAUDY, LONDONDERRY",BT47 4AB,(028) 7133 8371,54.910459,-7.15157,69967,569463
601,PW0957,Dr. GILLESPIE & PARTNERS,MOURNESIDE MEDICAL CENTRE,STRABANE,,BT82 9AF,(028) 71 383737,54.821445,-7.467064,48995,561109
602,PW0102,Dr. DOHERTY & PARTNERS,OAKLEAF MEDICAL PRACTICE,GREAT JAMES STREET,LONDONDERRY,BT48 7DH,(028) 7137 8522,54.999554,-7.326478,59524,580203
603,PW0036,Dr. BYRNE & PARTNER,THE HEALTH CENTRE,FEENY,LONDONDERRY,BT47 4TD,(028) 77781501,54.892036,-7.020222,78229,566803
604,PW0153,Dr. MCCLOSKEY & PARTNERS,THE ABERFOYLE SURGERY,120 STRAND ROAD,LONDONDERRY,BT48 7NY,(028) 7126 4868,55.006692,-7.321203,59922,580971
605,PW0909,Dr. FULLERTON & PARTNER,256 BERRYHILL ROAD,DUNAMANAGH,STRABANE,BT82 0NB,(028) 71397030,54.872778,-7.319896,58871,566084
606,PW0757,Dr. O'KANE & PARTNERS,BRIDGE STREET MEDICAL CENTRE,BRIDGE STREET,LONDONDERRY,BT48 6LD,(028) 7126 1137,54.98691,-7.338905,58623,578859
608,PW0008,Dr. BLACK & PARTNERS,ABBEY MEDICAL PRACTICE,ABBEY STREET,LONDONDERRY,BT48 9DN,(028) 71 364016,54.997777,-7.327311,59456,580010
609,PW0298,Dr. PRATT & PARTNERS,ROSSAIR FAMILY PRACTICE,2 ROSSAIR ROAD,LIMAVADY,BT49 0TE,(028) 7776 6354,55.044181,-6.932172,85065,583311
610,PW0911,Dr. QUIGLEY & PARTNERS,STRABANE HEALTH CENTRE,UPPER MAIN STREET,STRABANE,BT82 8AS,(028) 7138 4100,54.824374,-7.461047,49406,561404
614,PW0277,Dr. MURPHY & PARTNER,DUNGIVEN HEALTH CENTRE,DUNGIVEN,LONDONDERRY,BT47 4RS,(028) 77743002,54.922556,-6.919711,84907,569737
615,PW8051,Dr. LALSINGH & PARTNERS,CLARENDON MEDICAL,35 NORTHLAND AVENUE,LONDONDERRY,BT48 7GW,(028) 7126 5391,55.001939,-7.326751,59527,580469
616,PW0846,Dr. BAILIE & PARTNERS,CASTLEDERG GROUP SURGERY,13A LOWER STRABANE ROAD,CASTLEDERG,BT81 7AZ,(028) 8167 1211,54.70524,-7.589434,40112,548819
617,PW0928,Dr. THOMPSON & PARTNER,MEDICAL CENTRE,5 MILLBROOK STREET,"NEWTOWNSTEWART, OMAGH",BT78 4BW,(028) 8166 1333,54.718406,-7.381192,53623,549232
618,PW0936,Dr. DOHERTY,49 CLARENDON STREET,LONDONDERRY,,BT48 7ER,(028) 7126 1497,55.000305,-7.327372,59474,580291
619,PW8017,Dr. QUINN & PARTNER,THE HEALTH CENTRE,SCROGGY ROAD,LIMAVADY,BT49 0NA,(028) 7776 1111,55.047698,-6.939801,84605,583736
620,PW0916,Dr. WATSON & PARTNERS,STRABANE HEALTH CENTRE,UPPER MAIN STREET,STRABANE,BT82 8AS,(028) 7138 4118,54.824374,-7.461047,49406,561404
621,PW8014,Dr. DEANE & PARTNER,NORTHSIDE MEDICAL PRACTICE,"SHANTALLOW HEALTH CENTRE, RACECOURSE ROAD",LONDONDERRY,BT48 8NL,(028) 7135 3054,55.025678,-7.31581,60427,583054
622,PW0129,Dr. MCCLOSKEY & PARTNERS,"RACECOURSE MEDICAL, SHANTALLOW HEALTH CENTRE",RACECOURSE ROAD,LONDONDERRY,BT48 8NL,(028) 7135 1323,55.025678,-7.31581,60427,583054
623,PW0831,Dr. LEESON & PARTNERS,FOYLESIDE FAMILY PRACTICE,BRIDGE STREET MEDICAL CENTRE,"BRIDGE STREET, LONDONDERRY",BT48 6LD,(028) 71306400,54.98691,-7.338905,58623,578859
624,PW0014,Dr. O'FLAHERTY & PARTNERS,"GLENDERMOTT MEDICAL, WATERSIDE HEALTH CENTRE",SPENCER ROAD,LONDONDERRY,BT47 6AH,(028) 71314950,54.992844,-7.310734,60473,579381
625,PW8022,Dr. MCEVOY & PARTNERS,BAYVIEW MEDICAL CENTRE,3 BAYVIEW TERRACE,LONDONDERRY,BT48 7EE,(028) 7137 7027,55.001636,-7.323765,59715,580421
626,PW0662,Dr. HEALY & PARTNERS,"RIVERFRONT MEDICAL, WATERSIDE HEALTH CENTRE",SPENCER ROAD,LONDONDERRY,BT47 6AH,(028) 71314910,54.992844,-7.310734,60473,579381
627,PW0930,Dr. MANNING & PARTNERS,EGLINTON MEDICAL PRACTICE,29 MAIN STREET,"EGLINTON, LONDONDERRY",BT47 3AB,(028) 7181 0252,55.026529,-7.174123,69479,582468
629,PW0804,Dr. MAGEE & PARTNERS,THE HEALTH CENTRE,SCROGGY ROAD,LIMAVADY,BT49 0NA,(028) 7776 1122,55.047698,-6.939801,84605,583736
651,PW0962,Dr. MONAGHAN & PARTNERS,FINTONA GROUP PRACTICE,33 DROMORE ROAD,"FINTONA, OMAGH",BT78 2BB,(028) 8284 1203,54.498684,-7.322532,55542,524529
652,PW8075,Dr. RITCHIE & PARTNER,2H MAIN STREET,DRUMQUIN,CO TYRONE,BT78 4SB,(028) 82831275,54.616107,-7.489109,45791,538405
654,PW0903,Dr. POLLOCK & PARTNERS,"GRANGE FAMILY PRACTICE, THE HEALTH CENTRE",MOUNTJOY ROAD,OMAGH,BT79 7BA,0844 477 3503,54.603034,-7.301688,57767,536022
655,PW8012,Dr. SCULLY,23 OMAGH ROAD,DRUMQUIN,OMAGH,BT78 4QY,(028) 82831223,54.611765,-7.490248,45679,537928
657,PW0071,Dr. O'NEILL & PARTNERS,"THREE SPIRES SURGERY, THE HEALTH CENTRE",MOUNTJOY ROAD,OMAGH,BT79 7BA,0844 477 3501,54.603034,-7.301688,57767,536022
660,PW0964,Dr. DEENY & PARTNERS,CARRICKMORE HEALTH CENTRE,TERMON ROAD,"CARRICKMORE, OMAGH",BT79 9JR,(028) 8076 1242,54.59089,-7.040835,74498,533431
661,PW8004,Dr. REILLY,DROMORE SURGERY,16 CAMDERRY ROAD,"DROMORE, OMAGH",BT78 3AU,(028) 8289 8137,54.520642,-7.462391,46687,527664
662,PW0937,Dr. MCCAVERT & PARTNERS,"DRUMRAGH FAMILY PRACTICE, THE HEALTH CENTRE",MOUNTJOY ROAD,OMAGH,BT79 7BA,0844 477 3513,54.603034,-7.301688,57767,536022
663,PW8034,Dr. DEEHAN,"STRULE MEDICAL, THE HEALTH CENTRE",MOUNTJOY ROAD,OMAGH,BT79 7BA,0844 477 3504,54.603034,-7.301688,57767,536022
664,PW8090,Dr. HICKS & PARTNER,41 MAIN STREET,PLUMBRIDGE,OMAGH,BT79 8DL,(028) 81648292,54.763982,-7.25833,61907,553696
01/12/2013,,,,,,,,,,,
