{
  "name": "NodeSite",
  "version": "0.0.1",
  "author": "hscni",
  "description": "gp practice information",
  "contributors": [],
  "main": "./server.js",
  "keywords": [],
  "dependencies": {},
  "noAnalyze": true,
  "engines": {
    "node": ">=0.6"
  },  
  "devDependencies": {},
  "optionalDependencies": {}
}

[{"PracNo":1,"PartnershipNo":"PE0297","practiceName":"Dr. IRWIN","Address1":"HOLYWOOD ARCHES HEALTH CENTRE","Address2":"WESTMINSTER AVENUE","Address3":"BELFAST","Postcode":"BT4 1NS","TelNo":"(028) 90563360","Lat":54.601701,"Long":-5.884719,"Easting":149197,"Northing":529885},
{"PracNo":3,"PartnershipNo":"PE0168","practiceName":"Dr. MCCUTCHEON & PARTNERS","Address1":"HOLYWOOD ARCHES HEALTH CENTRE","Address2":"WESTMINSTER AVE","Address3":"BELFAST","Postcode":"BT4 1NS","TelNo":"(028) 9056 3350","Lat":54.601701,"Long":-5.884719,"Easting":149197,"Northing":529885},
{"PracNo":5,"PartnershipNo":"PE1451","practiceName":"Dr. MCBRIEN","Address1":"CASTLE MEDICAL CENTRE","Address2":"35-45 CASTLEREAGH ROAD","Address3":"BELFAST","Postcode":"BT5 5FB","TelNo":"(028) 9045 7109","Lat":54.591825,"Long":-5.897981,"Easting":148280,"Northing":528834},
{"PracNo":6,"PartnershipNo":"PE0672","practiceName":"Dr. SHARKEY & PARTNERS","Address1":"CARRYDUFF SURGERY","Address2":"HILLSBOROUGH ROAD","Address3":"CARRYDUFF  BELFAST","Postcode":"BT8 8HR","TelNo":"(028) 9081 2211","Lat":54.513338,"Long":-5.892255,"Easting":148166,"Northing":520087},
{"PracNo":9,"PartnershipNo":"PE0211","practiceName":"Dr. RAINEY & PARTNERS","Address1":"372 CREGAGH ROAD","Address2":"BELFAST","Address3":"","Postcode":"BT6 9EY","TelNo":"(028) 9079 2214","Lat":54.570797,"Long":-5.89304,"Easting":148470,"Northing":526479},
{"PracNo":10,"PartnershipNo":"PE0018","practiceName":"Dr. WILSON","Address1":"TEMPLEMORE MEDICAL CENTRE","Address2":"225 ALBERTBRIDGE ROAD","Address3":"BELFAST","Postcode":"BT5 4PX","TelNo":"(028) 90467630","Lat":54.596303,"Long":-5.899388,"Easting":148217,"Northing":529337},
{"PracNo":13,"PartnershipNo":"PE1124","practiceName":"Dr. COOGAN","Address1":"TEMPLEMORE MEDICAL CENTRE","Address2":"225 ALBERTBRIDGE ROAD","Address3":"BELFAST","Postcode":"BT5 4PX","TelNo":"(028) 90467630","Lat":54.596303,"Long":-5.899388,"Easting":148217,"Northing":529337},
{"PracNo":14,"PartnershipNo":"PE0117","practiceName":"Dr. MAXWELL & PARTNERS","Address1":"KERRSLAND SURGERY","Address2":"169 UPPER NEWTOWNARDS ROAD","Address3":"BELFAST","Postcode":"BT4 3HZ","TelNo":"(028) 90296600","Lat":54.5961,"Long":-5.874757,"Easting":149806,"Northing":529227},
{"PracNo":15,"PartnershipNo":"PE0271","practiceName":"Dr. MCGARRITY & PARTNERS","Address1":"54 HOLYWOOD ROAD","Address2":"BELFAST","Address3":"","Postcode":"BT4 1NT","TelNo":"(028) 9065 4668","Lat":54.598021,"Long":-5.886981,"Easting":149029,"Northing":529484},
{"PracNo":16,"PartnershipNo":"PE0025","practiceName":"Dr. ROSS & PARTNERS","Address1":"KNOCK MEDICAL CENTRE","Address2":"423B UPPER NEWTOWNARDS ROAD","Address3":"BELFAST","Postcode":"BT4 3LH","TelNo":"(028) 90654018","Lat":54.594363,"Long":-5.857847,"Easting":150887,"Northing":528973},
{"PracNo":17,"PartnershipNo":"PE0205","practiceName":"Dr. SCOTT & PARTNERS","Address1":"HOLYWOOD ARCHES HEALTH CENTRE","Address2":"WESTMINSTER AVENUE","Address3":"BELFAST","Postcode":"BT4 1NS","TelNo":"(028) 9056 3394","Lat":54.601701,"Long":-5.884719,"Easting":149197,"Northing":529885},
{"PracNo":18,"PartnershipNo":"PE0030","practiceName":"Dr. CLEMENTS & PARTNERS","Address1":"BRYSON STREET SURGERY, CITY EAST","Address2":"68-72  NEWTOWNARDS ROAD","Address3":"BELFAST","Postcode":"BT4 1GW","TelNo":"(028) 9045 8722","Lat":54.600093,"Long":-5.906034,"Easting":147812,"Northing":529783},
{"PracNo":19,"PartnershipNo":"PE0155","practiceName":"Dr. BURKE & PARTNERS","Address1":"LINEN COURT SURGERY","Address2":"336 BEERSBRIDGE ROAD","Address3":"BELFAST","Postcode":"BT5 5DY","TelNo":"(028) 9045 7677","Lat":54.59347,"Long":-5.888114,"Easting":148928,"Northing":528982},
{"PracNo":20,"PartnershipNo":"PE0822","practiceName":"Dr. KYLE & PARTNERS","Address1":"HOLYWOOD ARCHES HEALTH CENTRE","Address2":"WESTMINSTER AVENUE","Address3":"BELFAST","Postcode":"BT4 1NS","TelNo":"(028) 9056 3362","Lat":54.601701,"Long":-5.884719,"Easting":149197,"Northing":529885},
{"PracNo":23,"PartnershipNo":"PE1430","practiceName":"Dr. HOEY & PARTNERS","Address1":"HARLAND MEDICAL PRACTICE","Address2":"WESTMINSTER AVENUE","Address3":"BELFAST","Postcode":"BT4 1NS","TelNo":"(028) 9056 3397","Lat":54.601701,"Long":-5.884719,"Easting":149197,"Northing":529885},
{"PracNo":24,"PartnershipNo":"PE0321","practiceName":"Dr. MCKEE & PARTNER","Address1":"THE MOUNT PRACTICE","Address2":"50 CASTLEREAGH STREET","Address3":"BELFAST","Postcode":"BT5 4NH","TelNo":"(028) 90458314","Lat":54.594483,"Long":-5.903202,"Easting":147960,"Northing":529149},
{"PracNo":28,"PartnershipNo":"PE0212","practiceName":"Dr. GILMER & PARTNERS","Address1":"HOLYWOOD ARCHES HEALTH CENTRE","Address2":"WESTMINSTER AVENUE","Address3":"BELFAST","Postcode":"BT4 1NS","TelNo":"(028) 9056 3358","Lat":54.601701,"Long":-5.884719,"Easting":149197,"Northing":529885},
{"PracNo":29,"PartnershipNo":"PE0996","practiceName":"Dr. SAVAGE & PARTNERS","Address1":"CASTLEREAGH MEDICAL CENTRE","Address2":"21 BALLYGOWAN  ROAD","Address3":"BELFAST","Postcode":"BT5 7LH","TelNo":"(028) 9079 8308","Lat":54.578066,"Long":-5.871304,"Easting":149918,"Northing":527209},
{"PracNo":30,"PartnershipNo":"PE1026","practiceName":"Dr. STEVENS & PARTNER","Address1":"EASTSIDE SURGERY","Address2":"56 TEMPLEMORE AVENUE","Address3":"BELFAST","Postcode":"BT5 4FT","TelNo":"(028) 9045 1000","Lat":54.597748,"Long":-5.901603,"Easting":148083,"Northing":529506},
{"PracNo":31,"PartnershipNo":"PE0260","practiceName":"Dr. CALLAGHAN & PARTNERS","Address1":"DUNDONALD MEDICAL CENTRE","Address2":"16 CHURCH ROAD","Address3":"DUNDONALD, BELFAST","Postcode":"BT16 2LN","TelNo":"(028) 90483100","Lat":54.592863,"Long":-5.80303,"Easting":154418,"Northing":528613},
{"PracNo":32,"PartnershipNo":"PE0536","practiceName":"Dr. WILSON & PARTNERS","Address1":"WILLOWFIELD SURGERY","Address2":"50/52 CASTLEREAGH ROAD","Address3":"BELFAST","Postcode":"BT5 5FP","TelNo":"(028) 9045 7862","Lat":54.590707,"Long":-5.896948,"Easting":148340,"Northing":528706},
{"PracNo":33,"PartnershipNo":"PE1087","practiceName":"Dr. RODGERS & PARTNERS","Address1":"222 WOODSTOCK ROAD","Address2":"BELFAST","Address3":"","Postcode":"BT6 9DL","TelNo":"(028) 9045 8103","Lat":54.591951,"Long":-5.902705,"Easting":147976,"Northing":528865},
{"PracNo":36,"PartnershipNo":"PE1098","practiceName":"Dr. MCCOMB & PARTNER","Address1":"HOLYWOOD ARCHES HEALTH CENTRE","Address2":"WESTMINSTER AVENUE","Address3":"BELFAST","Postcode":"BT4 1NS","TelNo":"(028) 9056 3336","Lat":54.601701,"Long":-5.884719,"Easting":149197,"Northing":529885},
{"PracNo":37,"PartnershipNo":"PE1117","practiceName":"Dr. MONCRIEFF & PARTNERS","Address1":"CHERRYVALLEY HEALTH CENTRE","Address2":"KINGS SQUARE","Address3":"BELFAST","Postcode":"BT5 7BP","TelNo":"(028) 90 401844","Lat":54.588793,"Long":-5.844281,"Easting":151729,"Northing":528306},
{"PracNo":38,"PartnershipNo":"PE1119","practiceName":"Dr. MORRISON & PARTNER","Address1":"CHERRYVALLEY HEALTH CENTRE","Address2":"KINGS SQUARE","Address3":"BELFAST","Postcode":"BT5 7BP","TelNo":"(028) 9070 9248","Lat":54.588793,"Long":-5.844281,"Easting":151729,"Northing":528306},
{"PracNo":51,"PartnershipNo":"PE0220","practiceName":"Dr. ROSS & PARTNERS","Address1":"CORNERSTONE MEDICAL CENTRE","Address2":"69 SHANKILL ROAD","Address3":"BELFAST","Postcode":"BT13 1FD","TelNo":"(028) 90316700","Lat":54.604038,"Long":-5.946025,"Easting":145255,"Northing":530366},
{"PracNo":52,"PartnershipNo":"PE1180","practiceName":"Dr. SAVAGE & PARTNER","Address1":"16 MCCANDLESS STREET","Address2":"CRUMLIN ROAD","Address3":"BELFAST","Postcode":"BT13 1RU","TelNo":"(028) 9074 6308","Lat":54.609011,"Long":-5.951098,"Easting":144958,"Northing":530937},
{"PracNo":53,"PartnershipNo":"PE1075","practiceName":"Dr. COLGAN","Address1":"463 FALLS ROAD","Address2":"BELFAST","Address3":"","Postcode":"BT12 6DD","TelNo":"(028) 9024 3593","Lat":54.589254,"Long":-5.968385,"Easting":143718,"Northing":528803},
{"PracNo":55,"PartnershipNo":"PE1051","practiceName":"Dr. O'KANE","Address1":"THE HEALTH CENTRE","Address2":"94-100 CRUMLIN ROAD","Address3":"BELFAST","Postcode":"BT14 6AR","TelNo":"(028) 9074 3836","Lat":54.608269,"Long":-5.938132,"Easting":145790,"Northing":530807},
{"PracNo":57,"PartnershipNo":"PE0787","practiceName":"Dr. CAMPBELL & PARTNER","Address1":"THE CARRICKHILL MEDICAL CENTRE","Address2":"1 CARRICK HILL","Address3":"BELFAST","Postcode":"BT1 2JR","TelNo":"(028) 9033 0058","Lat":54.603021,"Long":-5.934333,"Easting":146003,"Northing":530210},
{"PracNo":58,"PartnershipNo":"PE0022","practiceName":"Dr. FARNAN & PARTNERS","Address1":"THE GROUP SURGERY","Address2":"257 NORTH QUEEN STREET","Address3":"BELFAST","Postcode":"BT15 1HS","TelNo":"(028) 9074 8317","Lat":54.612645,"Long":-5.926422,"Easting":146573,"Northing":531252},
{"PracNo":60,"PartnershipNo":"PE0790","practiceName":"Dr. BURNS & PARTNER","Address1":"165 DUNCAIRN GARDENS","Address2":"BELFAST","Address3":"CO ANTRIM","Postcode":"BT15 2GE","TelNo":"(028) 9074 3416","Lat":54.613612,"Long":-5.934243,"Easting":146075,"Northing":531388},
{"PracNo":61,"PartnershipNo":"PE0253","practiceName":"Dr. CROSSIN & PARTNERS","Address1":"THE CARRICK HILL MEDICAL CENTRE","Address2":"1 CARRICK HILL","Address3":"BELFAST","Postcode":"BT1 2JR","TelNo":"2890268080","Lat":54.603021,"Long":-5.934333,"Easting":146003,"Northing":530210},
{"PracNo":62,"PartnershipNo":"PE0313","practiceName":"Dr. CORRIE","Address1":"THE HEALTH CENTRE","Address2":"94-100 CRUMLIN ROAD","Address3":"BELFAST","Postcode":"BT14 6AR","TelNo":"(028) 9074 1188","Lat":54.608269,"Long":-5.938132,"Easting":145790,"Northing":530807},
{"PracNo":63,"PartnershipNo":"PE1013","practiceName":"Dr. O'DONNELL & PARTNER","Address1":"THE SURGERY","Address2":"KENNEDY CENTRE","Address3":"BELFAST","Postcode":"BT11 9AE","TelNo":"(028) 9061 1411","Lat":54.580537,"Long":-5.977915,"Easting":143048,"Northing":527869},
{"PracNo":64,"PartnershipNo":"PE0007","practiceName":"Dr. DONAGHY & PARTNERS","Address1":"DUNVILLE HEALTH CENTRE","Address2":"309 GROSVENOR ROAD","Address3":"BELFAST","Postcode":"BT12 4LP","TelNo":"(028) 9032 5185","Lat":54.595481,"Long":-5.952515,"Easting":144782,"Northing":529438},
{"PracNo":66,"PartnershipNo":"PE0186","practiceName":"Dr. MCAUGHEY & PARTNERS","Address1":"GROVE WELLBEING CENTRE, PARKSIDE SURGERY","Address2":"120 YORK ROAD","Address3":"BELFAST","Postcode":"BT15 3HF","TelNo":"(028) 90164600","Lat":54.61732,"Long":-5.924656,"Easting":146717,"Northing":531765},
{"PracNo":68,"PartnershipNo":"PE0075","practiceName":"Dr. CRAWFORD & PARTNERS","Address1":"136/138 SHANKILL ROAD","Address2":"BELFAST","Address3":"","Postcode":"BT13 2BD","TelNo":"(028) 9031 6960","Lat":54.603257,"Long":-5.94658,"Easting":145214,"Northing":530281},
{"PracNo":69,"PartnershipNo":"PE0042","practiceName":"Dr. TAN & PARTNER","Address1":"FLAX CENTRE","Address2":"ARDOYNE AVENUE","Address3":"BELFAST","Postcode":"BT14 7DA","TelNo":"(084) 4477 3459","Lat":54.614744,"Long":-5.953126,"Easting":144863,"Northing":531582},
{"PracNo":70,"PartnershipNo":"PE1021","practiceName":"Dr. SMYTH & PARTNERS","Address1":"321 BALLYSILLAN ROAD","Address2":"BELFAST","Address3":"","Postcode":"BT14 6RD","TelNo":"(028) 9071 3689","Lat":54.627539,"Long":-5.964688,"Easting":144198,"Northing":533047},
{"PracNo":71,"PartnershipNo":"PE0035","practiceName":"Dr. LEAVY & PARTNERS","Address1":"463 SPRINGFIELD ROAD","Address2":"BELFAST","Address3":"","Postcode":"BT12 7DP","TelNo":"(028) 9032 7126","Lat":54.598666,"Long":-5.971212,"Easting":143595,"Northing":529860},
{"PracNo":72,"PartnershipNo":"PE1369","practiceName":"Dr. AGAHI","Address1":"MOUNTAINVIEW SURGERY","Address2":"585 CRUMLIN ROAD","Address3":"BELFAST","Postcode":"BT14 7GB","TelNo":"(028) 9039 2392","Lat":54.615266,"Long":-5.96527,"Easting":144083,"Northing":531684},
{"PracNo":73,"PartnershipNo":"PE0166","practiceName":"Dr. KNOX & PARTNER","Address1":"THE HEALTH CENTRE","Address2":"94-100 CRUMLIN ROAD","Address3":"BELFAST","Postcode":"BT14 6AR","TelNo":"(028) 9074 1188","Lat":54.608269,"Long":-5.938132,"Easting":145790,"Northing":530807},
{"PracNo":74,"PartnershipNo":"PE0251","practiceName":"Dr. SIMPSON & PARTNER","Address1":"DR SIMPSON & DR BEATTIE","Address2":"NORTHGATE FAMILY PRACTICE","Address3":"36 DUNCAIRN GARDENS, BELFAST","Postcode":"BT15 2GH","TelNo":"(028) 9074 3184","Lat":54.612253,"Long":-5.931351,"Easting":146253,"Northing":531226},
{"PracNo":75,"PartnershipNo":"PE0069","practiceName":"Dr. MCCLOSKEY & PARTNERS","Address1":"GROSVENOR ROAD SURGERY","Address2":"216 GROSVENOR ROAD","Address3":"BELFAST","Postcode":"BT12 5LT","TelNo":"(028) 9032 0777","Lat":54.594188,"Long":-5.949653,"Easting":144959,"Northing":529284},
{"PracNo":79,"PartnershipNo":"PE1131","practiceName":"Dr. BREADY & PARTNERS","Address1":"70 SPRINGFIELD ROAD","Address2":"BELFAST","Address3":"CO ANTRIM","Postcode":"BT12 7AH","TelNo":"(028) 90323571","Lat":54.596014,"Long":-5.958473,"Easting":144401,"Northing":529519},
{"PracNo":80,"PartnershipNo":"PE0105","practiceName":"Dr. SWEENEY & PARTNERS","Address1":"460 OLDPARK ROAD","Address2":"BELFAST","Address3":"","Postcode":"BT14 6QG","TelNo":"(028) 9074 6535","Lat":54.620349,"Long":-5.955577,"Easting":144740,"Northing":532214},
{"PracNo":81,"PartnershipNo":"PE0050","practiceName":"Dr. MCHUGH & PARTNERS","Address1":"46 SPRINGFIELD ROAD","Address2":"BELFAST","Address3":"","Postcode":"BT12 7AH","TelNo":"(028) 9032 1454","Lat":54.596014,"Long":-5.958473,"Easting":144401,"Northing":529519},
{"PracNo":83,"PartnershipNo":"PE1232","practiceName":"Dr. CARROLL & PARTNERS","Address1":"GROVE WELLBEING CENTRE, GROVE MEDICAL PRACTICE","Address2":"120 YORK ROAD","Address3":"BELFAST","Postcode":"BT15 3HF","TelNo":"(028) 90164800","Lat":54.61732,"Long":-5.924656,"Easting":146717,"Northing":531765},
{"PracNo":84,"PartnershipNo":"PE0510","practiceName":"Dr. SALTERS & PARTNER","Address1":"186 FALLS ROAD","Address2":"BELFAST","Address3":"","Postcode":"BT12 6AG","TelNo":"(028) 9032 3062","Lat":54.592643,"Long":-5.959195,"Easting":144333,"Northing":529147},
{"PracNo":85,"PartnershipNo":"PE0346","practiceName":"Dr. MACSORLEY & PARTNERS","Address1":"515 ANTRIM ROAD","Address2":"BELFAST","Address3":"","Postcode":"BT15 3BS","TelNo":"(028) 9077 6600","Lat":54.623312,"Long":-5.938458,"Easting":145863,"Northing":532481},
{"PracNo":86,"PartnershipNo":"PE0193","practiceName":"Dr. LOUGHREY & PARTNERS","Address1":"SALISBURY MEDICAL CENTRE","Address2":"474 ANTRIM ROAD","Address3":"BELFAST","Postcode":"BT15 5GF","TelNo":"(028) 9077 7905","Lat":54.640074,"Long":-5.949647,"Easting":145246,"Northing":534386},
{"PracNo":92,"PartnershipNo":"PE0112","practiceName":"Dr. MCFERRAN & PARTNERS","Address1":"BALLYOWEN HEALTH CENTRE","Address2":"179 ANDERSONSTOWN ROAD","Address3":"BELFAST","Postcode":"BT11 9EA","TelNo":"(028) 9061 0611","Lat":54.572494,"Long":-5.997081,"Easting":141759,"Northing":527045},
{"PracNo":93,"PartnershipNo":"PE1061","practiceName":"Dr. WELLS & PARTNER","Address1":"61 CLIFTONVILLE ROAD","Address2":"BELFAST","Address3":"","Postcode":"BT14 6JN","TelNo":"(028) 9074 7361","Lat":54.616073,"Long":-5.943144,"Easting":145516,"Northing":531693},
{"PracNo":94,"PartnershipNo":"PE1088","practiceName":"Dr. CUMMINGS & PARTNER","Address1":"115 FALLS ROAD","Address2":"BELFAST","Address3":"","Postcode":"BT12 6AA","TelNo":"(028) 9032 1009","Lat":54.59415,"Long":-5.955387,"Easting":144588,"Northing":529300},
{"PracNo":95,"PartnershipNo":"PE0218","practiceName":"Dr. MCHUGH","Address1":"BALLYOWEN HEALTH CENTRE","Address2":"179 ANDERSONSTOWN ROAD","Address3":"BELFAST","Postcode":"BT11 9EA","TelNo":"(028) 90610611","Lat":54.572494,"Long":-5.997081,"Easting":141759,"Northing":527045},
{"PracNo":96,"PartnershipNo":"PE0150","practiceName":"Dr. BROWN & PARTNERS","Address1":"MALVERN FAMILY PRACTICE","Address2":"69 SHANKILL ROAD","Address3":"BELFAST","Postcode":"BT13 1FD","TelNo":"(028) 90267120","Lat":54.604038,"Long":-5.946025,"Easting":145255,"Northing":530366},
{"PracNo":98,"PartnershipNo":"PE0086","practiceName":"Dr. MCCLURE & PARTNERS","Address1":"THE LIGONIEL HEALTH CENTRE","Address2":"74A LIGONIEL ROAD","Address3":"BELFAST","Postcode":"BT14 8BY","TelNo":"(028) 9039 1690","Lat":54.624868,"Long":-5.980868,"Easting":143137,"Northing":532809},
{"PracNo":101,"PartnershipNo":"PE0230","practiceName":"Dr. TOAL & PARTNERS","Address1":"132-136 SANDY ROW","Address2":"BELFAST","Address3":"CO ANTRIM","Postcode":"BT12 5EY","TelNo":"(028) 9032 3973","Lat":54.590009,"Long":-5.936724,"Easting":145767,"Northing":528772},
{"PracNo":103,"PartnershipNo":"PE0120","practiceName":"Dr. DONNELLY & PARTNERS","Address1":"15/17 CLIFTON STREET","Address2":"BELFAST","Address3":"","Postcode":"BT13 1AD","TelNo":"(028) 9032 2330","Lat":54.606644,"Long":-5.936518,"Easting":145884,"Northing":530621},
{"PracNo":104,"PartnershipNo":"PE0189","practiceName":"Dr. WRIGHT & PARTNERS","Address1":"17 BALLYGOMARTIN ROAD","Address2":"BELFAST","Address3":"","Postcode":"BT13 3BW","TelNo":"(028) 9071 6333","Lat":54.608159,"Long":-5.965977,"Easting":143993,"Northing":530897},
{"PracNo":105,"PartnershipNo":"PE0015","practiceName":"Dr. COLLINS & PARTNERS","Address1":"CORNERSTONE MEDICAL CENTRE","Address2":"69 SHANKILL ROAD","Address3":"BELFAST","Postcode":"BT13 1FD","TelNo":"(028) 90279880","Lat":54.604038,"Long":-5.946025,"Easting":145255,"Northing":530366},
{"PracNo":111,"PartnershipNo":"PE1166","practiceName":"Dr. MCKENNA","Address1":"2 THAMES STREET","Address2":"BELFAST","Address3":"CO ANTRIM","Postcode":"BT12 6AP","TelNo":"(028) 90320547","Lat":54.592253,"Long":-5.960252,"Easting":144262,"Northing":529107},
{"PracNo":113,"PartnershipNo":"PE1150","practiceName":"Dr. DUGAN","Address1":"173 ANDERSONSTOWN ROAD","Address2":"BELFAST","Address3":"","Postcode":"BT11 9EA","TelNo":"(028) 90623111","Lat":54.572494,"Long":-5.997081,"Easting":141759,"Northing":527045},
{"PracNo":114,"PartnershipNo":"PE1151","practiceName":"Dr. MACAULEY & PARTNERS","Address1":"33 STEWARTSTOWN ROAD","Address2":"BELFAST","Address3":"","Postcode":"BT11 9FZ","TelNo":"(028) 9028 6800","Lat":54.570835,"Long":-6.004289,"Easting":141283,"Northing":526887},
{"PracNo":116,"PartnershipNo":"PE1156","practiceName":"Dr. DORAN & PARTNERS","Address1":"CROCUS STREET SURGERY","Address2":"1 CROCUS STREET","Address3":"BELFAST","Postcode":"BT12 7AP","TelNo":"(028) 9059 3337","Lat":54.595487,"Long":-5.958231,"Easting":144413,"Northing":529459},
{"PracNo":132,"PartnershipNo":"PE0654","practiceName":"Dr. MCGLADE & PARTNERS","Address1":"THE KELLY PRACTICE","Address2":"1 DUNLUCE AVENUE","Address3":"BELFAST","Postcode":"BT9 7HR","TelNo":"(028) 90204218","Lat":54.585442,"Long":-5.943131,"Easting":145325,"Northing":528288},
{"PracNo":136,"PartnershipNo":"PE1142","practiceName":"Dr. HAIGNEY & PARTNERS","Address1":"2 MOUNT ORIEL","Address2":"BELFAST","Address3":"","Postcode":"BT8 7HR","TelNo":"(028) 9070 1653","Lat":54.559741,"Long":-5.912057,"Easting":147173,"Northing":525318},
{"PracNo":140,"PartnershipNo":"PE0038","practiceName":"Dr. CLEMENTS & PARTNERS","Address1":"THE HEALTH CENTRE","Address2":"1 DUNLUCE AVENUE","Address3":"BELFAST","Postcode":"BT9 7HR","TelNo":"(028) 90204248","Lat":54.585442,"Long":-5.943131,"Easting":145325,"Northing":528288},
{"PracNo":143,"PartnershipNo":"PE0258","practiceName":"Dr. STEELE & PARTNERS","Address1":"THE ROWAN TREE FAMILY PRACTICE","Address2":"1 DUNLUCE AVENUE","Address3":"BELFAST","Postcode":"BT9 7HR","TelNo":"(028) 9020 4216","Lat":54.585442,"Long":-5.943131,"Easting":145325,"Northing":528288},
{"PracNo":144,"PartnershipNo":"PE1054","practiceName":"Dr. DAWSON & PARTNERS","Address1":"RAVENBANK SURGERY","Address2":"113 RAVENHILL ROAD","Address3":"BELFAST","Postcode":"BT6 8DR","TelNo":"(028) 9045 7132","Lat":54.591251,"Long":-5.91042,"Easting":147474,"Northing":528815},
{"PracNo":145,"PartnershipNo":"PE0064","practiceName":"Dr. ADAIR & PARTNERS","Address1":"15A DONEGALL ROAD","Address2":"BELFAST","Address3":"","Postcode":"BT12 5JJ","TelNo":"(028) 90325679","Lat":54.589354,"Long":-5.937117,"Easting":145738,"Northing":528701},
{"PracNo":146,"PartnershipNo":"PE0266","practiceName":"Dr. BOYD & PARTNER","Address1":"BALMORAL SURGERY","Address2":"436 LISBURN ROAD","Address3":"BELFAST","Postcode":"BT9 6GR","TelNo":"(028) 90667595","Lat":54.570105,"Long":-5.962786,"Easting":143960,"Northing":526654},
{"PracNo":147,"PartnershipNo":"PE0125","practiceName":"Dr. ROWAN & PARTNERS","Address1":"281 ORMEAU ROAD","Address2":"BELFAST","Address3":"","Postcode":"BT7 3GG","TelNo":"(028) 9064 2914","Lat":54.581228,"Long":-5.921496,"Easting":146696,"Northing":527741},
{"PracNo":148,"PartnershipNo":"PE0020","practiceName":"Dr. RUTHERFORD","Address1":"THE SURGERY","Address2":"1B DRUMART SQUARE","Address3":"BELVOIR ESTATE","Postcode":"BELFAST  BT8 7EY","TelNo":"(028) 9064 5746","Lat":54.548872,"Long":-5.929495,"Easting":145978,"Northing":524172},
{"PracNo":151,"PartnershipNo":"PE0114","practiceName":"Dr. IRWIN & PARTNERS","Address1":"THE HEALTH CENTRE","Address2":"13/25 FINAGHY ROAD SOUTH","Address3":"BELFAST","Postcode":"BT10 0BX","TelNo":"(028) 9020 4444","Lat":54.557306,"Long":-5.983898,"Easting":142515,"Northing":525308},
{"PracNo":153,"PartnershipNo":"PE0082","practiceName":"Dr. O'HARE & PARTNERS","Address1":"ORMEAU ROAD HEALTH CENTRE","Address2":"120 ORMEAU ROAD","Address3":"BELFAST","Postcode":"BT7 2EB","TelNo":"(028) 9032 6030","Lat":54.58481,"Long":-5.922017,"Easting":146685,"Northing":528141},
{"PracNo":154,"PartnershipNo":"PE1084","practiceName":"Dr. MCCAULEY & PARTNER","Address1":"142 - 144 UNIVERSITY STREET","Address2":"BELFAST","Address3":"","Postcode":"BT7 1HH","TelNo":"(028) 9031 1118","Lat":54.585616,"Long":-5.926055,"Easting":146429,"Northing":528245},
{"PracNo":156,"PartnershipNo":"PE0148","practiceName":"Dr. CHAKRAVARTY & PARTNERS","Address1":"BALLYOWEN HEALTH CENTRE","Address2":"179 ANDERSONSTOWN ROAD","Address3":"BELFAST","Postcode":"BT11 9EA","TelNo":"(028) 9061 0611","Lat":54.572494,"Long":-5.997081,"Easting":141759,"Northing":527045},
{"PracNo":157,"PartnershipNo":"PE1036","practiceName":"Dr. FAIR & PARTNERS","Address1":"UNIVERSITY HEALTH CENTRE","Address2":"5 LENNOXVALE","Address3":"MALONE ROAD","Postcode":"BELFAST  BT9 5BY","TelNo":"(028) 9097 5551","Lat":54.578315,"Long":-5.93884,"Easting":145558,"Northing":527480},
{"PracNo":159,"PartnershipNo":"PE0505","practiceName":"Dr. BELL & PARTNERS","Address1":"485 ORMEAU ROAD","Address2":"BELFAST","Address3":"","Postcode":"BT7 3GR","TelNo":"(028) 9064 1506","Lat":54.574053,"Long":-5.917754,"Easting":146893,"Northing":526929},
{"PracNo":162,"PartnershipNo":"PE0895","practiceName":"Dr. THOMPSON","Address1":"10/12 LISBURN ROAD","Address2":"BELFAST","Address3":"CO ANTRIM","Postcode":"BT9 6AA","TelNo":"(028) 90325820","Lat":54.586581,"Long":-5.938343,"Easting":145642,"Northing":528397},
{"PracNo":164,"PartnershipNo":"PE1072","practiceName":"Dr. MURDOCK & PARTNER","Address1":"CREGAGH SURGERY","Address2":"36 MONTGOMERY ROAD","Address3":"BELFAST","Postcode":"BT6 9HL","TelNo":"(028) 90709079","Lat":54.578829,"Long":-5.88456,"Easting":149067,"Northing":527341},
{"PracNo":165,"PartnershipNo":"PE0197","practiceName":"Dr. KEANE & PARTNERS","Address1":"6 NORTH PARADE","Address2":"BELFAST","Address3":"","Postcode":"BT7 2GG","TelNo":"(028) 9064 7158","Lat":54.580454,"Long":-5.919174,"Easting":146841,"Northing":527646},
{"PracNo":166,"PartnershipNo":"PE1045","practiceName":"Dr. CULLEN","Address1":"BOTANIC MEDICAL CENTRE","Address2":"51 BOTANIC AVENUE","Address3":"BELFAST","Postcode":"BT7 1JL","TelNo":"(028) 9032 0919","Lat":54.586858,"Long":-5.933648,"Easting":145946,"Northing":528411},
{"PracNo":191,"PartnershipNo":"PE0682","practiceName":"Dr. HARRISON & PARTNERS","Address1":"THE MONTALTO MEDICAL CENTRE","Address2":"2 DROMORE ROAD","Address3":"BALLYNAHINCH","Postcode":"BT24 8AY","TelNo":"(028) 9756 2929","Lat":54.399548,"Long":-5.901697,"Easting":146853,"Northing":507469},
{"PracNo":192,"PartnershipNo":"PE0043","practiceName":"Dr. MCGILL & PARTNERS","Address1":"KILLYLEAGH SURGERY","Address2":"14 DOWNPATRICK ROAD","Address3":"KILLYLEAGH, DOWNPATRICK","Postcode":"BT30 9RG","TelNo":"(028) 44822811","Lat":54.397494,"Long":-5.654937,"Easting":162850,"Northing":506381},
{"PracNo":193,"PartnershipNo":"PE0620","practiceName":"Dr. GREER & PARTNERS","Address1":"14 CHURCH VIEW","Address2":"DUNDRUM","Address3":"NEWCASTLE","Postcode":"BT33 0NA","TelNo":"8444773832","Lat":54.256922,"Long":-5.847382,"Easting":149511,"Northing":491416},
{"PracNo":194,"PartnershipNo":"PE1078","practiceName":"Dr. HYLAND & PARTNER","Address1":"THE SURGERY","Address2":"CAUSEWAY PLACE","Address3":"NEWCASTLE","Postcode":"BT33 0DN","TelNo":"(028) 4372 2252","Lat":54.20902,"Long":-5.894052,"Easting":146178,"Northing":486257},
{"PracNo":195,"PartnershipNo":"PE1300","practiceName":"Dr. GILPIN","Address1":"THE SURGERY","Address2":"CAUSEWAY PLACE","Address3":"NEWCASTLE","Postcode":"BT33 0DN","TelNo":"(028) 4372 3438","Lat":54.20902,"Long":-5.894052,"Easting":146178,"Northing":486257},
{"PracNo":196,"PartnershipNo":"PE0652","practiceName":"Dr. MURPHY","Address1":"THE HEALTH CENTRE","Address2":"DOWNPATRICK ROAD","Address3":"ARDGLASS","Postcode":"BT30 7SF","TelNo":"(028) 4484 1442","Lat":54.262622,"Long":-5.6173,"Easting":164522,"Northing":491257},
{"PracNo":198,"PartnershipNo":"PE0727","practiceName":"Dr. ROSS & PARTNERS","Address1":"THE HEALTH CENTRE","Address2":"FAIRVIEW","Address3":"SAINTFIELD, BALLYNAHINCH","Postcode":"BT24 7AD","TelNo":"(028) 9751 0575","Lat":54.459178,"Long":-5.836508,"Easting":151444,"Northing":513866},
{"PracNo":201,"PartnershipNo":"PE0039","practiceName":"Dr. O'CONNOR & PARTNERS","Address1":"56 MAIN STREET","Address2":"NEWCASTLE","Address3":"CO DOWN","Postcode":"BT33 0AE","TelNo":"8444773143","Lat":54.211214,"Long":-5.88924,"Easting":146505,"Northing":486483},
{"PracNo":202,"PartnershipNo":"PE0284","practiceName":"Dr. MOORE & PARTNER","Address1":"GP & PRIMARY CARE CENTRE","Address2":"FIRST FLOOR, DOWN HOSPITAL","Address3":"STRUELL WELLS ROAD, DOWNPATRICK","Postcode":"BT30 6RL","TelNo":"(028) 4461 3016","Lat":54.323767,"Long":-5.6845,"Easting":160503,"Northing":498282},
{"PracNo":204,"PartnershipNo":"PE0320","practiceName":"Dr. MULHALL & PARTNER","Address1":"THE SURGERY","Address2":"12 THE GREEN","Address3":"IRISH STREET, DOWNPATRICK","Postcode":"BT30 6BE","TelNo":"8448151085","Lat":54.325878,"Long":-5.71348,"Easting":158632,"Northing":498616},
{"PracNo":205,"PartnershipNo":"PE1257","practiceName":"Dr. BELL & PARTNERS","Address1":"THE SURGERY","Address2":"JAMES STREET","Address3":"CROSSGAR, DOWNPATRICK","Postcode":"BT30 9JU","TelNo":"(028) 4483 0230","Lat":54.396644,"Long":-5.757248,"Easting":156207,"Northing":506636},
{"PracNo":206,"PartnershipNo":"PE0178","practiceName":"Dr. MCGOLDRICK & PARTNER","Address1":"GP & PRIMARY CARE CENTRE","Address2":"FIRST FLOOR, DOWN HOSPITAL","Address3":"STRUELL WELLS ROAD, DOWNPATRICK","Postcode":"BT30 6RL","TelNo":"(028) 4461 2962","Lat":54.323767,"Long":-5.6845,"Easting":160503,"Northing":498282},
{"PracNo":207,"PartnershipNo":"PE0242","practiceName":"Dr. HARNEY & PARTNER","Address1":"STREAM STREET SURGERY","Address2":"40 STREAM STREET","Address3":"DOWNPATRICK","Postcode":"BT30 6DE","TelNo":"8448151050","Lat":54.324518,"Long":-5.710486,"Easting":158819,"Northing":498455},
{"PracNo":221,"PartnershipNo":"PE0204","practiceName":"Dr. FLEMING & PARTNERS","Address1":"HEALTH CENTRE","Address2":"BALLYNAHINCH ST","Address3":"HILLSBOROUGH","Postcode":"BT26 6AW","TelNo":"028 92682216","Lat":54.46241,"Long":-6.080375,"Easting":135668,"Northing":515115},
{"PracNo":222,"PartnershipNo":"PE0391","practiceName":"Dr. CUPPLES & PARTNERS","Address1":"WOODBROOK MEDICAL PRACTICE","Address2":"STEWARTSTOWN ROAD","Address3":"DUNMURRY  BELFAST","Postcode":"BT17 0FB","TelNo":"(028) 9060 2931","Lat":54.558567,"Long":-6.021986,"Easting":140062,"Northing":525588},
{"PracNo":223,"PartnershipNo":"PE0094","practiceName":"Dr. CARSON & PARTNERS","Address1":"THE HEALTH CENTRE","Address2":"LINENHALL STREET","Address3":"LISBURN","Postcode":"BT28 1LU","TelNo":"(028) 9260 3333","Lat":54.50938,"Long":-6.042741,"Easting":138406,"Northing":520197},
{"PracNo":224,"PartnershipNo":"PE0456","practiceName":"Dr. TRIMBLE & PARTNERS","Address1":"THE HEALTH CENTRE","Address2":"LINENHALL STREET","Address3":"LISBURN","Postcode":"BT28 1LU","TelNo":"(028) 9260 3203","Lat":54.50938,"Long":-6.042741,"Easting":138406,"Northing":520197},
{"PracNo":226,"PartnershipNo":"PE0709","practiceName":"Dr. SMITH & PARTNERS","Address1":"THE SURGERY","Address2":"BEGNEY HILL ROAD","Address3":"DROMARA","Postcode":"BT25 2AT","TelNo":"(028) 9753 2217","Lat":54.379762,"Long":-6.005057,"Easting":140023,"Northing":505646},
{"PracNo":227,"PartnershipNo":"PE0103","practiceName":"Dr. WALES & PARTNERS","Address1":"THE HEALTH CENTRE","Address2":"LINENHALL STREET","Address3":"LISBURN","Postcode":"BT28 1LU","TelNo":"(028) 9266 6266","Lat":54.50938,"Long":-6.042741,"Easting":138406,"Northing":520197},
{"PracNo":228,"PartnershipNo":"PE0301","practiceName":"Dr. FORDE & PARTNER","Address1":"THE HEALTH CENTRE","Address2":"LINENHALL STREET","Address3":"LISBURN","Postcode":"BT28 1LU","TelNo":"(028) 9260 3133","Lat":54.50938,"Long":-6.042741,"Easting":138406,"Northing":520197},
{"PracNo":229,"PartnershipNo":"PE0198","practiceName":"Dr. SHORTEN & PARTNERS","Address1":"THE HEALTH CENTRE","Address2":"LINENHALL STREET","Address3":"LISBURN","Postcode":"BT28 1LU","TelNo":"(028) 9260 3090","Lat":54.50938,"Long":-6.042741,"Easting":138406,"Northing":520197},
{"PracNo":230,"PartnershipNo":"PE1376","practiceName":"Dr. RYAN & PARTNERS","Address1":"THE HEALTH CENTRE","Address2":"LINENHALL STREET","Address3":"LISBURN","Postcode":"BT28 1LU","TelNo":"(028) 9260 3111","Lat":54.50938,"Long":-6.042741,"Easting":138406,"Northing":520197},
{"PracNo":231,"PartnershipNo":"PE0394","practiceName":"Dr. IRWIN & PARTNERS","Address1":"THE HEALTH CENTRE","Address2":"LINENHALL STREET","Address3":"LISBURN","Postcode":"BT28 1LU","TelNo":"(028) 9260 3088","Lat":54.50938,"Long":-6.042741,"Easting":138406,"Northing":520197},
{"PracNo":232,"PartnershipNo":"PE1063","practiceName":"Dr. DICK & PARTNERS","Address1":"192 KINGSWAY","Address2":"DUNMURRY","Address3":"BELFAST","Postcode":"BT17 9AL","TelNo":"(028) 9061 8211","Lat":54.546263,"Long":-6.006016,"Easting":141016,"Northing":524161},
{"PracNo":233,"PartnershipNo":"PE0190","practiceName":"Dr. GALLAGHER & PARTNER","Address1":"GLENAVY FAMILY PRACTICE","Address2":"47 MAIN STREET","Address3":"GLENAVY, CRUMLIN","Postcode":"BT29 4LN","TelNo":"(028) 9442 2287","Lat":54.591728,"Long":-6.214645,"Easting":127834,"Northing":530005},
{"PracNo":234,"PartnershipNo":"PE1128","practiceName":"Dr. PATTERSON","Address1":"THE HEALTH CENTRE","Address2":"LINENHALL STREET","Address3":"LISBURN","Postcode":"BT28 1LU","TelNo":"(028) 9260 3177","Lat":54.50938,"Long":-6.042741,"Easting":138406,"Northing":520197},
{"PracNo":252,"PartnershipNo":"PE0194","practiceName":"Dr. LAWSON & PARTNERS","Address1":"PRIORY SURGERY","Address2":"26 HIGH STREET","Address3":"HOLYWOOD","Postcode":"BT18 9AD","TelNo":"084 44773396","Lat":54.641459,"Long":-5.834015,"Easting":152712,"Northing":534126},
{"PracNo":253,"PartnershipNo":"PE0268","practiceName":"Dr. GILMORE & PARTNERS","Address1":"THE HEALTH CENTRE","Address2":"NEWTOWNARDS ROAD","Address3":"BANGOR","Postcode":"BT20 4LD","TelNo":"(028) 9151 5200","Lat":54.660282,"Long":-5.66543,"Easting":163694,"Northing":535638},
{"PracNo":254,"PartnershipNo":"PE0213","practiceName":"Dr. MOLES & PARTNER","Address1":"24 LISBARNETT ROAD","Address2":"LISBANE","Address3":"NEWTOWNARDS","Postcode":"BT23 6AW","TelNo":"(028) 9754 1466","Lat":54.50022,"Long":-5.719764,"Easting":159249,"Northing":518024},
{"PracNo":255,"PartnershipNo":"PE1040","practiceName":"Dr. MILLIKEN & PARTNERS","Address1":"THE HEALTH CENTRE","Address2":"NEWTOWNARDS ROAD","Address3":"BANGOR","Postcode":"BT20 4LD","TelNo":"(028) 9151 5250","Lat":54.660282,"Long":-5.66543,"Easting":163694,"Northing":535638},
{"PracNo":256,"PartnershipNo":"PE0059","practiceName":"Dr. CRAIG & PARTNERS","Address1":"140 GROOMSPORT ROAD","Address2":"BANGOR","Address3":"CO DOWN","Postcode":"BT20 5PE","TelNo":"8444996601","Lat":54.665543,"Long":-5.638891,"Easting":165435,"Northing":536134},
{"PracNo":257,"PartnershipNo":"PE0181","practiceName":"Dr. MCCREERY & PARTNERS","Address1":"THE SURGERY","Address2":"BROOK STREET","Address3":"HOLYWOOD","Postcode":"BT18 9DA","TelNo":"8444773350","Lat":54.640606,"Long":-5.830928,"Easting":152906,"Northing":534020},
{"PracNo":258,"PartnershipNo":"PE0603","practiceName":"Dr. DREW & PARTNER","Address1":"THE HEALTH CENTRE","Address2":"NEWTOWNARDS ROAD","Address3":"BANGOR","Postcode":"BT20 4LD","TelNo":"(028) 9151 5222","Lat":54.660282,"Long":-5.66543,"Easting":163694,"Northing":535638},
{"PracNo":259,"PartnershipNo":"PE1011","practiceName":"Dr. DOYLE & PARTNERS","Address1":"CUAN FAMILY PRACTICE","Address2":"44 HIGH STREET","Address3":"PORTAFERRY, NEWTOWNARDS","Postcode":"BT22 1QT","TelNo":"(028) 42728854","Lat":54.382091,"Long":-5.545065,"Easting":169893,"Northing":504303},
{"PracNo":260,"PartnershipNo":"PE0684","practiceName":"Dr. CRAWFORD & PARTNERS","Address1":"THE HEALTH CENTRE","Address2":"NEWTOWNARDS ROAD","Address3":"BANGOR","Postcode":"BT20 4LD","TelNo":"(028) 9151 5215","Lat":54.660282,"Long":-5.66543,"Easting":163694,"Northing":535638},
{"PracNo":261,"PartnershipNo":"PE1322","practiceName":"Dr. NEOH & PARTNERS","Address1":"KILLYNETHER PRACTICE","Address2":"2A FREDERICK STREET","Address3":"NEWTOWNARDS","Postcode":"BT23 4LR","TelNo":"8445769306","Lat":54.593191,"Long":-5.703509,"Easting":160846,"Northing":528306},
{"PracNo":263,"PartnershipNo":"PE1008","practiceName":"Dr. BISSETT","Address1":"DR ROBERT HENRY SURGERY","Address2":"7A NEWTOWNARDS ROAD","Address3":"COMBER, NEWTOWNARDS","Postcode":"BT23 5AU","TelNo":"(028) 9187 0447","Lat":54.551439,"Long":-5.741256,"Easting":158161,"Northing":523793},
{"PracNo":264,"PartnershipNo":"PE0295","practiceName":"Dr. MAJURY","Address1":"SILVERBIRCH MEDICAL PRACTICE","Address2":"39A SILVERBIRCH ROAD","Address3":"BANGOR","Postcode":"BT19 6EU","TelNo":"(028) 9145 5000","Lat":54.652258,"Long":-5.632631,"Easting":165762,"Northing":534636},
{"PracNo":265,"PartnershipNo":"PE0622","practiceName":"Dr. MCGAUGHEY & PARTNERS","Address1":"THE SURGERY","Address2":"1 CHURCH STREET","Address3":"NEWTOWNARDS","Postcode":"BT23 4FH","TelNo":"(028) 9181 6333","Lat":54.594179,"Long":-5.70482,"Easting":160767,"Northing":528421},
{"PracNo":267,"PartnershipNo":"PE1025","practiceName":"Dr. SEMPLE & PARTNER","Address1":"THE HEALTH CENTRE","Address2":"5 NEWTOWNARDS ROAD","Address3":"COMBER, NEWTOWNARDS","Postcode":"BT23 5BA","TelNo":"(028) 9187 8391","Lat":54.550607,"Long":-5.740985,"Easting":158174,"Northing":523700},
{"PracNo":271,"PartnershipNo":"PE1126","practiceName":"Dr. WINTER & PARTNERS","Address1":"OLD MILL SURGERY","Address2":"CHURCH STREET","Address3":"NEWTOWNARDS","Postcode":"BT23 4AS","TelNo":"8444994474","Lat":54.593456,"Long":-5.705768,"Easting":160701,"Northing":528344},
{"PracNo":272,"PartnershipNo":"PE0671","practiceName":"Dr. MCKEOWN & PARTNERS","Address1":"16 A THE SQUARE","Address2":"COMBER","Address3":"NEWTOWNARDS","Postcode":"BT23 5DT","TelNo":"(028) 9187 8159","Lat":54.55093,"Long":-5.745357,"Easting":157893,"Northing":523750},
{"PracNo":273,"PartnershipNo":"PE0632","practiceName":"Dr. MCMILLAN & PARTNER","Address1":"THE HEALTH CENTRE","Address2":"5 NEWTOWNARDS ROAD","Address3":"COMBER, NEWTOWNARDS","Postcode":"BT23 5BA","TelNo":"(028) 9187 8391","Lat":54.550607,"Long":-5.740985,"Easting":158174,"Northing":523700},
{"PracNo":274,"PartnershipNo":"PE0081","practiceName":"Dr. MEGARITY & PARTNERS","Address1":"BLOOMFIELD SURGERY","Address2":"95 BLOOMFIELD ROAD","Address3":"BANGOR","Postcode":"BT20 4XA","TelNo":"0844 477 3281","Lat":54.64977,"Long":-5.662818,"Easting":163802,"Northing":534460},
{"PracNo":275,"PartnershipNo":"PE1081","practiceName":"Dr. WEBB & PARTNER","Address1":"REGENCY MEDICAL CENTRE","Address2":"2A FREDERICK STREET","Address3":"NEWTOWNARDS","Postcode":"BT23 4LR","TelNo":"8445769306","Lat":54.593191,"Long":-5.703509,"Easting":160846,"Northing":528306},
{"PracNo":276,"PartnershipNo":"PE0134","practiceName":"Dr. BECKETT & PARTNERS","Address1":"DONAGHADEE HEALTH CENTRE","Address2":"3 KILLAUGHEY ROAD","Address3":"DONAGHADEE","Postcode":"BT21 0BU","TelNo":"(028) 9188 2176","Lat":54.640163,"Long":-5.536083,"Easting":171920,"Northing":532972},
{"PracNo":278,"PartnershipNo":"PE0738","practiceName":"Dr. KENNEDY & PARTNERS","Address1":"THE SURGERY","Address2":"1 CHURCH STREET","Address3":"NEWTOWNARDS","Postcode":"BT23 4FH","TelNo":"(028) 9181 6333","Lat":54.594179,"Long":-5.70482,"Easting":160767,"Northing":528421},
{"PracNo":279,"PartnershipNo":"PE1357","practiceName":"Dr. O'NEILL & PARTNER","Address1":"WINDMILL SURGERY","Address2":"44 HIGH STREET","Address3":"PORTAFERRY","Postcode":"NEWTOWNARDS  BT22 1QT","TelNo":"(028) 4272 8420","Lat":54.382091,"Long":-5.545065,"Easting":169893,"Northing":504303},
{"PracNo":280,"PartnershipNo":"PE0053","practiceName":"Dr. MCMINN & PARTNERS","Address1":"THE HEALTH CENTRE","Address2":"NEWTOWNARDS ROAD","Address3":"BANGOR","Postcode":"BT20 4LD","TelNo":"(028) 9151 5300","Lat":54.660282,"Long":-5.66543,"Easting":163694,"Northing":535638},
{"PracNo":281,"PartnershipNo":"PE0690","practiceName":"Dr. ABRAHAM & PARTNERS","Address1":"CLELAND PARK SURGERY","Address2":"2 CLELAND PARK","Address3":"BANGOR","Postcode":"BT20 3EB","TelNo":"(028) 9145 2410","Lat":54.646364,"Long":-5.676998,"Easting":162867,"Northing":534129},
{"PracNo":282,"PartnershipNo":"PE1079","practiceName":"Dr. STEELE & PARTNERS","Address1":"THE HEALTH CENTRE","Address2":"FOWLER WAY","Address3":"BALLYWALTER, NEWTOWNARDS","Postcode":"BT22 2PY","TelNo":"(028) 4275 8292","Lat":54.54586,"Long":-5.485058,"Easting":174691,"Northing":522321},
{"PracNo":283,"PartnershipNo":"PE0739","practiceName":"Dr. MAGEEAN & PARTNERS","Address1":"LOUGH VIEW SURGERY","Address2":"2 MAIN STREET","Address3":"KIRCUBBIN, NEWTOWNARDS","Postcode":"BT22 2SP","TelNo":"(028) 4273 8532","Lat":54.489653,"Long":-5.532927,"Easting":171282,"Northing":516225},
{"PracNo":284,"PartnershipNo":"PE0852","practiceName":"Dr. ARMSTRONG & PARTNERS","Address1":"THE SURGERY","Address2":"1 CHURCH STREET","Address3":"NEWTOWNARDS","Postcode":"BT23 4FH","TelNo":"(028) 9181 6333","Lat":54.594179,"Long":-5.70482,"Easting":160767,"Northing":528421},
{"PracNo":285,"PartnershipNo":"PE1191","practiceName":"Dr. JACKSON","Address1":"GREEN ROAD MEDICAL CENTRE","Address2":"5 GREEN ROAD","Address3":"CONLIG, NEWTOWNARDS","Postcode":"BT23 7PZ","TelNo":"(028) 91474900","Lat":54.632267,"Long":-5.670005,"Easting":163236,"Northing":532538},
{"PracNo":302,"PartnershipNo":"PN0273","practiceName":"Dr. CAMERON & PARTNERS","Address1":"THE SURGERY","Address2":"80 CASTLETON","Address3":"TEMPLEPATRICK","Postcode":"BALLYCLARE  BT39 0AZ","TelNo":"(028) 9443 2202","Lat":54.699628,"Long":-6.102835,"Easting":135755,"Northing":541574},
{"PracNo":303,"PartnershipNo":"PN0370","practiceName":"Dr. THOMPSON & PARTNERS","Address1":"1 GLENAVY ROAD","Address2":"CRUMLIN","Address3":"CO ANTRIM","Postcode":"BT29 4LA","TelNo":"(028) 9442 2209","Lat":54.611721,"Long":-6.217551,"Easting":127780,"Northing":532239},
{"PracNo":304,"PartnershipNo":"PN4155","practiceName":"Dr. BUTLER & PARTNERS","Address1":"MAINE MEDICAL, THE HEALTH CENTRE","Address2":"PORTGLENONE ROAD","Address3":"AHOGHILL, BALLYMENA","Postcode":"BT42 1LE","TelNo":"028 25871200","Lat":54.849412,"Long":-6.368204,"Easting":119707,"Northing":559258},
{"PracNo":305,"PartnershipNo":"PN0925","practiceName":"Dr. HARPER & PARTNERS","Address1":"THE HEALTH CENTRE","Address2":"CUSHENDALL ROAD","Address3":"BALLYMENA","Postcode":"BT43 6HQ","TelNo":"(028) 25313030","Lat":54.874035,"Long":-6.27273,"Easting":125999,"Northing":561617},
{"PracNo":307,"PartnershipNo":"PN4078","practiceName":"Dr. FIELD","Address1":"THE HEALTH CENTRE","Address2":"STATION ROAD","Address3":"ANTRIM","Postcode":"BT41 4BS","TelNo":"(028) 94413910","Lat":54.716598,"Long":-6.212032,"Easting":128837,"Northing":543878},
{"PracNo":308,"PartnershipNo":"PN0465","practiceName":"Dr. HUNTER & PARTNERS","Address1":"ORIEL SURGERY","Address2":"31 ORIEL ROAD","Address3":"ANTRIM","Postcode":"BT41 4HR","TelNo":"(028) 94464936","Lat":54.719072,"Long":-6.213288,"Easting":128773,"Northing":544158},
{"PracNo":310,"PartnershipNo":"PN0221","practiceName":"Dr. MCKELVEY & PARTNERS","Address1":"CULLYBACKEY HEALTH CENTRE","Address2":"TOBER PARK","Address3":"CULLYBACKEY, BALLYMENA","Postcode":"BT42 1NW","TelNo":"(028) 2588 0505","Lat":54.889591,"Long":-6.350306,"Easting":121133,"Northing":563653},
{"PracNo":311,"PartnershipNo":"PN0335","practiceName":"Dr. MAGOWAN & PARTNER","Address1":"THE SURGERY","Address2":"77 GALGORM ROAD","Address3":"BALLYMENA","Postcode":"BT42 1AA","TelNo":"(028) 25639399","Lat":54.86258,"Long":-6.283769,"Easting":125213,"Northing":560387},
{"PracNo":312,"PartnershipNo":"PN0441","practiceName":"Dr. PURCE & PARTNER","Address1":"THE HEALTH CENTRE","Address2":"CUSHENDALL ROAD","Address3":"BALLYMENA","Postcode":"BT43 6HQ","TelNo":"(028) 25313070","Lat":54.874035,"Long":-6.27273,"Easting":125999,"Northing":561617},
{"PracNo":313,"PartnershipNo":"PN0378","practiceName":"Dr. RUSSELL & PARTNER","Address1":"THE GABLES","Address2":"45 WAVENEY ROAD","Address3":"BALLYMENA","Postcode":"BT43 5BA","TelNo":"(028) 2565 3237","Lat":54.862114,"Long":-6.27983,"Easting":125463,"Northing":560320},
{"PracNo":314,"PartnershipNo":"PN0401","practiceName":"Dr. MCFARLAND & PARTNERS","Address1":"THE HEALTH CENTRE","Address2":"CUSHENDALL ROAD","Address3":"BALLYMENA","Postcode":"BT43 6HQ","TelNo":"(028) 25313050","Lat":54.874035,"Long":-6.27273,"Easting":125999,"Northing":561617},
{"PracNo":315,"PartnershipNo":"PN0490","practiceName":"Dr. O'HARA & PARTNER","Address1":"CUSHENDALL ROAD","Address2":"BALLYMENA","Address3":"CO ANTRIM","Postcode":"BT43 6HQ","TelNo":"(028) 2531 3110","Lat":54.874035,"Long":-6.27273,"Easting":125999,"Northing":561617},
{"PracNo":317,"PartnershipNo":"PN4027","practiceName":"Dr. REDMOND & PARTNERS","Address1":"THE HEALTH CENTRE","Address2":"76 MAIN STREET","Address3":"BROUGHSHANE BALLYMENA","Postcode":"BT42 4JA","TelNo":"(028) 2586 1214","Lat":54.894427,"Long":-6.205117,"Easting":130470,"Northing":563622},
{"PracNo":319,"PartnershipNo":"PN0359","practiceName":"Dr. WILSON & PARTNERS","Address1":"PORTGLENONE HEALTH CENTRE","Address2":"17 TOWNHILL ROAD","Address3":"PORTGLENONE, BALLYMENA","Postcode":"BT44 8AD","TelNo":"(028) 25821551","Lat":54.875483,"Long":-6.476438,"Easting":112950,"Northing":562595},
{"PracNo":321,"PartnershipNo":"PN0354","practiceName":"Dr. MCQUILLAN & PARTNER","Address1":"THE HEALTH CENTRE","Address2":"CUSHENDALL ROAD","Address3":"BALLYMENA","Postcode":"BT43 6HQ","TelNo":"(028) 25313090","Lat":54.874035,"Long":-6.27273,"Easting":125999,"Northing":561617},
{"PracNo":323,"PartnershipNo":"PN0495","practiceName":"Dr. SIMPSON & PARTNER","Address1":"SMITHFIELD MEDICAL CENTRE","Address2":"7 SMITHFIELD PLACE","Address3":"GALGORM ROAD, BALLYMENA","Postcode":"BT43 5HB","TelNo":"(028) 2565 2301","Lat":54.865458,"Long":-6.282474,"Easting":125316,"Northing":560702},
{"PracNo":325,"PartnershipNo":"PN4100","practiceName":"Dr. BILL","Address1":"KELLS & CONNOR MEDICAL CENTRE","Address2":"36 CHURCH ROAD","Address3":"KELLS, BALLYMENA","Postcode":"BT42 3JU","TelNo":"(028) 2589 1420","Lat":54.807701,"Long":-6.21557,"Easting":129219,"Northing":554020},
{"PracNo":326,"PartnershipNo":"PN0475","practiceName":"Dr. MCCUSKER & PARTNERS","Address1":"THE FAMILY PRACTICE","Address2":"THE HEALTH CENTRE","Address3":"STATION ROAD, ANTRIM","Postcode":"BT41 4BS","TelNo":"(028) 94413930","Lat":54.716598,"Long":-6.212032,"Easting":128837,"Northing":543878},
{"PracNo":327,"PartnershipNo":"PN4101","practiceName":"Dr. KIDD & PARTNER","Address1":"THE HEALTH CENTRE","Address2":"STATION ROAD","Address3":"ANTRIM","Postcode":"BT41 4BS","TelNo":"(028) 94413950","Lat":54.716598,"Long":-6.212032,"Easting":128837,"Northing":543878},
{"PracNo":328,"PartnershipNo":"PN0917","practiceName":"Dr. JOHNSTON & PARTNERS","Address1":"MAINE MEDICAL PRACTICE","Address2":"OLD MILL PARK, MAIN STREET","Address3":"CULLYBACKEY, BALLYMENA","Postcode":"BT42 1GP","TelNo":"(028) 25882222","Lat":54.888267,"Long":-6.355905,"Easting":120765,"Northing":563529},
{"PracNo":329,"PartnershipNo":"PN0206","practiceName":"Dr. MOSS & PARTNERS","Address1":"THE HEALTH CENTRE","Address2":"STATION ROAD","Address3":"ANTRIM","Postcode":"BT41 4BS","TelNo":"(028) 94413920","Lat":54.716598,"Long":-6.212032,"Easting":128837,"Northing":543878},
{"PracNo":330,"PartnershipNo":"PN4039","practiceName":"Dr. TURK & PARTNER","Address1":"THE HEALTH CENTRE","Address2":"STATION ROAD","Address3":" ANTRIM","Postcode":"BT41 4BS","TelNo":"(028) 94413940","Lat":54.716598,"Long":-6.212032,"Easting":128837,"Northing":543878},
{"PracNo":331,"PartnershipNo":"PN4060","practiceName":"Dr. HUEY & PARTNER","Address1":"THE HEALTH CENTRE","Address2":"CUSHENDALL ROAD","Address3":"BALLYMENA","Postcode":"BT43 6HQ","TelNo":"(028) 25313010","Lat":54.874035,"Long":-6.27273,"Easting":125999,"Northing":561617},
{"PracNo":333,"PartnershipNo":"PN4184","practiceName":"Dr. JOHNSTON & PARTNER","Address1":"THE SURGERY","Address2":"TOOME HOUSE, 55 MAIN STREET","Address3":"TOOMEBRIDGE, ANTRIM","Postcode":"BT41 3TF","TelNo":"(028) 79651250","Lat":54.753399,"Long":-6.463176,"Easting":112934,"Northing":548970},
{"PracNo":334,"PartnershipNo":"PN4084","practiceName":"Dr. MCCAUGHEY & PARTNERS","Address1":"THE HEALTH CENTRE","Address2":"5 NEILLSBROOK ROAD","Address3":"RANDALSTOWN, ANTRIM","Postcode":"BT41 3AE","TelNo":"(028) 9447 2575","Lat":54.751022,"Long":-6.320359,"Easting":122101,"Northing":548129},
{"PracNo":336,"PartnershipNo":"PN4117","practiceName":"Dr. HEGAN & PARTNERS","Address1":"2 MALLUSK ROAD","Address2":"NEWTOWNABBEY","Address3":"","Postcode":"BT36 4PP","TelNo":"(028) 90832188","Lat":54.673303,"Long":-5.986706,"Easting":143066,"Northing":538215},
{"PracNo":337,"PartnershipNo":"PN4120","practiceName":"Dr. KYLE & PARTNERS","Address1":"GLENGORMLEY PRACTICE","Address2":"324 ANTRIM ROAD","Address3":"NEWTOWNABBEY","Postcode":"BT36 5EQ","TelNo":"(028) 90848420","Lat":54.672475,"Long":-5.960503,"Easting":144750,"Northing":538028},
{"PracNo":341,"PartnershipNo":"PN0529","practiceName":"Dr. MOLES & PARTNERS","Address1":"THE HEALTH CENTRE","Address2":"CASTLEROCK ROAD","Address3":"COLERAINE","Postcode":"BT51 3HP","TelNo":"(028) 7034 4833","Lat":55.133811,"Long":-6.681517,"Easting":101731,"Northing":592171},
{"PracNo":344,"PartnershipNo":"PN0843","practiceName":"Dr. QUIERY & PARTNERS","Address1":"KILLOWEN MEDICAL CENTRE","Address2":"CASTLEROCK ROAD","Address3":"COLERAINE","Postcode":"BT51 3HP","TelNo":"(028) 7034 4834","Lat":55.133811,"Long":-6.681517,"Easting":101731,"Northing":592171},
{"PracNo":345,"PartnershipNo":"PN0084","practiceName":"Dr. MURDOCK & PARTNERS","Address1":"BALLYMONEY FAMILY PRACTICE","Address2":"BALLYMONEY HEALTH CENTRE","Address3":"21B NEWAL ROAD, BALLYMONEY","Postcode":"BT53 6HB","TelNo":"(028) 2766 0300","Lat":55.072224,"Long":-6.506707,"Easting":112422,"Northing":584591},
{"PracNo":346,"PartnershipNo":"PN0855","practiceName":"Dr. BURNS & PARTNERS","Address1":"LODGE HEALTH","Address2":"20 LODGE MANOR","Address3":"COLERAINE","Postcode":"BT52 1JX","TelNo":"(028) 7034 4494","Lat":55.126379,"Long":-6.663566,"Easting":102819,"Northing":591268},
{"PracNo":349,"PartnershipNo":"PN0411","practiceName":"Dr. LYNCH & PARTNERS","Address1":"THE COUNTRY MEDICAL PRACTICE","Address2":"122 BALLINLEA ROAD","Address3":"ARMOY, BALLYMONEY","Postcode":"BT53 8TY","TelNo":"(028) 2075 1266","Lat":55.161651,"Long":-6.378358,"Easting":121233,"Northing":594011},
{"PracNo":350,"PartnershipNo":"PN4026","practiceName":"Dr. BROWN & PARTNER","Address1":"6 PRIESTLAND ROAD","Address2":"BUSHMILLS","Address3":"","Postcode":"BT57 8QP","TelNo":"(028) 20731233","Lat":55.203435,"Long":-6.528816,"Easting":111959,"Northing":599268},
{"PracNo":351,"PartnershipNo":"PN0405","practiceName":"Dr. BAILIE & PARTNERS","Address1":"PORTRUSH MEDICAL CENTRE","Address2":"17 DUNLUCE AVENUE","Address3":"PORTRUSH","Postcode":"BT56 8DW","TelNo":"8448151028","Lat":55.202112,"Long":-6.653168,"Easting":104044,"Northing":599642},
{"PracNo":352,"PartnershipNo":"PN0724","practiceName":"Dr. ORR & PARTNERS","Address1":"GARVAGH HEALTH CENTRE","Address2":"110 MAIN STREET","Address3":"GARVAGH, COLERAINE","Postcode":"BT51 5AE","TelNo":"(028) 2955 8210","Lat":54.982021,"Long":-6.688743,"Easting":100137,"Northing":575330},
{"PracNo":354,"PartnershipNo":"PN0871","practiceName":"Dr. HARLEY & PARTNER","Address1":"THE FAMILY PRACTICE","Address2":"6 LEVER ROAD","Address3":"PORTSTEWART","Postcode":"BT55 7EF","TelNo":"(028) 7083 2149","Lat":55.182755,"Long":-6.715399,"Easting":99942,"Northing":597757},
{"PracNo":355,"PartnershipNo":"PN0192","practiceName":"Dr. MCCORMACK & PARTNERS","Address1":"THE HEALTH CENTRE","Address2":"36 GARVAGH ROAD","Address3":"KILREA, COLERAINE","Postcode":"BT51 5QP","TelNo":"8445769226","Lat":54.952116,"Long":-6.566415,"Easting":107739,"Northing":571487},
{"PracNo":356,"PartnershipNo":"PN0101","practiceName":"Dr. BROWN & PARTNERS","Address1":"4 MOUNTSANDEL ROAD","Address2":"COLERAINE","Address3":"CO LONDONDERRY","Postcode":"BT52 1JB","TelNo":"(028) 7034 2650","Lat":55.126893,"Long":-6.669894,"Easting":102420,"Northing":591352},
{"PracNo":357,"PartnershipNo":"PN0464","practiceName":"Dr. GRANT & PARTNERS","Address1":"GLENS OF ANTRIM MEDICAL CENTRE","Address2":"2 GORTACLEE ROAD","Address3":"CUSHENDALL, BALLYMENA","Postcode":"BT44 0TE","TelNo":"(028) 2177 1411","Lat":55.075503,"Long":-6.057977,"Easting":141069,"Northing":583198},
{"PracNo":358,"PartnershipNo":"PN0851","practiceName":"Dr. SIBERRY & PARTNER","Address1":"LIFFOCK","Address2":"69 SEA ROAD","Address3":"CASTLEROCK, COLERAINE","Postcode":"BT51 4TW","TelNo":"(028) 7084 8206","Lat":55.161317,"Long":-6.788217,"Easting":95146,"Northing":595690},
{"PracNo":360,"PartnershipNo":"PN0448","practiceName":"Dr. YOUNG & PARTNERS","Address1":"THE HEALTH CENTRE","Address2":"10 MONEYLECK ROAD","Address3":"RASHARKIN, BALLYMENA","Postcode":"BT44 8QB","TelNo":"(028) 2957 1203","Lat":54.958826,"Long":-6.485494,"Easting":112964,"Northing":571897},
{"PracNo":361,"PartnershipNo":"PN0384","practiceName":"Dr. FANNIN & PARTNERS","Address1":"THE HEALTH CENTRE","Address2":"ROBINSON MEMORIAL HOSPITAL","Address3":"BALLYMONEY","Postcode":"BT53 6HH","TelNo":"0844 4773835","Lat":55.070862,"Long":-6.506306,"Easting":112437,"Northing":584438},
{"PracNo":366,"PartnershipNo":"PN0175","practiceName":"Dr. MCLISTER & PARTNERS","Address1":"THE HEALTH CENTRE","Address2":"DALRIADA HOSPITAL","Address3":"BALLYCASTLE","Postcode":"BT54 6BA","TelNo":"(028) 20768663","Lat":55.200249,"Long":-6.25901,"Easting":129092,"Northing":597831},
{"PracNo":367,"PartnershipNo":"PN4056","practiceName":"Dr. MCCURDY & PARTNERS","Address1":"THE FROCESS MEDICAL CENTRE","Address2":"56 MAIN STREET","Address3":"CLOUGHMILLS, BALLYMENA","Postcode":"BT44 9LF","TelNo":"(028) 2763 8383","Lat":54.997187,"Long":-6.331027,"Easting":123110,"Northing":575538},
{"PracNo":368,"PartnershipNo":"PN0561","practiceName":"Dr. HEGARTY & PARTNERS","Address1":"THE HEALTH CENTRE","Address2":"DALRIADA HOSPITAL","Address3":"BALLYCASTLE","Postcode":"BT54 6BA","TelNo":"(028) 2076 2684","Lat":55.200249,"Long":-6.25901,"Easting":129092,"Northing":597831},
{"PracNo":369,"PartnershipNo":"PN0460","practiceName":"Dr. O'LOAN & PARTNERS","Address1":"PORTSTEWART MEDICAL CENTRE","Address2":"MILL ROAD","Address3":"PORTSTEWART","Postcode":"BT55 7SW","TelNo":"(028) 7083 2600","Lat":55.178641,"Long":-6.708095,"Easting":100375,"Northing":597268},
{"PracNo":382,"PartnershipNo":"PN0091","practiceName":"Dr. STONE & PARTNERS","Address1":"MEADOWBRIDGE SURGERY","Address2":"SLAUGHTERFORD ROAD","Address3":"WHITEHEAD, CARRICKFERGUS","Postcode":"BT38 9TG","TelNo":"(028) 9335 3454","Lat":54.762118,"Long":-5.724097,"Easting":160514,"Northing":547161},
{"PracNo":384,"PartnershipNo":"PN4265","practiceName":"Dr. MCILROY & PARTNERS","Address1":"BLACKARCH SURGERY, LARNE HEALTH CENTRE","Address2":"GLOUCESTER AVENUE","Address3":"LARNE","Postcode":"BT40 1PB","TelNo":"(028) 2826 1925","Lat":54.853406,"Long":-5.819508,"Easting":154933,"Northing":557642},
{"PracNo":385,"PartnershipNo":"PN0470","practiceName":"Dr. CROTHERS & PARTNERS","Address1":"OLD SCHOOL SURGERY","Address2":"54 STATION ROAD","Address3":"GREENISLAND","Postcode":"CARRICKFERGUS  BT38 8TP","TelNo":"(028) 9086 4455","Lat":54.694259,"Long":-5.86459,"Easting":151064,"Northing":540105},
{"PracNo":386,"PartnershipNo":"PN0352","practiceName":"Dr. GLOVER","Address1":"CLONEY","Address2":"GLENARM","Address3":"BALLYMENA CO ANTRIM","Postcode":"BT44 0AB","TelNo":"(028) 2884 1214","Lat":54.968973,"Long":-5.95684,"Easting":146850,"Northing":570982},
{"PracNo":387,"PartnershipNo":"PN0527","practiceName":"Dr. BUCKLEY & PARTNERS","Address1":"THE HEALTH CENTRE","Address2":"TAYLORS AVENUE","Address3":"CARRICKFERGUS","Postcode":"BT38 7HT","TelNo":"(028) 93315955","Lat":54.720072,"Long":-5.799447,"Easting":155415,"Northing":542746},
{"PracNo":388,"PartnershipNo":"PN0518","practiceName":"Dr. SHEPHERD & PARTNERS","Address1":"INVER SURGERY","Address2":"MOYLE MEDICAL CENTRE","Address3":"OLD GLENARM ROAD","Postcode":"LARNE  BT40 1XH","TelNo":"(028) 2826 1611","Lat":54.849791,"Long":-5.819451,"Easting":154914,"Northing":557240},
{"PracNo":389,"PartnershipNo":"PN0351","practiceName":"Dr. MCILROY & PARTNERS","Address1":"CORRAN SURGERY","Address2":"MOYLE MEDICAL CENTRE","Address3":"OLD GLENARM ROAD","Postcode":"LARNE  BT40 1XH","TelNo":"(028) 2826 1600","Lat":54.849791,"Long":-5.819451,"Easting":154914,"Northing":557240},
{"PracNo":390,"PartnershipNo":"PN0288","practiceName":"Dr. BOLTON & PARTNERS","Address1":"THE HEALTH CENTRE","Address2":"TAYLORS AVENUE","Address3":"CARRICKFERGUS","Postcode":"BT38 7HT","TelNo":"(028) 9331 5805","Lat":54.720072,"Long":-5.799447,"Easting":155415,"Northing":542746},
{"PracNo":391,"PartnershipNo":"PN0324","practiceName":"Dr. WILSON & PARTNERS","Address1":"VICTORIA SURGERY","Address2":"MOYLE MEDICAL CENTRE","Address3":"OLD GLENARM ROAD","Postcode":"LARNE  BT40 1XH","TelNo":"(028) 2826 1620","Lat":54.849791,"Long":-5.819451,"Easting":154914,"Northing":557240},
{"PracNo":393,"PartnershipNo":"PN4080","practiceName":"Dr. BLACK & PARTNER","Address1":"THE HEALTH CENTRE","Address2":"GLOUCESTER AVENUE","Address3":"LARNE","Postcode":"BT40 1PB","TelNo":"(028) 2826 1919","Lat":54.853406,"Long":-5.819508,"Easting":154933,"Northing":557642},
{"PracNo":394,"PartnershipNo":"PN4069","practiceName":"Dr. HOWIE & PARTNERS","Address1":"THE HEALTH CENTRE","Address2":"GLOUCESTER AVENUE","Address3":"LARNE","Postcode":"BT40 1PB","TelNo":"(028) 2826 1910","Lat":54.853406,"Long":-5.819508,"Easting":154933,"Northing":557642},
{"PracNo":395,"PartnershipNo":"PN4139","practiceName":"Dr. WILSON","Address1":"ROCKFIELD MEDICAL CENTRE","Address2":"BALLYMENA","Address3":"","Postcode":"BT43 6JD","TelNo":"028 25638800","Lat":54.875959,"Long":-6.279087,"Easting":125604,"Northing":561856},
{"PracNo":396,"PartnershipNo":"PN4140","practiceName":"Dr. VERCOE-ROGERS & PARTNER","Address1":"OLD BANK SURGERY","Address2":"97 MILL STREET","Address3":"BALLYMENA","Postcode":"BT43 5AF","TelNo":"028 25643111","Lat":54.864197,"Long":-6.277681,"Easting":125615,"Northing":560543},
{"PracNo":401,"PartnershipNo":"PN0959","practiceName":"Dr. WRAY & PARTNERS","Address1":"THE HEALTH CENTRE","Address2":"52 ORRITOR ROAD","Address3":"COOKSTOWN","Postcode":"BT80 8BN","TelNo":"(028) 8676 2995","Lat":54.648405,"Long":-6.759929,"Easting":93062,"Northing":538556},
{"PracNo":402,"PartnershipNo":"PN0880","practiceName":"Dr. WHITE & PARTNERS","Address1":"DRAPERSTOWN SURGERY","Address2":"6 TOBERMORE ROAD","Address3":"DRAPERSTOWN, MAGHERAFELT","Postcode":"BT45 7AG","TelNo":"(028) 7962 8201","Lat":54.794752,"Long":-6.780597,"Easting":92841,"Northing":554913},
{"PracNo":404,"PartnershipNo":"PN0396","practiceName":"Dr. DALZELL & PARTNERS","Address1":"67 URBAL ROAD","Address2":"COAGH","Address3":"COOKSTOWN","Postcode":"BT80 0DP","TelNo":"(028) 8673 7243","Lat":54.643901,"Long":-6.62023,"Easting":102034,"Northing":537453},
{"PracNo":405,"PartnershipNo":"PN0452","practiceName":"Dr. FLANIGAN & PARTNER","Address1":"LOY MEDICAL CENTRE","Address2":"8 LOY STREET","Address3":"COOKSTOWN","Postcode":"BT80 8PE","TelNo":"(028) 8676 3030","Lat":54.643321,"Long":-6.743345,"Easting":94093,"Northing":537919},
{"PracNo":406,"PartnershipNo":"PN0817","practiceName":"Dr. GLANCY & PARTNERS","Address1":"29 GARDEN STREET","Address2":"MAGHERAFELT","Address3":"CO LONDONDERRY","Postcode":"BT45 5DD","TelNo":"(028) 7963 1277","Lat":54.75669,"Long":-6.611421,"Easting":103427,"Northing":549953},
{"PracNo":407,"PartnershipNo":"PN0901","practiceName":"Dr. O'KANE & PARTNERS","Address1":"OAKS FAMILY PRACTICE CENTRE","Address2":"48 ORRITOR ROAD","Address3":"COOKSTOWN","Postcode":"BT80 8BH","TelNo":"(028) 8676 2249","Lat":54.648117,"Long":-6.755398,"Easting":93352,"Northing":538505},
{"PracNo":409,"PartnershipNo":"PN0972","practiceName":"Dr. MCCOY & PARTNERS","Address1":"THE HEALTH CENTRE","Address2":"50 HILLHEAD","Address3":"STEWARTSTOWN, DUNGANNON","Postcode":"BT71 5HY","TelNo":"(028) 8773 8648","Lat":54.574489,"Long":-6.6791,"Easting":97724,"Northing":529990},
{"PracNo":410,"PartnershipNo":"PN0875","practiceName":"Dr. COLLINS & PARTNERS","Address1":"MAGHERA MEDICAL CENTRE","Address2":"25 CHURCH STREET","Address3":"MAGHERA","Postcode":"BT46 5EA","TelNo":"(028) 7964 2579","Lat":54.842894,"Long":-6.667866,"Easting":100438,"Northing":559776},
{"PracNo":412,"PartnershipNo":"PN0184","practiceName":"Dr. NOBLE & PARTNERS","Address1":"THE DIAMOND MEDICAL CENTRE","Address2":"MARKET SQUARE","Address3":"MAGHERAFELT","Postcode":"BT45 6ED","TelNo":"(028) 79361001","Lat":54.754889,"Long":-6.606697,"Easting":103718,"Northing":549733},
{"PracNo":413,"PartnershipNo":"PN4144","practiceName":"Dr. GRAHAM","Address1":"LOY BUILDINGS","Address2":"18 LOY STREET","Address3":"COOKSTOWN","Postcode":"BT80 8PE","TelNo":"(028) 8676 2207","Lat":54.643321,"Long":-6.743345,"Easting":94093,"Northing":537919},
{"PracNo":417,"PartnershipNo":"PN4036","practiceName":"Dr. HINDS & PARTNERS","Address1":"BELLAGHY HEALTH CENTRE","Address2":"WILLIAM STREET","Address3":"BELLAGHY, MAGHERAFELT","Postcode":"BT45 8HZ","TelNo":"(028) 79468294","Lat":54.810628,"Long":-6.516713,"Easting":109903,"Northing":555552},
{"PracNo":418,"PartnershipNo":"PN4261","practiceName":"Dr. STEVENSON","Address1":"THE DIAMOND MEDICAL CENTRE","Address2":"MARKET SQUARE","Address3":"MAGHERAFELT","Postcode":"BT45 6ED","TelNo":"(028) 7936 1000","Lat":54.754889,"Long":-6.606697,"Easting":103718,"Northing":549733},
{"PracNo":419,"PartnershipNo":"PN4046","practiceName":"Dr. CHARLTON","Address1":"FAIR HILL HEALTH CENTRE","Address2":"MAGHERAFELT","Address3":"CO LONDONDERRY","Postcode":"BT45 6BL","TelNo":"(028) 7930 2904","Lat":54.753932,"Long":-6.604374,"Easting":103860,"Northing":549617},
{"PracNo":420,"PartnershipNo":"PN4057","practiceName":"Dr. KURIACOSE & PARTNERS","Address1":"MONEYMORE  MEDICAL PRACTICE","Address2":"3 FAIRHILL","Address3":"MONEYMORE","Postcode":"BT45 7LJ","TelNo":"(028) 8674 8350","Lat":54.809306,"Long":-6.777519,"Easting":93149,"Northing":556517},
{"PracNo":431,"PartnershipNo":"PN0414","practiceName":"Dr. MEENAN & PARTNERS","Address1":"WHITEHOUSE MEDICAL GROUP PRACTICE","Address2":"UNIT 29A, FIRST FLOOR, ABBEYCENTRE","Address3":"LONGWOOD ROAD, NEWTOWNABBEY","Postcode":"BT37 9UH","TelNo":"(028) 90360525","Lat":54.654949,"Long":-5.917833,"Easting":147391,"Northing":535925},
{"PracNo":433,"PartnershipNo":"PN0111","practiceName":"Dr. LOGAN & PARTNERS","Address1":"THE HEALTH CENTRE","Address2":"GEORGE AVENUE","Address3":"BALLYCLARE","Postcode":"BT39 9HL","TelNo":"(028) 9332 2575","Lat":54.753369,"Long":-6.006313,"Easting":142312,"Northing":547190},
{"PracNo":434,"PartnershipNo":"PN4000","practiceName":"Dr. HENDRON & PARTNERS","Address1":"ABBOTS CROSS MEDICAL PRACTICE","Address2":"92 DOAGH ROAD","Address3":"NEWTOWNABBEY","Postcode":"BT37 9QW","TelNo":"(028) 9036 4048","Lat":54.6686,"Long":-5.913987,"Easting":147723,"Northing":537429},
{"PracNo":438,"PartnershipNo":"PN0226","practiceName":"Dr. BEIRNE & PARTNERS","Address1":"TRAMWAYS MEDICAL CENTRE","Address2":"FARMLEY ROAD","Address3":"NEWTOWNABBEY","Postcode":"BT36 7XX","TelNo":"(028) 9034 2131","Lat":54.664336,"Long":-5.975435,"Easting":143736,"Northing":537177},
{"PracNo":440,"PartnershipNo":"PN0227","practiceName":"Dr. SMALL & PARTNERS","Address1":"NOTTING HILL MEDICAL PRACTICE","Address2":"DOAGH ROAD","Address3":"NEWTOWNABBEY","Postcode":"BT37 9QN","TelNo":"(028) 9080 8220","Lat":54.669689,"Long":-5.913402,"Easting":147768,"Northing":537547},
{"PracNo":451,"PartnershipNo":"PS6018","practiceName":"Dr. CLARKE & PARTNERS","Address1":"BROWNLOW HEALTH CENTRE","Address2":"1 LEGAHORY CENTRE","Address3":"LEGAHORY","Postcode":"CRAIGAVON  BT65 5BE","TelNo":"(028) 3834 1431","Lat":54.447833,"Long":-6.371161,"Easting":116734,"Northing":514627},
{"PracNo":453,"PartnershipNo":"PS6073","practiceName":"Dr. MCCLOSKEY & PARTNERS","Address1":"BANBRIDGE GROUP SURGERY","Address2":"1 OLD HOSPITAL ROAD","Address3":"BANBRIDGE","Postcode":"BT32 3GN","TelNo":"(028) 4062 3303","Lat":54.352095,"Long":-6.275219,"Easting":122303,"Northing":503602},
{"PracNo":454,"PartnershipNo":"PS0497","practiceName":"Dr. HUEY & PARTNERS","Address1":"THE SURGERY","Address2":"11 MAIN STREET","Address3":"LOUGHBRICKLAND","Postcode":"BANBRIDGE  BT32 3NQ","TelNo":"(028) 4066 2692","Lat":54.314883,"Long":-6.303592,"Easting":120207,"Northing":499577},
{"PracNo":455,"PartnershipNo":"PS0538","practiceName":"Dr. LOGAN & PARTNERS","Address1":"THE HEALTH CENTRE","Address2":"CASTLEVIEW","Address3":"GILFORD, CRAIGAVON","Postcode":"BT63 6JS","TelNo":"(028) 3883 1225","Lat":54.373253,"Long":-6.357717,"Easting":117091,"Northing":506282},
{"PracNo":457,"PartnershipNo":"PS0593","practiceName":"Dr. MCDONALD & PARTNERS","Address1":"WYNNE HILL SURGERY","Address2":"51 HILL STREET","Address3":"LURGAN, CRAIGAVON","Postcode":"BT66 6BW","TelNo":"(028) 3832 6333","Lat":54.461191,"Long":-6.340759,"Easting":118795,"Northing":515990},
{"PracNo":458,"PartnershipNo":"PS6010","practiceName":"Dr. TROUGHTON & PARTNER","Address1":"THE HEALTH CENTRE","Address2":"TAVANAGH AVENUE","Address3":"PORTADOWN","Postcode":"BT62 3BU","TelNo":"(028) 3835 1228","Lat":54.418713,"Long":-6.440632,"Easting":112029,"Northing":511672},
{"PracNo":460,"PartnershipNo":"PS0557","practiceName":"Dr. LENNON & PARTNER","Address1":"60A MAIN STREET","Address2":"DONAGHCLONEY","Address3":"CRAIGAVON","Postcode":"BT66 7LR","TelNo":"(028) 3888 1225","Lat":54.419129,"Long":-6.259749,"Easting":123759,"Northing":510993},
{"PracNo":461,"PartnershipNo":"PS6123","practiceName":"Dr. CLARKE & PARTNER","Address1":"THE HEALTH CENTRE","Address2":"TAVANAGH AVENUE","Address3":"PORTADOWN, CRAIGAVON","Postcode":"BT62 3BU","TelNo":"(028) 3835 9909","Lat":54.418713,"Long":-6.440632,"Easting":112029,"Northing":511672},
{"PracNo":462,"PartnershipNo":"PS0550","practiceName":"Dr. EAKIN & PARTNERS","Address1":"60 HIGH STREET","Address2":"LURGAN","Address3":"CRAIGAVON","Postcode":"BT66 8BA","TelNo":"(028) 3832 4591","Lat":54.459615,"Long":-6.328168,"Easting":119600,"Northing":515765},
{"PracNo":463,"PartnershipNo":"PS0410","practiceName":"Dr. DOYLE & PARTNER","Address1":"THE SURGERY","Address2":"7 MOORES LANE","Address3":"LURGAN, CRAIGAVON","Postcode":"BT66 8DW","TelNo":"(028) 3832 7626","Lat":54.460444,"Long":-6.33184,"Easting":119368,"Northing":515871},
{"PracNo":464,"PartnershipNo":"PS0576","practiceName":"Dr. MCANALLEN & PARTNERS","Address1":"THE HEALTH CENTRE","Address2":"TAVANAGH AVENUE","Address3":"PORTADOWN, CRAIGAVON","Postcode":"BT62 3BU","TelNo":"(028) 3835 1347","Lat":54.418713,"Long":-6.440632,"Easting":112029,"Northing":511672},
{"PracNo":465,"PartnershipNo":"PS0533","practiceName":"Dr. WILSON & PARTNERS","Address1":"28 CHURCH WALK","Address2":"LURGAN","Address3":"CRAIGAVON","Postcode":"BT67 9AA","TelNo":"(028) 3832 7834","Lat":54.464744,"Long":-6.332296,"Easting":119368,"Northing":516351},
{"PracNo":466,"PartnershipNo":"PS0814","practiceName":"Dr. HUNTER & PARTNER","Address1":"THE HUNTER FAMILY PRACTICE","Address2":"BROWNLOW HEALTH CENTRE","Address3":"1 LEGAHORY CENTRE, LEGAHORY","Postcode":"CRAIGAVON  BT65 5BE","TelNo":"(028) 3834 1431","Lat":54.447833,"Long":-6.371161,"Easting":116734,"Northing":514627},
{"PracNo":467,"PartnershipNo":"PS0512","practiceName":"Dr. SOUTHWELL & PARTNERS","Address1":"87/89 WILLIAM STREET","Address2":"LURGAN","Address3":"CRAIGAVON","Postcode":"BT66 6JB","TelNo":"(028) 3832 2509","Lat":54.465548,"Long":-6.337641,"Easting":119027,"Northing":516462},
{"PracNo":469,"PartnershipNo":"PS0696","practiceName":"Dr. MALLON & PARTNERS","Address1":"BANBRIDGE GROUP SURGERY","Address2":"1 OLD HOSPITAL ROAD","Address3":"BANBRIDGE","Postcode":"BT32 3GN","TelNo":"(028) 4062 3303","Lat":54.352095,"Long":-6.275219,"Easting":122303,"Northing":503602},
{"PracNo":470,"PartnershipNo":"PS0526","practiceName":"Dr. MORTON & PARTNERS","Address1":"THE HEALTH CENTRE","Address2":"TAVANAGH AVENUE","Address3":"PORTADOWN, CRAIGAVON","Postcode":"BT62 3BU","TelNo":"(028) 3835 1393","Lat":54.418713,"Long":-6.440632,"Easting":112029,"Northing":511672},
{"PracNo":471,"PartnershipNo":"PS0726","practiceName":"Dr. MCNIFF & PARTNERS","Address1":"BANBRIDGE GROUP SURGERY","Address2":"1 OLD HOSPITAL ROAD","Address3":"BANBRIDGE","Postcode":"BT32 3GN","TelNo":"(028) 4062 3303","Lat":54.352095,"Long":-6.275219,"Easting":122303,"Northing":503602},
{"PracNo":472,"PartnershipNo":"PS6063","practiceName":"Dr. MULLAN & PARTNER","Address1":"SCARVA STREET SURGERY","Address2":"60 SCARVA STREET","Address3":"LOUGHBRICKLAND","Postcode":"BANBRIDGE  BT32 3NH","TelNo":"(028) 4062 2278","Lat":54.315947,"Long":-6.305669,"Easting":120080,"Northing":499703},
{"PracNo":473,"PartnershipNo":"PS0643","practiceName":"Dr. DAVIS & PARTNERS","Address1":"52 MAIN STREET","Address2":"MOIRA","Address3":"CRAIGAVON","Postcode":"BT67 0LQ","TelNo":"(028) 9261 1278","Lat":54.479743,"Long":-6.227728,"Easting":126240,"Northing":517606},
{"PracNo":474,"PartnershipNo":"PS0639","practiceName":"Dr. ATCHISON & PARTNERS","Address1":"50 GALLOWS STREET","Address2":"DROMORE","Address3":"CO DOWN","Postcode":"BT25 1BD","TelNo":"(028) 9269 2758","Lat":54.416477,"Long":-6.147269,"Easting":131034,"Northing":510262},
{"PracNo":475,"PartnershipNo":"PS0442","practiceName":"Dr. BELL & PARTNER","Address1":"8a LURGAN ROAD","Address2":"AGHALEE","Address3":"CRAIGAVON","Postcode":"BT67 0DD","TelNo":"8444773852","Lat":54.5197,"Long":-6.269114,"Easting":123831,"Northing":522210},
{"PracNo":476,"PartnershipNo":"PS0721","practiceName":"Dr. CHESTNUTT","Address1":"THE SURGERY","Address2":"32 STATION ROAD","Address3":"BALLYWARD, CASTLEWELLAN","Postcode":"BT31 9TU","TelNo":"(028) 4065 0217","Lat":54.279607,"Long":-6.040443,"Easting":137087,"Northing":494641},
{"PracNo":477,"PartnershipNo":"PS0599","practiceName":"Dr. MATHEWS & PARTNERS","Address1":"THE HEALTH CENTRE","Address2":"TAVANAGH AVENUE","Address3":"PORTADOWN, CRAIGAVON","Postcode":"BT62 3BU","TelNo":"(028) 38351145","Lat":54.418713,"Long":-6.440632,"Easting":112029,"Northing":511672},
{"PracNo":478,"PartnershipNo":"PS6097","practiceName":"Dr. CONNERY & PARTNERS","Address1":"THE HEALTH CENTRE","Address2":"TAVANAGH AVENUE","Address3":"PORTADOWN, CRAIGAVON","Postcode":"BT62 3BU","TelNo":"(028) 38351497","Lat":54.418713,"Long":-6.440632,"Easting":112029,"Northing":511672},
{"PracNo":479,"PartnershipNo":"PS6028","practiceName":"Dr. BURNETT & PARTNER","Address1":"THE HEALTH CENTRE","Address2":"TAVANAGH AVENUE","Address3":"PORTADOWN, CRAIGAVON","Postcode":"BT62 3BU","TelNo":"(028) 3835 0269","Lat":54.418713,"Long":-6.440632,"Easting":112029,"Northing":511672},
{"PracNo":481,"PartnershipNo":"PS6116","practiceName":"Dr. MACDONALD","Address1":"THE HEALTH CENTRE","Address2":"TAVANAGH AVENUE","Address3":"PORTADOWN, CRAIGAVON","Postcode":"BT62 3BU","TelNo":"(028) 3835 9922","Lat":54.418713,"Long":-6.440632,"Easting":112029,"Northing":511672},
{"PracNo":482,"PartnershipNo":"PS6025","practiceName":"Dr. GORMLEY & PARTNER","Address1":"THE OLD SCHOOL HOUSE MEDICAL CENTRE","Address2":"1 ANTRIM ROAD","Address3":"LURGAN","Postcode":"CRAIGAVON  BT67 9BW","TelNo":"(028) 38311900","Lat":54.4699,"Long":-6.325547,"Easting":119840,"Northing":516897},
{"PracNo":491,"PartnershipNo":"PS0500","practiceName":"Dr. BECKETT & PARTNERS","Address1":"ABBEY COURT SURGERY","Address2":"DOBBIN LANE","Address3":"ARMAGH","Postcode":"BT61 7QG","TelNo":"(028) 3752 1450","Lat":54.344954,"Long":-6.653682,"Easting":97675,"Northing":504367},
{"PracNo":493,"PartnershipNo":"PS0960","practiceName":"Dr. CHURCH & PARTNERS","Address1":"NORTHLAND SURGERY","Address2":"79 CUNNINGHAMS LANE","Address3":"DUNGANNON","Postcode":"BT71 6BX","TelNo":"(028) 8772 2137","Lat":54.497125,"Long":-6.75381,"Easting":92317,"Northing":521715},
{"PracNo":494,"PartnershipNo":"PS0191","practiceName":"Dr. BOYD & PARTNER","Address1":"THE VALLEY MEDICAL PRACTICE","Address2":"20 COONEEN ROAD","Address3":"FIVEMILETOWN","Postcode":"BT75 0ND","TelNo":"(028) 8952 1326","Lat":54.376008,"Long":-7.317414,"Easting":54841,"Northing":510872},
{"PracNo":495,"PartnershipNo":"PS6035","practiceName":"Dr. SABHERWAL & PARTNERS","Address1":"CAMPBELL SURGERY","Address2":"10 QUARRY LANE","Address3":"DUNGANNON","Postcode":"BT70 1HX","TelNo":"(028) 8772 2751","Lat":54.510234,"Long":-6.776283,"Easting":90962,"Northing":523271},
{"PracNo":497,"PartnershipNo":"PS0233","practiceName":"Dr. MCCOLLUM & PARTNERS","Address1":"WILLOWBANK","Address2":"KEADY","Address3":"CO ARMAGH","Postcode":"BT60 3RL","TelNo":"(028) 3753 1248","Lat":54.252473,"Long":-6.702619,"Easting":93811,"Northing":494299},
{"PracNo":498,"PartnershipNo":"PS0735","practiceName":"Dr. MCSHANE & PARTNER","Address1":"MCSHANE AND CAMPBELL PRACTICE","Address2":"MOY HEALTH CENTRE, CHARLEMONT STREET","Address3":"MOY","Postcode":"BT71 7SL","TelNo":"8444773838","Lat":54.445862,"Long":-6.690154,"Easting":96055,"Northing":515740},
{"PracNo":499,"PartnershipNo":"PS0950","practiceName":"Dr. NUGENT & PARTNER","Address1":"ERRIGAL MEDICAL CENTRE","Address2":"OLD DUNGANNON ROAD","Address3":"BALLYGAWLEY,DUNGANNON","Postcode":"BT70 2EY","TelNo":"(028) 8556 8212","Lat":54.464564,"Long":-7.018329,"Easting":74947,"Northing":519287},
{"PracNo":500,"PartnershipNo":"PS6104","practiceName":"Dr. HERRON & PARTNER","Address1":"22 BARRACK STREET","Address2":"COALISLAND","Address3":"DUNGANNON","Postcode":"BT71 4LS","TelNo":"(028) 87740049","Lat":54.541014,"Long":-6.704521,"Easting":95833,"Northing":526379},
{"PracNo":501,"PartnershipNo":"PS6049","practiceName":"Dr. MCCONVILLE","Address1":"MOY MEDICAL PRACTICE","Address2":"CHARLEMONT STREET","Address3":"MOY","Postcode":"BT71 7SL","TelNo":"(028) 8778 4551","Lat":54.445862,"Long":-6.690154,"Easting":96055,"Northing":515740},
{"PracNo":502,"PartnershipNo":"PS6007","practiceName":"Dr. CARLILE & PARTNERS","Address1":"15 DARTAN REE","Address2":"TYNAN","Address3":"ARMAGH","Postcode":"BT60 4QT","TelNo":"(028) 37568214","Lat":54.330292,"Long":-6.823265,"Easting":86551,"Northing":503479},
{"PracNo":503,"PartnershipNo":"PS0498","practiceName":"Dr. WRIGHT & PARTNERS","Address1":"THE HEALTH CENTRE","Address2":"NEWRY STREET","Address3":"MARKETHILL, ARMAGH","Postcode":"BT60 1TA","TelNo":"(028) 3755 1306","Lat":54.296144,"Long":-6.519281,"Easting":106055,"Northing":498372},
{"PracNo":504,"PartnershipNo":"PS0440","practiceName":"Dr. MILLAR & PARTNER","Address1":"MOY MEDICAL CENTRE","Address2":"CHARLEMONT STREET","Address3":"MOY, DUNGANNON","Postcode":"BT71 7SL","TelNo":"8444773838","Lat":54.445862,"Long":-6.690154,"Easting":96055,"Northing":515740},
{"PracNo":505,"PartnershipNo":"PS0115","practiceName":"Dr. GARLAND & PARTNERS","Address1":"PARKVIEW SURGERY","Address2":"SOUTH TYRONE HOSPITAL SITE, CARLAND ROAD,","Address3":"DUNGANNON","Postcode":"BT71 4AU","TelNo":"(028) 8772 2019","Lat":54.510677,"Long":-6.769883,"Easting":91380,"Northing":523292},
{"PracNo":506,"PartnershipNo":"PS0931","practiceName":"Dr. MCCORD & PARTNER","Address1":"2 SYDNEY LANE","Address2":"AUGHNACLOY","Address3":"CO TYRONE","Postcode":"BT69 6AF","TelNo":"(028) 8555 7234","Lat":54.414163,"Long":-6.972899,"Easting":77491,"Northing":513477},
{"PracNo":507,"PartnershipNo":"PS6041","practiceName":"Dr. WATTERS","Address1":"THE HEALTH CENTRE","Address2":"24A TASSAGH ROAD","Address3":"KEADY","Postcode":"BT60 3TU","TelNo":"(028) 3753 1215","Lat":54.251162,"Long":-6.700308,"Easting":93951,"Northing":494143},
{"PracNo":508,"PartnershipNo":"PS6152","practiceName":"Dr. PICKERING & PARTNER","Address1":"TANDRAGEE MEDICAL CENTRE","Address2":"3 MONTAGUE STREET","Address3":"TANDRAGEE, CRAIGAVON","Postcode":"BT62 2AN","TelNo":"(028) 3884 0223","Lat":54.355137,"Long":-6.415412,"Easting":113220,"Northing":504502},
{"PracNo":509,"PartnershipNo":"PS0509","practiceName":"Dr. MCLOUGHLIN & PARTNER","Address1":"57 THOMAS STREET","Address2":"DUNGANNON","Address3":"CO TYRONE","Postcode":"BT70 1HW","TelNo":"(028) 8772 2621","Lat":54.506401,"Long":-6.770647,"Easting":91298,"Northing":522820},
{"PracNo":512,"PartnershipNo":"PS6102","practiceName":"Dr. O'DONNELL & PARTNER","Address1":"THE MEDICAL CENTRE","Address2":"15 BARRACK STREET","Address3":"COALISLAND, DUNGANNON","Postcode":"BT71 4LS","TelNo":"(028) 8774 7447","Lat":54.541014,"Long":-6.704521,"Easting":95833,"Northing":526379},
{"PracNo":514,"PartnershipNo":"PS0079","practiceName":"Dr. MCELNAY & PARTNERS","Address1":"THE ARCHWAY SURGERY","Address2":"DOBBIN LANE","Address3":"ARMAGH","Postcode":"BT61 7QG","TelNo":"(028) 37521400","Lat":54.344954,"Long":-6.653682,"Easting":97675,"Northing":504367},
{"PracNo":515,"PartnershipNo":"PS0528","practiceName":"Dr. LEETCH & PARTNER","Address1":"THE HEALTH CENTRE","Address2":"6 GREENVIEW, MAYNOOTH ROAD","Address3":"RICHHILL,  ARMAGH","Postcode":"BT61 9PD","TelNo":"(028) 3887 1701","Lat":54.370596,"Long":-6.553529,"Easting":104364,"Northing":506792},
{"PracNo":516,"PartnershipNo":"PS0663","practiceName":"Dr. REILLY & PARTNERS","Address1":"THE FRIARY SURGERY","Address2":"DOBBIN LANE","Address3":"ARMAGH","Postcode":"BT61 7QG","TelNo":"(028) 37521500","Lat":54.344954,"Long":-6.653682,"Easting":97675,"Northing":504367},
{"PracNo":517,"PartnershipNo":"PS0902","practiceName":"Dr. MURTY","Address1":"39 THOMAS STREET","Address2":"DUNGANNON","Address3":"CO TYRONE","Postcode":"BT70 1HN","TelNo":"(028) 8772 7235","Lat":54.505014,"Long":-6.769758,"Easting":91345,"Northing":522662},
{"PracNo":519,"PartnershipNo":"PS0987","practiceName":"Dr. MCKENNA & PARTNER","Address1":"THE SURGERY","Address2":"10A LINESIDE","Address3":"COALISLAND, DUNGANNON","Postcode":"BT71 4LP","TelNo":"(028) 8774 8555","Lat":54.539648,"Long":-6.700831,"Easting":96061,"Northing":526211},
{"PracNo":526,"PartnershipNo":"PS0742","practiceName":"Dr. HENRY & PARTNERS","Address1":"CORNMARKET SURGERY","Address2":"NEWRY HEALTH VILLAGE","Address3":"MONAGHAN STREET","Postcode":"NEWRY  BT35 6BW","TelNo":"(028) 3026 1221","Lat":54.175468,"Long":-6.344066,"Easting":116621,"Northing":484240},
{"PracNo":528,"PartnershipNo":"PS0521","practiceName":"Dr. GRIBBEN","Address1":"THE HEALTH CENTRE","Address2":"MCCORMICK PLACE","Address3":"CROSSMAGLEN, NEWRY","Postcode":"BT35 9HD","TelNo":"(028) 3086 1226","Lat":54.077926,"Long":-6.607017,"Easting":98766,"Northing":474486},
{"PracNo":529,"PartnershipNo":"PS0716","practiceName":"Dr. MULVANEY & PARTNER","Address1":"CORNMARKET SURGERY","Address2":"NEWRY HEALTH VILLAGE","Address3":"MONAGHAN STREET","Postcode":"NEWRY  BT35 6BW","TelNo":"(028) 3026 5838","Lat":54.175468,"Long":-6.344066,"Easting":116621,"Northing":484240},
{"PracNo":530,"PartnershipNo":"PS0311","practiceName":"Dr. O'SHAUGHNESSY","Address1":"THE HEALTH CENTRE","Address2":"JOHN STREET","Address3":"RATHFRILAND, NEWRY","Postcode":"BT34 5QH","TelNo":"(028) 4063 2301","Lat":54.235408,"Long":-6.162519,"Easting":128855,"Northing":490190},
{"PracNo":531,"PartnershipNo":"PS0511","practiceName":"Dr. ALLEN & PARTNERS","Address1":"14 KILKEEL ROAD","Address2":"ANNALONG","Address3":"NEWRY","Postcode":"BT34 4TH","TelNo":"(028) 4376 8218","Lat":54.105984,"Long":-5.902768,"Easting":144976,"Northing":474832},
{"PracNo":532,"PartnershipNo":"PS6015","practiceName":"Dr. CHAMBERS & PARTNER","Address1":"KILKEEL PRIMARY CARE CENTRE","Address2":"GREENCASTLE STREET","Address3":"KILKEEL, NEWRY","Postcode":"BT34 4BH","TelNo":"(028) 4176 0950","Lat":54.061213,"Long":-6.010416,"Easting":137661,"Northing":470249},
{"PracNo":533,"PartnershipNo":"PS6053","practiceName":"Dr. VETTIANKAL","Address1":"6 DRUMINTEE ROAD","Address2":"MEIGH","Address3":"NEWRY","Postcode":"BT35 8SJ","TelNo":"(028) 3084 8510","Lat":54.117734,"Long":-6.395314,"Easting":112879,"Northing":478029},
{"PracNo":534,"PartnershipNo":"PS0017","practiceName":"Dr. FEARON & PARTNERS","Address1":"CLANRYE SURGERY","Address2":"NEWRY HEALTH VILLAGE","Address3":"MONAGHAN STREET","Postcode":"NEWRY  BT35 6BW","TelNo":"(028) 3026 7639","Lat":54.175468,"Long":-6.344066,"Easting":116621,"Northing":484240},
{"PracNo":535,"PartnershipNo":"PS0132","practiceName":"Dr. MCCANN & PARTNER","Address1":"THE HEALTH CENTRE","Address2":"JOHN STREET","Address3":"RATHFRILAND, NEWRY","Postcode":"BT34 5QH","TelNo":"(028) 4063 2300","Lat":54.235408,"Long":-6.162519,"Easting":128855,"Northing":490190},
{"PracNo":536,"PartnershipNo":"PS0621","practiceName":"Dr. GAW & PARTNERS","Address1":"SUMMER HILL SURGERY","Address2":"50 GREAT GEORGES STREET","Address3":"WARRENPOINT, NEWRY","Postcode":"BT34 3HS","TelNo":"(028) 4175 4455","Lat":54.100545,"Long":-6.249422,"Easting":122292,"Northing":475535},
{"PracNo":537,"PartnershipNo":"PS0143","practiceName":"Dr. MCEVOY & PARTNERS","Address1":"MCVERRY/MCEVOY MEDICAL CENTRE","Address2":"NEWRY HEALTH VILLAGE","Address3":"MONAGHAN STREET, NEWRY","Postcode":"BT35 6BW","TelNo":"(028) 30265853","Lat":54.175468,"Long":-6.344066,"Easting":116621,"Northing":484240},
{"PracNo":539,"PartnershipNo":"PS0674","practiceName":"Dr. MCDOWELL & PARTNERS","Address1":"CLANRYE SURGERY","Address2":"NEWRY HEALTH VILLAGE","Address3":"MONAGHAN STREET","Postcode":"NEWRY  BT35 6BW","TelNo":"(028) 3026 0949","Lat":54.175468,"Long":-6.344066,"Easting":116621,"Northing":484240},
{"PracNo":540,"PartnershipNo":"PS0606","practiceName":"Dr. O'NEILL & PARTNERS","Address1":"MEADOWLANDS SURGERY","Address2":"MONAGHAN STREET","Address3":"NEWRY","Postcode":"BT35 6BW","TelNo":"(028) 3026 7534","Lat":54.175468,"Long":-6.344066,"Easting":116621,"Northing":484240},
{"PracNo":541,"PartnershipNo":"PS6089","practiceName":"Dr. SLOAN & PARTNER","Address1":"RATHFRILAND SURGERY","Address2":"9 CASTLEWELLAN ROAD","Address3":"RATHFRILAND, NEWRY","Postcode":"BT34 5LY","TelNo":"(028) 4063 0034","Lat":54.233849,"Long":-6.151911,"Easting":129536,"Northing":489976},
{"PracNo":542,"PartnershipNo":"PS0553","practiceName":"Dr. O'LEARY & PARTNERS","Address1":"53 DUNDALK STREET","Address2":"NEWTOWNHAMILTON","Address3":"NEWRY","Postcode":"BT35 0PB","TelNo":"(028) 3087 8204","Lat":54.188359,"Long":-6.575189,"Easting":101642,"Northing":486626},
{"PracNo":543,"PartnershipNo":"PS0728","practiceName":"Dr. MURPHY & PARTNER","Address1":"THE HEALTH CENTRE","Address2":"SUMMERHILL","Address3":"WARRENPOINT, NEWRY","Postcode":"BT34 3JD","TelNo":"(028) 4175 4100","Lat":54.101585,"Long":-6.249992,"Easting":122262,"Northing":475653},
{"PracNo":544,"PartnershipNo":"PS0541","practiceName":"Dr. REYNOLDS & PARTNERS","Address1":"CORNMARKET SURGERY","Address2":"NEWRY HEALTH VILLAGE","Address3":"MONAGHAN STREET","Postcode":"NEWRY  BT35 6BW","TelNo":"(028) 3026 1236","Lat":54.175468,"Long":-6.344066,"Easting":116621,"Northing":484240},
{"PracNo":545,"PartnershipNo":"PS6001","practiceName":"Dr. MAGUIRE & PARTNER","Address1":"MAPHONER SURGERY","Address2":"2A FORKHILL ROAD","Address3":"MULLAGHBAWN, NEWRY","Postcode":"BT35 9RA","TelNo":"(028) 3088 9307","Lat":54.104935,"Long":-6.481941,"Easting":107132,"Northing":476962},
{"PracNo":546,"PartnershipNo":"PS0149","practiceName":"Dr. MCKNIGHT","Address1":"CLANRYE SURGERY","Address2":"NEWRY HEALTH VILLAGE","Address3":"MONAGHAN STREET","Postcode":"NEWRY  BT35 6BW","TelNo":"(028) 3026 0949","Lat":54.175468,"Long":-6.344066,"Easting":116621,"Northing":484240},
{"PracNo":547,"PartnershipNo":"PS0740","practiceName":"Dr. SHANNON & PARTNER","Address1":"THE HEALTH CENTRE","Address2":"JOHN STREET","Address3":"RATHFRILAND, NEWRY","Postcode":"BT34 5QH","TelNo":"(028) 4063 2302","Lat":54.235408,"Long":-6.162519,"Easting":128855,"Northing":490190},
{"PracNo":549,"PartnershipNo":"PS0537","practiceName":"Dr. MULHOLLAND & PARTNERS","Address1":"THE HEALTH CENTRE","Address2":"2A MARKETHILL ROAD","Address3":"NEWTOWNHAMILTON, NEWRY","Postcode":"BT35 0BE","TelNo":"(028) 3087 8223","Lat":54.202483,"Long":-6.567686,"Easting":102233,"Northing":488164},
{"PracNo":551,"PartnershipNo":"PS0317","practiceName":"Dr. FEE","Address1":"RATHKEELAND HOUSE","Address2":"1 BLANEY ROAD","Address3":"CROSSMAGLEN, NEWRY","Postcode":"BT35 9JJ","TelNo":"(028) 3086 8189","Lat":54.078139,"Long":-6.612753,"Easting":98392,"Northing":474535},
{"PracNo":552,"PartnershipNo":"PS6062","practiceName":"Dr. SWEENEY & PARTNER","Address1":"THE HEALTH CENTRE","Address2":"MCCORMICK PLACE","Address3":"CROSSMAGLEN, NEWRY","Postcode":"BT35 9HD","TelNo":"(028) 3086 1226","Lat":54.077926,"Long":-6.607017,"Easting":98766,"Northing":474486},
{"PracNo":553,"PartnershipNo":"PS6030","practiceName":"Dr. BONNER & PARTNER","Address1":"MARINA SURGERY","Address2":"15 HAVELOCK PLACE","Address3":"WARRENPOINT, NEWRY","Postcode":"BT34 3NE","TelNo":"(028) 4175 3933","Lat":54.09897,"Long":-6.254291,"Easting":121963,"Northing":475379},
{"PracNo":554,"PartnershipNo":"PS6042","practiceName":"Dr. POOTS & PARTNERS","Address1":"MOURNE FAMILY SURGERY","Address2":"MOURNE HOSPITAL, NEWRY STREET","Address3":"KILKEEL,NEWRY","Postcode":"BT34 4DN","TelNo":"(028) 4176 5422","Lat":54.063017,"Long":-6.009085,"Easting":137759,"Northing":470444},
{"PracNo":555,"PartnershipNo":"PS6108","practiceName":"Dr. MERCER & PARTNER","Address1":"KILKEEL PRIMARY CARE CENTRE","Address2":"GREENCASTLE STREET","Address3":"KILKEEL, NEWRY","Postcode":"BT34 4BH","TelNo":"028 41760990","Lat":54.061213,"Long":-6.010416,"Easting":137661,"Northing":470249},
{"PracNo":556,"PartnershipNo":"PS6109","practiceName":"Dr. DILLON & PARTNER","Address1":"SHANLIEVE SURGERY","Address2":"KILKEEL PRIMARY CARE CENTRE, GREENCASTLE STREET","Address3":"KILKEEL, NEWRY","Postcode":"BT34 4BH","TelNo":"(028) 41760980","Lat":54.061213,"Long":-6.010416,"Easting":137661,"Northing":470249},
{"PracNo":561,"PartnershipNo":"PW0771","practiceName":"Dr. LEARY","Address1":"THE HEALTH CENTRE","Address2":"DRUMHAW","Address3":"LISNASKEA, ENNISKILLEN","Postcode":"BT92 0FP","TelNo":"(028) 6772 2913","Lat":54.258591,"Long":-7.450317,"Easting":45209,"Northing":498487},
{"PracNo":562,"PartnershipNo":"PW0754","practiceName":"Dr. ARMSTRONG & PARTNERS","Address1":"THE HEALTH CENTRE","Address2":"ERNE ROAD","Address3":"ENNISKILLEN","Postcode":"BT74 6NN","TelNo":"(028) 6632 7190","Lat":54.348367,"Long":-7.634184,"Easting":34048,"Northing":509403},
{"PracNo":563,"PartnershipNo":"PW8031","practiceName":"Dr. MULLIGAN & PARTNERS","Address1":"DEVENISH PRACTICE, THE HEALTH CENTRE","Address2":"ERNE ROAD","Address3":"ENNISKILLEN","Postcode":"BT74 6NN","TelNo":"(028) 6632 5638","Lat":54.348367,"Long":-7.634184,"Easting":34048,"Northing":509403},
{"PracNo":564,"PartnershipNo":"PW0106","practiceName":"Dr. WHITE & PARTNERS","Address1":"LAKESIDE MEDICAL PRACTICE","Address2":"ERNE ROAD","Address3":"ENNISKILLEN","Postcode":"BT74 6NN","TelNo":"(028) 6632 7192","Lat":54.348367,"Long":-7.634184,"Easting":34048,"Northing":509403},
{"PracNo":566,"PartnershipNo":"PW8011","practiceName":"Dr. MCCAW & PARTNERS","Address1":"IRVINESTOWN HEALTH CENTRE","Address2":"CHURCH STREET","Address3":"IRVINESTOWN","Postcode":"BT94 1EH","TelNo":"(028) 6862 1212","Lat":54.470872,"Long":-7.634723,"Easting":35105,"Northing":523015},
{"PracNo":568,"PartnershipNo":"PW0294","practiceName":"Dr. MALLON & PARTNER","Address1":"THE HEALTH CENTRE","Address2":"ERNE ROAD","Address3":"ENNISKILLEN","Postcode":"BT74 6NN","TelNo":"(028) 6632 5613","Lat":54.348367,"Long":-7.634184,"Easting":34048,"Northing":509403},
{"PracNo":569,"PartnershipNo":"PW0763","practiceName":"Dr. DEVLIN","Address1":"LURGANBOY PARK","Address2":"CLONES ROAD","Address3":"NEWTOWNBUTLER, ENNISKILLEN","Postcode":"BT92 6JT","TelNo":"(028) 6773 8203","Lat":54.179361,"Long":-7.35603,"Easting":50673,"Northing":489212},
{"PracNo":571,"PartnershipNo":"PW0088","practiceName":"Dr. CATHCART & PARTNERS","Address1":"THE HEALTH CENTRE","Address2":"ERNE ROAD","Address3":"ENNISKILLEN","Postcode":"BT74 6NN","TelNo":"(028) 6632 2707","Lat":54.348367,"Long":-7.634184,"Easting":34048,"Northing":509403},
{"PracNo":574,"PartnershipNo":"PW0764","practiceName":"Dr. PORTEOUS & PARTNERS","Address1":"MAPLE GROUP PRACTICE","Address2":"DRUMHAW","Address3":"LISNASKEA, ENNISKILLEN","Postcode":"BT92 0FP","TelNo":"(028) 6772 1566","Lat":54.258591,"Long":-7.450317,"Easting":45209,"Northing":498487},
{"PracNo":576,"PartnershipNo":"PW0770","practiceName":"Dr. KIERNAN & PARTNER","Address1":"RATHMORE CLINIC","Address2":"BELLEEK","Address3":"ENNISKILLEN","Postcode":"BT93 3FY","TelNo":"(028) 6865 8382","Lat":54.480077,"Long":-8.094814,"Easting":5427,"Northing":526526},
{"PracNo":578,"PartnershipNo":"PW8173","practiceName":"Dr. HARTE","Address1":"THE SURGERY","Address2":"EDERNEY","Address3":"ENNISKILLEN","Postcode":"BT93 0AR","TelNo":"(028) 6863 1234","Lat":54.532067,"Long":-7.661155,"Easting":33943,"Northing":529951},
{"PracNo":579,"PartnershipNo":"PW8096","practiceName":"Dr. COLLINS","Address1":"20 UPPER MAIN ST","Address2":"ROSLEA","Address3":"ENNISKILLEN","Postcode":"BT927LT","TelNo":"(028) 6775 1496","Lat":54.239417,"Long":-7.174434,"Easting":63000,"Northing":495002},
{"PracNo":581,"PartnershipNo":"PW0033","practiceName":"Dr. KIRBY & PARTNER","Address1":"75 MAIN STREET","Address2":"DERRYLIN","Address3":"ENNISKILLEN","Postcode":"BT92 9LB","TelNo":"(028) 6774 8250","Lat":54.1952,"Long":-7.575681,"Easting":36496,"Northing":492083},
{"PracNo":582,"PartnershipNo":"PW0780","practiceName":"Dr. SMYTH","Address1":"THE SURGERY","Address2":"DRUMGOON","Address3":"MAGUIRESBRIDGE, ENNISKILLEN","Postcode":"BT94 4PB","TelNo":"(028) 6772 1273","Lat":54.292045,"Long":-7.47472,"Easting":43911,"Northing":502327},
{"PracNo":583,"PartnershipNo":"PW8060","practiceName":"Dr. KHEW","Address1":"32 MAIN STREET","Address2":"DERRYGONNELLY","Address3":"ENNISKILLEN","Postcode":"BT93 6HW","TelNo":"(028) 6864 1379","Lat":54.417486,"Long":-7.819492,"Easting":22658,"Northing":518061},
{"PracNo":584,"PartnershipNo":"PW0165","practiceName":"Dr. CROMIE & PARTNER","Address1":"BROOKEBOROUGH SURGERY","Address2":"TANYARD LANE","Address3":"BROOKEBOROUGH, ENNISKILLEN","Postcode":"BT94 4AB","TelNo":"(028) 8953 1225","Lat":54.30834,"Long":-7.433473,"Easting":46731,"Northing":503930},
{"PracNo":585,"PartnershipNo":"PW8038","practiceName":"Dr. CUNNINGHAM & PARTNER","Address1":"BENAUGHLIN HEALTH CENTRE","Address2":"DRUMLAGHY","Address3":"FLORENCECOURT, ENNISKILLEN","Postcode":"BT92 1BZ","TelNo":"(028) 66348080","Lat":54.266597,"Long":-7.712208,"Easting":28246,"Northing":500727},
{"PracNo":586,"PartnershipNo":"PW8131","practiceName":"Dr. O'KANE","Address1":"TEMPO MEDICAL CENTRE","Address2":"EDENMORE","Address3":"TEMPO, ENNISKILLEN","Postcode":"BT94 3LU","TelNo":"(028) 8954 1216","Lat":54.376372,"Long":-7.462131,"Easting":45457,"Northing":511633},
{"PracNo":596,"PartnershipNo":"PW0417","practiceName":"Dr. MCCALLION & PARTNERS","Address1":"CITYVIEW MEDICAL, WATERSIDE HEALTH CENTRE","Address2":"SPENCER ROAD","Address3":"LONDONDERRY","Postcode":"BT47 6AH","TelNo":"(028) 71314930","Lat":54.992844,"Long":-7.310734,"Easting":60473,"Northing":579381},
{"PracNo":597,"PartnershipNo":"PW0837","practiceName":"Dr. MCQUILLAN & PARTNERS","Address1":"BOVALLY MEDICAL CENTRE","Address2":"2 ROSSAIR ROAD","Address3":"LIMAVADY","Postcode":"BT49 0TE","TelNo":"(028) 7776 6352","Lat":55.044181,"Long":-6.932172,"Easting":85065,"Northing":583311},
{"PracNo":598,"PartnershipNo":"PW0563","practiceName":"Dr. WARNOCK & PARTNERS","Address1":"QUAYSIDE MEDICAL PRACTICE","Address2":"80 - 84 STRAND ROAD","Address3":"LONDONDERRY","Postcode":"BT48 7NN","TelNo":"(028) 7126 2790","Lat":55.004093,"Long":-7.32101,"Easting":59912,"Northing":580681},
{"PracNo":599,"PartnershipNo":"PW0750","practiceName":"Dr. MORRISON & PARTNERS","Address1":"PARK MEDICAL, THE HEALTH CENTRE","Address2":"GREAT JAMES STREET","Address3":"LONDONDERRY","Postcode":"BT48 7DH","TelNo":"(028) 7137 8500","Lat":54.999554,"Long":-7.326478,"Easting":59524,"Northing":580203},
{"PracNo":600,"PartnershipNo":"PW0052","practiceName":"Dr. TEDDERS & PARTNER","Address1":"THE HEALTH CENTRE","Address2":"IRWIN CRESCENT","Address3":"CLAUDY, LONDONDERRY","Postcode":"BT47 4AB","TelNo":"(028) 7133 8371","Lat":54.910459,"Long":-7.15157,"Easting":69967,"Northing":569463},
{"PracNo":601,"PartnershipNo":"PW0957","practiceName":"Dr. GILLESPIE & PARTNERS","Address1":"MOURNESIDE MEDICAL CENTRE","Address2":"STRABANE","Address3":"","Postcode":"BT82 9AF","TelNo":"(028) 71 383737","Lat":54.821445,"Long":-7.467064,"Easting":48995,"Northing":561109},
{"PracNo":602,"PartnershipNo":"PW0102","practiceName":"Dr. DOHERTY & PARTNERS","Address1":"OAKLEAF MEDICAL PRACTICE","Address2":"GREAT JAMES STREET","Address3":"LONDONDERRY","Postcode":"BT48 7DH","TelNo":"(028) 7137 8522","Lat":54.999554,"Long":-7.326478,"Easting":59524,"Northing":580203},
{"PracNo":603,"PartnershipNo":"PW0036","practiceName":"Dr. BYRNE & PARTNER","Address1":"THE HEALTH CENTRE","Address2":"FEENY","Address3":"LONDONDERRY","Postcode":"BT47 4TD","TelNo":"(028) 77781501","Lat":54.892036,"Long":-7.020222,"Easting":78229,"Northing":566803},
{"PracNo":604,"PartnershipNo":"PW0153","practiceName":"Dr. MCCLOSKEY & PARTNERS","Address1":"THE ABERFOYLE SURGERY","Address2":"120 STRAND ROAD","Address3":"LONDONDERRY","Postcode":"BT48 7NY","TelNo":"(028) 7126 4868","Lat":55.006692,"Long":-7.321203,"Easting":59922,"Northing":580971},
{"PracNo":605,"PartnershipNo":"PW0909","practiceName":"Dr. FULLERTON & PARTNER","Address1":"256 BERRYHILL ROAD","Address2":"DUNAMANAGH","Address3":"STRABANE","Postcode":"BT82 0NB","TelNo":"(028) 71397030","Lat":54.872778,"Long":-7.319896,"Easting":58871,"Northing":566084},
{"PracNo":606,"PartnershipNo":"PW0757","practiceName":"Dr. O'KANE & PARTNERS","Address1":"BRIDGE STREET MEDICAL CENTRE","Address2":"BRIDGE STREET","Address3":"LONDONDERRY","Postcode":"BT48 6LD","TelNo":"(028) 7126 1137","Lat":54.98691,"Long":-7.338905,"Easting":58623,"Northing":578859},
{"PracNo":608,"PartnershipNo":"PW0008","practiceName":"Dr. BLACK & PARTNERS","Address1":"ABBEY MEDICAL PRACTICE","Address2":"ABBEY STREET","Address3":"LONDONDERRY","Postcode":"BT48 9DN","TelNo":"(028) 71 364016","Lat":54.997777,"Long":-7.327311,"Easting":59456,"Northing":580010},
{"PracNo":609,"PartnershipNo":"PW0298","practiceName":"Dr. PRATT & PARTNERS","Address1":"ROSSAIR FAMILY PRACTICE","Address2":"2 ROSSAIR ROAD","Address3":"LIMAVADY","Postcode":"BT49 0TE","TelNo":"(028) 7776 6354","Lat":55.044181,"Long":-6.932172,"Easting":85065,"Northing":583311},
{"PracNo":610,"PartnershipNo":"PW0911","practiceName":"Dr. QUIGLEY & PARTNERS","Address1":"STRABANE HEALTH CENTRE","Address2":"UPPER MAIN STREET","Address3":"STRABANE","Postcode":"BT82 8AS","TelNo":"(028) 7138 4100","Lat":54.824374,"Long":-7.461047,"Easting":49406,"Northing":561404},
{"PracNo":614,"PartnershipNo":"PW0277","practiceName":"Dr. MURPHY & PARTNER","Address1":"DUNGIVEN HEALTH CENTRE","Address2":"DUNGIVEN","Address3":"LONDONDERRY","Postcode":"BT47 4RS","TelNo":"(028) 77743002","Lat":54.922556,"Long":-6.919711,"Easting":84907,"Northing":569737},
{"PracNo":615,"PartnershipNo":"PW8051","practiceName":"Dr. LALSINGH & PARTNERS","Address1":"CLARENDON MEDICAL","Address2":"35 NORTHLAND AVENUE","Address3":"LONDONDERRY","Postcode":"BT48 7GW","TelNo":"(028) 7126 5391","Lat":55.001939,"Long":-7.326751,"Easting":59527,"Northing":580469},
{"PracNo":616,"PartnershipNo":"PW0846","practiceName":"Dr. BAILIE & PARTNERS","Address1":"CASTLEDERG GROUP SURGERY","Address2":"13A LOWER STRABANE ROAD","Address3":"CASTLEDERG","Postcode":"BT81 7AZ","TelNo":"(028) 8167 1211","Lat":54.70524,"Long":-7.589434,"Easting":40112,"Northing":548819},
{"PracNo":617,"PartnershipNo":"PW0928","practiceName":"Dr. THOMPSON & PARTNER","Address1":"MEDICAL CENTRE","Address2":"5 MILLBROOK STREET","Address3":"NEWTOWNSTEWART, OMAGH","Postcode":"BT78 4BW","TelNo":"(028) 8166 1333","Lat":54.718406,"Long":-7.381192,"Easting":53623,"Northing":549232},
{"PracNo":618,"PartnershipNo":"PW0936","practiceName":"Dr. DOHERTY","Address1":"49 CLARENDON STREET","Address2":"LONDONDERRY","Address3":"","Postcode":"BT48 7ER","TelNo":"(028) 7126 1497","Lat":55.000305,"Long":-7.327372,"Easting":59474,"Northing":580291},
{"PracNo":619,"PartnershipNo":"PW8017","practiceName":"Dr. QUINN & PARTNER","Address1":"THE HEALTH CENTRE","Address2":"SCROGGY ROAD","Address3":"LIMAVADY","Postcode":"BT49 0NA","TelNo":"(028) 7776 1111","Lat":55.047698,"Long":-6.939801,"Easting":84605,"Northing":583736},
{"PracNo":620,"PartnershipNo":"PW0916","practiceName":"Dr. WATSON & PARTNERS","Address1":"STRABANE HEALTH CENTRE","Address2":"UPPER MAIN STREET","Address3":"STRABANE","Postcode":"BT82 8AS","TelNo":"(028) 7138 4118","Lat":54.824374,"Long":-7.461047,"Easting":49406,"Northing":561404},
{"PracNo":621,"PartnershipNo":"PW8014","practiceName":"Dr. DEANE & PARTNER","Address1":"NORTHSIDE MEDICAL PRACTICE","Address2":"SHANTALLOW HEALTH CENTRE, RACECOURSE ROAD","Address3":"LONDONDERRY","Postcode":"BT48 8NL","TelNo":"(028) 7135 3054","Lat":55.025678,"Long":-7.31581,"Easting":60427,"Northing":583054},
{"PracNo":622,"PartnershipNo":"PW0129","practiceName":"Dr. MCCLOSKEY & PARTNERS","Address1":"RACECOURSE MEDICAL, SHANTALLOW HEALTH CENTRE","Address2":"RACECOURSE ROAD","Address3":"LONDONDERRY","Postcode":"BT48 8NL","TelNo":"(028) 7135 1323","Lat":55.025678,"Long":-7.31581,"Easting":60427,"Northing":583054},
{"PracNo":623,"PartnershipNo":"PW0831","practiceName":"Dr. LEESON & PARTNERS","Address1":"FOYLESIDE FAMILY PRACTICE","Address2":"BRIDGE STREET MEDICAL CENTRE","Address3":"BRIDGE STREET, LONDONDERRY","Postcode":"BT48 6LD","TelNo":"(028) 71306400","Lat":54.98691,"Long":-7.338905,"Easting":58623,"Northing":578859},
{"PracNo":624,"PartnershipNo":"PW0014","practiceName":"Dr. O'FLAHERTY & PARTNERS","Address1":"GLENDERMOTT MEDICAL, WATERSIDE HEALTH CENTRE","Address2":"SPENCER ROAD","Address3":"LONDONDERRY","Postcode":"BT47 6AH","TelNo":"(028) 71314950","Lat":54.992844,"Long":-7.310734,"Easting":60473,"Northing":579381},
{"PracNo":625,"PartnershipNo":"PW8022","practiceName":"Dr. MCEVOY & PARTNERS","Address1":"BAYVIEW MEDICAL CENTRE","Address2":"3 BAYVIEW TERRACE","Address3":"LONDONDERRY","Postcode":"BT48 7EE","TelNo":"(028) 7137 7027","Lat":55.001636,"Long":-7.323765,"Easting":59715,"Northing":580421},
{"PracNo":626,"PartnershipNo":"PW0662","practiceName":"Dr. HEALY & PARTNERS","Address1":"RIVERFRONT MEDICAL, WATERSIDE HEALTH CENTRE","Address2":"SPENCER ROAD","Address3":"LONDONDERRY","Postcode":"BT47 6AH","TelNo":"(028) 71314910","Lat":54.992844,"Long":-7.310734,"Easting":60473,"Northing":579381},
{"PracNo":627,"PartnershipNo":"PW0930","practiceName":"Dr. MANNING & PARTNERS","Address1":"EGLINTON MEDICAL PRACTICE","Address2":"29 MAIN STREET","Address3":"EGLINTON, LONDONDERRY","Postcode":"BT47 3AB","TelNo":"(028) 7181 0252","Lat":55.026529,"Long":-7.174123,"Easting":69479,"Northing":582468},
{"PracNo":629,"PartnershipNo":"PW0804","practiceName":"Dr. MAGEE & PARTNERS","Address1":"THE HEALTH CENTRE","Address2":"SCROGGY ROAD","Address3":"LIMAVADY","Postcode":"BT49 0NA","TelNo":"(028) 7776 1122","Lat":55.047698,"Long":-6.939801,"Easting":84605,"Northing":583736},
{"PracNo":651,"PartnershipNo":"PW0962","practiceName":"Dr. MONAGHAN & PARTNERS","Address1":"FINTONA GROUP PRACTICE","Address2":"33 DROMORE ROAD","Address3":"FINTONA, OMAGH","Postcode":"BT78 2BB","TelNo":"(028) 8284 1203","Lat":54.498684,"Long":-7.322532,"Easting":55542,"Northing":524529},
{"PracNo":652,"PartnershipNo":"PW8075","practiceName":"Dr. RITCHIE & PARTNER","Address1":"2H MAIN STREET","Address2":"DRUMQUIN","Address3":"CO TYRONE","Postcode":"BT78 4SB","TelNo":"(028) 82831275","Lat":54.616107,"Long":-7.489109,"Easting":45791,"Northing":538405},
{"PracNo":654,"PartnershipNo":"PW0903","practiceName":"Dr. POLLOCK & PARTNERS","Address1":"GRANGE FAMILY PRACTICE, THE HEALTH CENTRE","Address2":"MOUNTJOY ROAD","Address3":"OMAGH","Postcode":"BT79 7BA","TelNo":"0844 477 3503","Lat":54.603034,"Long":-7.301688,"Easting":57767,"Northing":536022},
{"PracNo":655,"PartnershipNo":"PW8012","practiceName":"Dr. SCULLY","Address1":"23 OMAGH ROAD","Address2":"DRUMQUIN","Address3":"OMAGH","Postcode":"BT78 4QY","TelNo":"(028) 82831223","Lat":54.611765,"Long":-7.490248,"Easting":45679,"Northing":537928},
{"PracNo":657,"PartnershipNo":"PW0071","practiceName":"Dr. O'NEILL & PARTNERS","Address1":"THREE SPIRES SURGERY, THE HEALTH CENTRE","Address2":"MOUNTJOY ROAD","Address3":"OMAGH","Postcode":"BT79 7BA","TelNo":"0844 477 3501","Lat":54.603034,"Long":-7.301688,"Easting":57767,"Northing":536022},
{"PracNo":660,"PartnershipNo":"PW0964","practiceName":"Dr. DEENY & PARTNERS","Address1":"CARRICKMORE HEALTH CENTRE","Address2":"TERMON ROAD","Address3":"CARRICKMORE, OMAGH","Postcode":"BT79 9JR","TelNo":"(028) 8076 1242","Lat":54.59089,"Long":-7.040835,"Easting":74498,"Northing":533431},
{"PracNo":661,"PartnershipNo":"PW8004","practiceName":"Dr. REILLY","Address1":"DROMORE SURGERY","Address2":"16 CAMDERRY ROAD","Address3":"DROMORE, OMAGH","Postcode":"BT78 3AU","TelNo":"(028) 8289 8137","Lat":54.520642,"Long":-7.462391,"Easting":46687,"Northing":527664},
{"PracNo":662,"PartnershipNo":"PW0937","practiceName":"Dr. MCCAVERT & PARTNERS","Address1":"DRUMRAGH FAMILY PRACTICE, THE HEALTH CENTRE","Address2":"MOUNTJOY ROAD","Address3":"OMAGH","Postcode":"BT79 7BA","TelNo":"0844 477 3513","Lat":54.603034,"Long":-7.301688,"Easting":57767,"Northing":536022},
{"PracNo":663,"PartnershipNo":"PW8034","practiceName":"Dr. DEEHAN","Address1":"STRULE MEDICAL, THE HEALTH CENTRE","Address2":"MOUNTJOY ROAD","Address3":"OMAGH","Postcode":"BT79 7BA","TelNo":"0844 477 3504","Lat":54.603034,"Long":-7.301688,"Easting":57767,"Northing":536022},
{"PracNo":664,"PartnershipNo":"PW8090","practiceName":"Dr. HICKS & PARTNER","Address1":"41 MAIN STREET","Address2":"PLUMBRIDGE","Address3":"OMAGH","Postcode":"BT79 8DL","TelNo":"(028) 81648292","Lat":54.763982,"Long":-7.25833,"Easting":61907,"Northing":553696}]